long,lat,id,nombre,anio_de_in,tipo,cantidad,ubicacion,clasificac,calle,altura,calle2,barrio,comuna,codigo_postal,codigo_postal_argentino
-58.4569375558625,-34.6266557833432,1,LINEA A CARABOBO,2011,4U,1,VIA PUBLICA,SUBTE,RIVADAVIA AV.,0,CARABOBO AV.,Flores,Comuna 7,,
-58.448756694305,-34.6236988551741,2,LINEA A PUAN,2011,4U,1,VIA PUBLICA,SUBTE,RIVADAVIA AV.,0,PUAN,Caballito,Comuna 6,,
-58.4413799144858,-34.6206157214719,3,LINEA A PRIMERA JUNTA,2011,4U,1,VIA PUBLICA,SUBTE,RIVADAVIA AV.,0,ROJAS,Caballito,Comuna 6,,
-58.4363468481694,-34.6181440510074,4,LINEA A ACOYTE,2011,4U,1,VIA PUBLICA,SUBTE,RIVADAVIA AV.,0,ACOYTE AV.,Caballito,Comuna 6,,
-58.4298960766017,-34.6152793067186,5,LINEA A RIO DE JANEIRO,2011,4U,1,VIA PUBLICA,SUBTE,RIVADAVIA AV.,0,RIO DE JANEIRO,Caballito,Comuna 6,,
-58.4208588168438,-34.6115461819103,6,LINEA A CASTRO BARROS,2011,4U,1,VIA PUBLICA,SUBTE,RIVADAVIA AV.,3900,,Almagro,Comuna 5,1204,C1204AAQ
-58.4145485238024,-34.6108309992688,7,LINEA A LORIA,2011,4U,1,VIA PUBLICA,SUBTE,RIVADAVIA AV.,3400,,Balvanera,Comuna 3,1203,C1203AAS
-58.406393603556,-34.6100349751931,8,LINEA A PLAZA MISERERE,2011,4U,1,VIA PUBLICA,SUBTE,RIVADAVIA AV.,0,JUJUY AV.,Balvanera,Comuna 3,,
-58.4003511527935,-34.6099001564004,9,LINEA A ALBERTI,2011,4U,1,VIA PUBLICA,SUBTE,RIVADAVIA AV.,2400,,Balvanera,Comuna 3,1034,C1034ACP
-58.3974732448301,-34.6096812632737,10,LINEA A PASCO,2011,4U,1,VIA PUBLICA,SUBTE,RIVADAVIA AV.,2200,,Balvanera,Comuna 3,1034,C1034ACN
-58.3920888339406,-34.6093054491961,11,LINEA A CONGRESO,2011,4U,1,VIA PUBLICA,SUBTE,RIVADAVIA AV.,0,ENTRE RIOS AV.,San Nicolas,Comuna 1,,
-58.3861305424599,-34.6094851005659,12,LINEA A SAENZ PEÃ‘A,2011,4U,1,VIA PUBLICA,SUBTE,DE MAYO AV.,1400,,Monserrat,Comuna 1,1085,C1085ABQ
-58.3833075094173,-34.6092915010964,13,LINEA A LIMA,2011,4U,1,VIA PUBLICA,SUBTE,DE MAYO AV.,1200,,Monserrat,Comuna 1,1085,C1085ABO
-58.376241703579,-34.608802685804,14,LINEA A PIEDRAS,2011,4U,1,VIA PUBLICA,SUBTE,DE MAYO AV.,700,,Monserrat,Comuna 1,1084,C1084AAO
-58.3741949465463,-34.6086655474223,15,LINEA A PERU,2011,4U,1,VIA PUBLICA,SUBTE,DE MAYO AV.,550,,Monserrat,Comuna 1,1084,C1084AAN
-58.4740699930842,-34.5813688526438,16,LINEA B DE LOS INCAS-PARQUE CHAS,2011,4U,1,VIA PUBLICA,SUBTE,TRIUNVIRATO AV.,0,DE LOS INCAS AV.,Parque Chas,Comuna 15,,
-58.4663920813242,-34.5839691825164,17,LINEA B TRONADOR-VILLA ORTUZAR,2011,4U,1,VIA PUBLICA,SUBTE,TRIUNVIRATO AV.,0,TRONADOR,Villa Ortuzar,Comuna 15,,
-58.4553422905879,-34.5870857362935,18,LINEA B F. LACROZE,2011,4U,1,VIA PUBLICA,SUBTE,CORRIENTES AV.,0,"LACROZE, FEDERICO AV.",Chacarita,Comuna 15,,
-58.4474154010112,-34.5920196899806,19,LINEA B DORREGO,2011,4U,1,VIA PUBLICA,SUBTE,CORRIENTES AV.,6100,,Villa Crespo,Comuna 15,1414,C1414AKN
-58.4394260321985,-34.5994288403264,20,LINEA B MALABIA,2011,4U,1,VIA PUBLICA,SUBTE,CORRIENTES AV.,5200,,Villa Crespo,Comuna 15,1414,C1414AJR
-58.4300588340572,-34.6023767282651,21,LINEA B ANGEL GALLARDO,2011,4U,1,VIA PUBLICA,SUBTE,CORRIENTES AV.,4600,,Almagro,Comuna 5,1195,C1195AAR
-58.4102346741665,-34.6041418577267,22,LINEA B CARLOS GARDEL,2011,4U,1,VIA PUBLICA,SUBTE,CORRIENTES AV.,3200,,Balvanera,Comuna 3,1193,C1193AAQ
-58.4053582808798,-34.6046809033863,23,LINEA B PUEYRREDON,2011,4U,1,VIA PUBLICA,SUBTE,CORRIENTES AV.,2800,,Balvanera,Comuna 3,1046,C1046AAS
-58.3980968825965,-34.6046833982243,24,LINEA B PASTEUR,2011,4U,1,VIA PUBLICA,SUBTE,CORRIENTES AV.,2200,,Balvanera,Comuna 3,1045,C1045AAQ
-58.3906925375172,-34.6044325652646,25,LINEA B CALLAO,2011,4U,1,VIA PUBLICA,SUBTE,CORRIENTES AV.,1700,,San Nicolas,Comuna 1,1042,C1042AAP
-58.38640184366,-34.6040944746419,26,LINEA B URUGUAY,2011,4U,1,VIA PUBLICA,SUBTE,CORRIENTES AV.,1400,,San Nicolas,Comuna 1,1043,C1043ABN
-58.3793734475979,-34.6036765332792,27,LINEA B CARLOS PELLEGRINI,2011,4U,1,VIA PUBLICA,SUBTE,CORRIENTES AV.,900,,San Nicolas,Comuna 1,1043,C1043AAV
-58.3737289261198,-34.6033339689672,28,LINEA B FLORIDA,2011,4U,1,VIA PUBLICA,SUBTE,CORRIENTES AV.,500,,San Nicolas,Comuna 1,1043,C1043AAR
-58.3689304151844,-34.6030099714031,29,LINEA B LEANDRO N. ALEM,2011,4U,1,VIA PUBLICA,SUBTE,CORRIENTES AV.,100,,San Nicolas,Comuna 1,1043,C1043AAN
-58.3773598337758,-34.5955978763092,30,LINEA C GRAL SAN MARTIN,2011,4U,1,VIA PUBLICA,SUBTE,SANTA FE AV.,700,,Retiro,Comuna 1,1059,C1059ABN
-58.3790639370422,-34.608999976615,31,LINEA C AV DE MAYO,2011,4U,1,VIA PUBLICA,SUBTE,DE MAYO AV.,900,,Monserrat,Comuna 1,1084,C1084AAQ
-58.3784991043584,-34.6222064189763,32,LINEA C SAN JUAN,2011,4U,1,VIA PUBLICA,SUBTE,SAN JUAN AV.,900,,Constitucion,Comuna 1,1147,C1147AAT
-58.3794834762915,-34.6278604864743,33,LINEA C CONSTITUCION,2011,4U,1,VIA PUBLICA,SUBTE,BRASIL,1100,,Constitucion,Comuna 1,1154,C1154AAR
-58.461961278862,-34.5562682728473,34,LINEA D CONGRESO DE TUCUMAN,2011,4U,1,VIA PUBLICA,SUBTE,CABILDO AV.,2800,,Belgrano,Comuna 13,1428,C1428AAW
-58.4559141694255,-34.5631267781229,35,LINEA D JURAMENTO,2011,4U,1,VIA PUBLICA,SUBTE,CABILDO AV.,2000,,Belgrano,Comuna 13,1428,C1428AAO
-58.452312459711,-34.5662235110414,36,LINEA D JOSE HERNANDEZ,2011,4U,1,VIA PUBLICA,SUBTE,CABILDO AV.,1600,,Colegiales,Comuna 13,1426,C1426ABP
-58.4437846086412,-34.570651548733,37,LINEA D OLLEROS,2011,4U,1,VIA PUBLICA,SUBTE,CABILDO AV.,700,,Colegiales,Comuna 13,1426,C1426AAT
-58.4333313692776,-34.5760865521482,38,LINEA D MINISTRO CARRANZA,2011,4U,1,VIA PUBLICA,SUBTE,SANTA FE AV.,5200,,Palermo,Comuna 14,1425,C1425BIN
-58.4261986177748,-34.5783833308463,39,LINEA D PALERMO,2011,4U,1,VIA PUBLICA,SUBTE,SANTA FE AV.,4600,,Palermo,Comuna 14,1425,C1425BHU
-58.4199923781404,-34.582528529909,40,LINEA D PLAZA ITALIA,2011,4U,1,VIA PUBLICA,SUBTE,SANTA FE AV.,4000,,Palermo,Comuna 14,1425,C1425BHO
-58.418248637191,-34.5837275894904,41,LINEA D SCALABRINI ORTIZ,2011,4U,1,VIA PUBLICA,SUBTE,SANTA FE AV.,3900,,Palermo,Comuna 14,1425,C1425BHN
-58.4022905835708,-34.5945728157297,42,LINEA D PUEYRREDON,2011,4U,1,VIA PUBLICA,SUBTE,SANTA FE AV.,2500,,Recoleta,Comuna 2,1123,C1123AAT
-58.3970730075959,-34.5998362709827,43,LINEA D FACULTAD DE MEDICINA,2011,4U,1,VIA PUBLICA,SUBTE,CORDOBA AV.,2100,,Balvanera,Comuna 3,1120,C1120AAP
-58.3851575669186,-34.6016876981836,44,LINEA D TRIBUNALES,2011,4U,1,VIA PUBLICA,SUBTE,TUCUMAN,1300,,San Nicolas,Comuna 1,1049,C1049AAZ
-58.3792851990904,-34.6050985809533,45,LINEA D 9 DE JULIO,2011,4U,1,VIA PUBLICA,SUBTE,"SAENZ PEÃ‘A, ROQUE, PRES. DIAGONAL NORTE AV.",900,,San Nicolas,Comuna 1,,
-58.3737545483706,-34.6079733535711,46,LINEA D CATEDRAL,2011,4U,1,VIA PUBLICA,SUBTE,"SAENZ PEÃ‘A, ROQUE, PRES. DIAGONAL NORTE AV.",502,,Monserrat,Comuna 1,,
-58.4605870730133,-34.6431216811476,47,LINEA E PLAZA DE LOS VIRREYES,2011,4U,1,VIA PUBLICA,SUBTE,SAN PEDRITO,0,"PERON, EVA AV.",Flores,Comuna 7,,
-58.4585343727198,-34.6393882553613,48,LINEA E VARELA,2011,4U,1,VIA PUBLICA,SUBTE,VARELA AV.,900,,Flores,Comuna 7,1406,C1406EKR
-58.4502824781998,-34.6369356139547,49,LINEA E MEDALLA MILAGROSA,2011,4U,1,VIA PUBLICA,SUBTE,"PERON, EVA AV.",2000,,Parque Chacabuco,Comuna 7,1406,C1406HMU
-58.4407909554262,-34.6301436690599,50,LINEA E EMILIO MITRE,2011,4U,1,VIA PUBLICA,SUBTE,"PERON, EVA AV.",1100,,Parque Chacabuco,Comuna 7,1424,C1424CJN
-58.433676713586,-34.6281092533161,51,LINEA E JOSE M. MORENO,2011,4U,1,VIA PUBLICA,SUBTE,DIRECTORIO AV.,500,,Parque Chacabuco,Comuna 7,1424,C1424CIR
-58.4254246002752,-34.6269146123346,52,LINEA E AV. LA PLATA,2011,4U,1,VIA PUBLICA,SUBTE,SAN JUAN AV.,4300,,Boedo,Comuna 5,1233,C1233ABZ
-58.4145833265071,-34.6253645993601,53,LINEA E BOEDO,2011,4U,1,VIA PUBLICA,SUBTE,SAN JUAN AV.,3500,,Boedo,Comuna 5,1233,C1233ABR
-58.4087157009657,-34.6246768293778,54,LINEA E GENERAL URQUIZA,2011,4U,1,VIA PUBLICA,SUBTE,SAN JUAN AV.,3100,,San Cristobal,Comuna 3,1233,C1233ABN
-58.401992716528,-34.6238623515149,55,LINEA E JUJUY,2011,4U,1,VIA PUBLICA,SUBTE,SAN JUAN AV.,2700,,San Cristobal,Comuna 3,1232,C1232AAV
-58.3962690188316,-34.6231606240766,56,LINEA E PICHINCHA,2011,4U,1,VIA PUBLICA,SUBTE,SAN JUAN AV.,2200,,San Cristobal,Comuna 3,1232,C1232AAQ
-58.3842691364582,-34.6224169821053,57,LINEA E SAN JOSE,2011,4U,1,VIA PUBLICA,SUBTE,SAN JUAN AV.,1300,,Constitucion,Comuna 1,1148,C1148AAN
-58.3760303699763,-34.6128527033911,58,LINEA E BELGRANO,2011,4U,1,VIA PUBLICA,SUBTE,BELGRANO AV.,700,,Monserrat,Comuna 1,1092,C1092AAT
-58.3734625397514,-34.6092479598976,59,LINEA E BOLIVAR,2011,4U,1,VIA PUBLICA,SUBTE,"ROCA, JULIO A., PRESIDENTE DIAGONAL SUR AV.",502,,Monserrat,Comuna 1,1067,C1067ABN
-58.3866255678501,-34.5999172321065,60,CGPC 1,2011,4U,1,VIA PUBLICA,EDIFICIOS PUBLICOS,URUGUAY AV.,751,,San Nicolas,Comuna 1,1015,C1015ABO
-58.4312240306248,-34.6088407456695,61,CGPC 6,2011,4U,1,VIA PUBLICA,EDIFICIOS PUBLICOS,DIAZ VELEZ AV.,4558,,Caballito,Comuna 6,1405,C1405DCN
-58.4669331104152,-34.6301480136327,62,CGPC 7,2011,4U,1,VIA PUBLICA,EDIFICIOS PUBLICOS,RIVADAVIA AV.,7202,,Flores,Comuna 7,1406,C1406GMP
-58.4552607896737,-34.6848034110927,63,CGPC 8,2011,4U,1,VIA PUBLICA,EDIFICIOS PUBLICOS,"ROCA, CNEL. AV.",5252,,Villa Riachuelo,Comuna 8,1439,C1439DVN
-58.5049831439656,-34.6596800604254,64,CGPC 9,2011,4U,1,VIA PUBLICA,EDIFICIOS PUBLICOS,"GORDILLO, TIMOTEO",2212,,Mataderos,Comuna 9,1440,C1440EET
-58.4834983217723,-34.631869529608,65,CGPC 10,2011,4U,1,VIA PUBLICA,EDIFICIOS PUBLICOS,BACACAY,3968,,Floresta,Comuna 10,1407,C1407EDN
-58.5160279688743,-34.6083280308812,66,CGPC 11,2011,4U,1,VIA PUBLICA,EDIFICIOS PUBLICOS,"BEIRO, FRANCISCO AV.",4629,,Villa Devoto,Comuna 11,1419,C1419HZI
-58.4640294342105,-34.5537569321145,67,CGPC 13,2011,4U,1,VIA PUBLICA,EDIFICIOS PUBLICOS,CABILDO AV.,3067,,NuÃ±ez,Comuna 13,1429,C1429AAB
-58.4094338621924,-34.5872262004631,68,CGPC 14,2011,4U,1,VIA PUBLICA,EDIFICIOS PUBLICOS,BERUTI,3325,,Palermo,Comuna 14,1425,C1425BBQ
-58.36966173425,-34.6112621256633,69,PLAZA ADUANA,2011,4U,1,VIA PUBLICA,ESPACIOS VERDES,MORENO,0,PASEO COLON AV.,Monserrat,Comuna 1,,
-58.420646624763,-34.5801036002758,70,PLAZA ITALIA,2011,4U,1,VIA PUBLICA,ESPACIOS VERDES,SANTA FE AV.,0,THAMES,Palermo,Comuna 14,,
-58.38536887001,-34.6010633787858,71,TRIBUNALES,2011,4U,1,VIA PUBLICA,ESPACIOS VERDES,TALCAHUANO,0,TUCUMAN,San Nicolas,Comuna 1,,
-58.3745623575234,-34.5922369352011,72,RETIRO,2011,4U,1,VIA PUBLICA,ESPACIOS VERDES,DEL LIBERTADOR AV.,0,"RAMOS MEJIA, JOSE MARIA, DR. AV.",Retiro,Comuna 1,,
-58.4095218205517,-34.6177102036072,73,HOSPITAL RAMOS MEJIA,2011,4U,1,VIA PUBLICA,HOSPITALES,"URQUIZA, GRAL.",609,,Balvanera,Comuna 3,1221,C1221ADC
-58.3958518533535,-34.6313413737687,74,HOSPITAL GARRAHAM,2011,4U,1,VIA PUBLICA,HOSPITALES,PICHINCHA AV.,1890,,Parque Patricios,Comuna 4,1249,C1249ABN
-58.4014260690998,-34.5921040063662,75,HOSPITAL ALEMAN,2011,4U,1,VIA PUBLICA,HOSPITALES,PUEYRREDON AV.,1640,,Recoleta,Comuna 2,1118,C1118AAT
-58.4709790955597,-34.5874165122312,76,HOSPITAL TORNU,2011,4U,1,VIA PUBLICA,HOSPITALES,COMBATIENTES DE MALVINAS AV.,3002,,Parque Chas,Comuna 15,1431,C1431FTA
-58.5017790950854,-34.6183727252547,77,HOSPITAL DE REHABILITACION MANUEL ROCA,2011,4U,1,VIA PUBLICA,HOSPITALES,SEGUROLA AV.,1949,,Monte Castro,Comuna 10,1407,C1407AOM
-58.4409274660991,-34.5539531113105,78,INSTITUTO DE REHABILITACION PSICOFISICO,2011,4U,1,VIA PUBLICA,HOSPITALES,ECHEVERRIA,955,,Belgrano,Comuna 13,1428,C1428DQG
-58.4556024917582,-34.5613031891279,79,MUSEO LARRETA,2011,4U,1,VIA PUBLICA,EDIFICIOS CULTURALES,JURAMENTO AV.,2291,,Belgrano,Comuna 13,1428,C1428DNK
-58.4004953347788,-34.582575738948,80,MUSEO DE ARTE DECORATIVO,2011,4U,1,VIA PUBLICA,EDIFICIOS CULTURALES,DEL LIBERTADOR AV.,1902,,Palermo,Comuna 14,1425,C1425AAS
-58.3857891073227,-34.5863026994599,81,MUSEO DE ARQUITECTURA,2011,4U,1,VIA PUBLICA,EDIFICIOS CULTURALES,DEL LIBERTADOR AV.,999,,Recoleta,Comuna 2,1001,C1001ABJ
-58.4433420043742,-34.5681966914566,82,TEA CONECTION,2011,4U,1,VIA PUBLICA,GASTRONOMICOS,"LACROZE, FEDERICO AV.",2233,,Palermo,Comuna 14,1426,C1426CPH
-58.4530401240545,-34.5613088435113,83,TEA CONECTION,2011,4U,1,VIA PUBLICA,GASTRONOMICOS,ARCOS,0,ECHEVERRIA,Belgrano,Comuna 13,,
-58.3896607202204,-34.5858874335329,84,PALAIS DE GLACE,2011,4U,1,VIA PUBLICA,EDIFICIOS CULTURALES,POSADAS,1725,,Recoleta,Comuna 2,1112,C1112ADE
-58.3757179029398,-34.6228324259766,85,DIRECCION DE OBRAS,2011,4U,1,VIA PUBLICA,EDIFICIOS PUBLICOS,CHACABUCO,1261,,San Telmo,Comuna 1,1140,C1140AAA
-58.4123064825827,-34.6076138188371,86,DIRECCION GENERAL DE ESTADISTICAS Y CENSOS,2011,4U,1,VIA PUBLICA,EDIFICIOS PUBLICOS,"PERON, JUAN DOMINGO, TTE. GENERAL",3253,,Balvanera,Comuna 3,1198,C1198AAI
-58.3701950341156,-34.6089162786428,87,MINISTERIO DE PLANIFICACION,2011,4U,1,VIA PUBLICA,EDIFICIOS PUBLICOS,"YRIGOYEN, HIPOLITO AV.",250,,Monserrat,Comuna 1,1086,C1086AAB
-58.4081978416439,-34.6077997276299,88,AGENCIA GUBERNAMENTAL DE CONTROL,2011,4U,1,VIA PUBLICA,EDIFICIOS PUBLICOS,"PERON, JUAN DOMINGO, TTE. GENERAL",2933,,Balvanera,Comuna 3,1198,C1198AAC
-58.3890460836678,-34.6089941849646,89,VIA PUBLICA,2011,4U,1,VIA PUBLICA,ESPACIOS VERDES,RIVADAVIA AV.,0,"CEVALLOS, VIRREY",San Nicolas,Comuna 1,,
-58.4072214495702,-34.5809121804346,90,HOSPITAL DR. J. A. FERNANDEZ,2011,4U,1,VIA PUBLICA,HOSPITALES,CERVIÃ‘O AV.,0,"RUGGIERI, SILVIO L.",Palermo,Comuna 14,,
-58.4235958092001,-34.6597866017115,91,ESCUELA FERRE NÂº5,2011,4U,1,VIA PUBLICA,ESCUELAS,FERRE,1957,,Nueva Pompeya,Comuna 4,1437,C1437FUK
-58.3757918252282,-34.6034603934842,92,AUDITORIA GRAL DE LA CIUDAD,2011,4U,1,VIA PUBLICA,EDIFICIOS PUBLICOS,CORRIENTES AV.,640,,San Nicolas,Comuna 1,1043,C1043AAT
-58.369648734614,-34.6115670924367,93,ANSES,2011,4U,1,VIA PUBLICA,EDIFICIOS PUBLICOS,PASEO COLON AV.,329,,Monserrat,Comuna 1,1063,C1063ACD
-58.4426340726035,-34.6278978079786,94,SAINT EXUPERY,2011,4U,1,VIA PUBLICA,ESCUELAS,"BONIFACIO, JOSE",1075,,Caballito,Comuna 6,1424,C1424CHU
-58.3766136136149,-34.6067867021707,95,MAIPU 116,2011,4U,1,VIA PUBLICA,EDIFICIOS PUBLICOS,MAIPU,116,,San Nicolas,Comuna 1,1084,C1084ABD
-58.3728498969469,-34.5977407608996,96,RECONQUISTA 865,2011,4U,1,VIA PUBLICA,EDIFICIOS PUBLICOS,RECONQUISTA,865,,Retiro,Comuna 1,1003,C1003ABQ
-58.3726537045564,-34.5993678452107,97,RECONQUISTA 723,2011,4U,1,VIA PUBLICA,EDIFICIOS PUBLICOS,RECONQUISTA,723,,San Nicolas,Comuna 1,1003,C1003ABO
-58.3722261900364,-34.6062496922285,98,RECONQUISTA 135,2011,4U,1,VIA PUBLICA,EDIFICIOS PUBLICOS,RECONQUISTA,135,,San Nicolas,Comuna 1,1003,C1003ABC
-58.3938074835513,-34.637425129328,99,HOSPITAL MUÃ‘IZ,2011,4U,1,VIA PUBLICA,HOSPITALES,USPALLATA,2272,,Parque Patricios,Comuna 4,1282,C1282AEN
-58.3801151213269,-34.5910563039713,100,MUSEO FERNANDEZ BLANCO,2011,4U,1,VIA PUBLICA,EDIFICIOS CULTURALES,SUIPACHA,1422,,Retiro,Comuna 1,1011,C1011ACF
-58.4146795969586,-34.5807158989782,101,MUSEO EVITA,2011,4U,1,VIA PUBLICA,EDIFICIOS CULTURALES,LAFINUR,2988,,Palermo,Comuna 14,1425,C1425FAB
-58.380599247534,-34.6547290019789,102,CENTRO METROPOLITANO DE DISEÃ‘O,2011,4U,1,VIA PUBLICA,EDIFICIOS CULTURALES,VILLARINO,2498,,Barracas,Comuna 4,1273,C1273AEB
-58.3791769492627,-34.5899288288897,103,MUSEO NACIONAL FERROVIARIO,2011,4U,1,VIA PUBLICA,EDIFICIOS CULTURALES,DEL LIBERTADOR AV.,405,,Retiro,Comuna 1,1001,C1001ABE
-58.4114588201468,-34.5708833897739,104,PLANETARIO,2011,4U,1,VIA PUBLICA,EDIFICIOS CULTURALES,SARMIENTO AV.,0,"ROLDAN, BELISARIO AV.",Palermo,Comuna 14,,
-58.404898215225,-34.5799798366646,105,MUSEO JOSE HERNANDEZ,2011,4U,1,VIA PUBLICA,EDIFICIOS CULTURALES,DEL LIBERTADOR AV.,2373,,Palermo,Comuna 14,1425,C1425AAJ
-58.4211828724546,-34.5705302797636,106,MUSEO DE ARTES PLASTICAS EDUARDO SIVORI,2011,4U,1,VIA PUBLICA,EDIFICIOS CULTURALES,"ISABEL, INFANTA AV.",555,,Palermo,Comuna 14,,
-58.3804259230237,-34.611475939191,107,ASI,2012,4U,1,VIA PUBLICA,EDIFICIOS PUBLICOS,"IRIGOYEN, BERNARDO DE",272,,Monserrat,Comuna 1,1072,C1072AAF
-58.4552607896737,-34.6848034110927,108,DIRECCION GENERAL DE LICENCIAS,2012,4U,1,INTERIOR,EDIFICIOS PUBLICOS,"ROCA, CNEL. AV.",5252,,Villa Riachuelo,Comuna 8,1439,C1439DVN
-58.4190361208475,-34.5828305956672,109,JARDIN BOTANICO,2012,4U,2,INTERIOR,ESPACIOS VERDES,SANTA FE AV.,3951,,Palermo,Comuna 14,1425,C1425BHB
-58.3917137839747,-34.5865977604355,110,CC RECOLETA,2012,4U,2,INTERIOR,EDIFICIOS CULTURALES,JUNIN,1930,,Recoleta,Comuna 2,1113,C1113AAX
-58.4036381037537,-34.5773298391142,111,MALBA,2012,4U,2,VIA PUBLICA,EDIFICIOS CULTURALES,"FIGUEROA ALCORTA, PRES. AV.",3415,,Palermo,Comuna 14,1425,C1425CLA
-58.4398460504779,-34.58199045653,112,IDEAS DEL SUR,2012,4U,2,VIA PUBLICA,OTROS,"RAVIGNANI, EMILIO, DR.",1664,,Palermo,Comuna 14,1414,C1414CPN
-58.3559655581178,-34.6288120880983,113,USINA DE LAS ARTES,2012,4U,1,INTERIOR,EDIFICIOS CULTURALES,DON PEDRO DE MENDOZA AV.,0,"CAFFARENA, AGUSTIN R.",La Boca,Comuna 4,,
-58.3736435805917,-34.608066104047,114,JEFATURA DE GOBIERNO,2012,4U,1,INTERIOR,EDIFICIOS PUBLICOS,BOLIVAR,1,,Monserrat,Comuna 1,1066,C1066AAA
-58.374532931704,-34.6084700811989,115,CULTURA,2012,4U,1,INTERIOR,EDIFICIOS PUBLICOS,DE MAYO AV.,575,,Monserrat,Comuna 1,1084,C1084AAA
-58.3839006562894,-34.5992625759132,116,PLAZA LAVALLE,2013,4U,1,VIA PUBLICA,AV. CORDOBA- ESPACIOS VERDES,CORDOBA AV.,1200,,San Nicolas,Comuna 1,1055,C1055AAO
-58.3898917752759,-34.5995643584099,117,RESTAURANT,2013,4U,1,VIA PUBLICA,AV. CORDOBA,CORDOBA AV.,1616,,San Nicolas,Comuna 1,1055,C1055AAT
-58.390766314367,-34.5996219194066,118,RESTAURANT,2013,4U,1,VIA PUBLICA,AV. CORDOBA,CORDOBA AV.,1662,,San Nicolas,Comuna 1,1055,C1055AAT
-58.3715731157354,-34.5985332098678,119,TECHINT,2013,4U,1,VIA PUBLICA,AV. CORDOBA,CORDOBA AV.,302,,San Nicolas,Comuna 1,1054,C1054AAP
-58.4270860903102,-34.5959930969315,120,AYRES,2013,4U,1,VIA PUBLICA,AV. CORDOBA,CORDOBA AV.,4307,,Palermo,Comuna 14,1414,C1414BAB
-58.4283826532281,-34.5954701148895,121,BANCO DE LA NACION ARGENTINA,2013,4U,1,VIA PUBLICA,AV. CORDOBA,CORDOBA AV.,4416,,Villa Crespo,Comuna 15,1414,C1414BAP
-58.4285790386623,-34.5950812083081,122,PORTSAID,2013,4U,1,VIA PUBLICA,AV. CORDOBA,CORDOBA AV.,4453,,Palermo,Comuna 14,1414,C1414BAC
-58.4291603542329,-34.5949951125497,123,LOCAL,2013,4U,1,VIA PUBLICA,AV. CORDOBA,CORDOBA AV.,4500,,Villa Crespo,Comuna 15,1414,C1414BAP
-58.4300670862511,-34.5944330966171,124,YAGMOUR,2013,4U,1,VIA PUBLICA,AV. CORDOBA,CORDOBA AV.,4600,,Villa Crespo,Comuna 15,1414,C1414BAQ
-58.3824643248921,-34.603646592694,125,OCA,2013,4U,1,VIA PUBLICA,AV. CORRIENTES,CORRIENTES AV.,1111,,San Nicolas,Comuna 1,1043,C1043AAL
-58.3844921991076,-34.6037655921307,126,ORIX,2013,4U,1,VIA PUBLICA,AV. CORRIENTES,CORRIENTES AV.,1255,,San Nicolas,Comuna 1,1043,C1043AAM
-58.3847682291969,-34.6039895345233,127,KIOSKO,2013,4U,1,VIA PUBLICA,AV. CORRIENTES,CORRIENTES AV.,1280,,San Nicolas,Comuna 1,1043,C1043AAZ
-58.3854912858726,-34.6038241902319,128,EQUUS,2013,4U,1,VIA PUBLICA,AV. CORRIENTES,CORRIENTES AV.,1321,,San Nicolas,Comuna 1,1043,C1043ABA
-58.386015394975,-34.6038549145614,129,LOS INMORTALES,2013,4U,1,VIA PUBLICA,AV. CORRIENTES,CORRIENTES AV.,1365,,San Nicolas,Comuna 1,1043,C1043ABA
-58.386867352103,-34.6041181474316,130,BANCO CIUDAD,2013,4U,1,VIA PUBLICA,AV. CORRIENTES,CORRIENTES AV.,1418,,San Nicolas,Comuna 1,1042,C1042AAN
-58.3871577212064,-34.6039351230849,131,COLEGIO PUBLICO DE ABOGADOS,2013,4U,1,VIA PUBLICA,AV. CORRIENTES,CORRIENTES AV.,1441,,San Nicolas,Comuna 1,1042,C1042AAA
-58.38803415608,-34.6042148186309,132,PIZZERIA,2013,4U,1,VIA PUBLICA,AV. CORRIENTES,CORRIENTES AV.,1504,,San Nicolas,Comuna 1,1042,C1042AAO
-58.3891205033633,-34.6040967927067,133,KIOSKO,2013,4U,1,VIA PUBLICA,AV. CORRIENTES,CORRIENTES AV.,1587,,San Nicolas,Comuna 1,1042,C1042AAB
-58.3915293559647,-34.6044920342494,134,OFICINAS,2013,4U,1,VIA PUBLICA,AV. CORRIENTES,CORRIENTES AV.,1750,,San Nicolas,Comuna 1,1042,C1042AAQ
-58.3941475121694,-34.6043614178704,135,RESTAURANTE GREEN LIFE,2013,4U,1,VIA PUBLICA,AV. CORRIENTES,CORRIENTES AV.,1915,,Balvanera,Comuna 3,1045,C1045AAB
-58.394530251231,-34.6045780340128,136,PIZZA ZAPI,2013,4U,1,VIA PUBLICA,AV. CORRIENTES,CORRIENTES AV.,1948,,Balvanera,Comuna 3,1045,C1045AAO
-58.3977632281972,-34.6044558441304,137,BANCO PATAGONIA,2013,4U,1,VIA PUBLICA,AV. CORRIENTES,CORRIENTES AV.,2171,,Balvanera,Comuna 3,1045,C1045AAD
-58.3988453029513,-34.6044993983888,138,BANCO FRANCES,2013,4U,1,VIA PUBLICA,AV. CORRIENTES,CORRIENTES AV.,2249,,Balvanera,Comuna 3,1046,C1046AAA
-58.4012027216234,-34.6047924839924,139,SANTANDER,2013,4U,1,VIA PUBLICA,AV. CORRIENTES,CORRIENTES AV.,2426,,Balvanera,Comuna 3,1046,C1046AAP
-58.4015595779882,-34.6048037506419,140,BANCO HSBC,2013,4U,1,VIA PUBLICA,AV. CORRIENTES,CORRIENTES AV.,2458,,Balvanera,Comuna 3,1046,C1046AAP
-58.4015595779882,-34.6048037506419,141,BANCO CIUDAD,2013,4U,1,VIA PUBLICA,AV. CORRIENTES,CORRIENTES AV.,2458,,Balvanera,Comuna 3,1046,C1046AAP
-58.4108324331842,-34.6041511081718,142,JUST SPORT,2013,4U,1,VIA PUBLICA,AV. CORRIENTES,CORRIENTES AV.,3234,,Balvanera,Comuna 3,1193,C1193AAR
-58.411014708392,-34.6039428320906,143,SHOPPING ABASTO,2013,4U,1,VIA PUBLICA,AV. CORRIENTES,CORRIENTES AV.,3247,,Balvanera,Comuna 3,1193,C1193AAE
-58.411014708392,-34.6039428320906,144,SHOPPING ABASTO,2013,4U,1,VIA PUBLICA,AV. CORRIENTES,CORRIENTES AV.,3247,,Balvanera,Comuna 3,1193,C1193AAE
-58.4130741060298,-34.6040251663755,145,BANCO CIUDAD,2013,4U,1,VIA PUBLICA,AV. CORRIENTES,CORRIENTES AV.,3399,,Balvanera,Comuna 3,1193,C1193AAF
-58.4150316810292,-34.6038189073388,146,ARGENPER,2013,4U,1,VIA PUBLICA,AV. CORRIENTES,CORRIENTES AV.,3547,,Almagro,Comuna 5,1194,C1194AAB
-58.4166889689319,-34.6037203052235,147,CORREO ARGENTINO,2013,4U,1,VIA PUBLICA,AV. CORRIENTES,CORRIENTES AV.,3700,,Almagro,Comuna 5,1194,C1194AAP
-58.4168335273289,-34.6034806418467,148,LA CONTINENTAL,2013,4U,1,VIA PUBLICA,AV. CORRIENTES,CORRIENTES AV.,3701,,Almagro,Comuna 5,1194,C1194AAD
-58.4179446727917,-34.6035867169619,149,ICBC,2013,4U,1,VIA PUBLICA,AV. CORRIENTES,CORRIENTES AV.,3800,,Almagro,Comuna 5,1194,C1194AAQ
-58.4202536820582,-34.6031363694887,150,MOVISTAR,2013,4U,1,VIA PUBLICA,AV. CORRIENTES,CORRIENTES AV.,3953,,Almagro,Comuna 5,1194,C1194AAF
-58.4228252581634,-34.6028803888655,151,BAR LA ORQUIDEA,2013,4U,1,VIA PUBLICA,AV. CORRIENTES,CORRIENTES AV.,4113,,Almagro,Comuna 5,1195,C1195AAA
-58.4229888275581,-34.6030820524559,152,BANCO CREDICOP,2013,4U,1,VIA PUBLICA,AV. CORRIENTES,CORRIENTES AV.,4124,,Almagro,Comuna 5,1195,C1195AAN
-58.4233595041181,-34.6030452584615,153,BANCO GALICIA,2013,4U,1,VIA PUBLICA,AV. CORRIENTES,CORRIENTES AV.,4152,,Almagro,Comuna 5,1195,C1195AAN
-58.3727956802712,-34.603059830445,154,SEÃ‘OR SANDWICH,2013,4U,1,VIA PUBLICA,AV. CORRIENTES,CORRIENTES AV.,419,,San Nicolas,Comuna 1,1043,C1043AAE
-58.4252414140775,-34.6026406748694,155,BANCO NACION,2013,4U,1,VIA PUBLICA,AV. CORRIENTES,CORRIENTES AV.,4279,,Almagro,Comuna 5,1195,C1195AAB
-58.4265712804302,-34.6025091701942,156,ESCUELA DE PASTELERIA,2013,4U,1,VIA PUBLICA,AV. CORRIENTES,CORRIENTES AV.,4367,,Almagro,Comuna 5,1195,C1195AAC
-58.3730576412354,-34.6030758868729,157,ORSNA,2013,4U,1,VIA PUBLICA,AV. CORRIENTES,CORRIENTES AV.,441,,San Nicolas,Comuna 1,1043,C1043AAE
-58.4290169382768,-34.6024831549774,158,CENTRO DOS,2013,4U,1,VIA PUBLICA,AV. CORRIENTES,CORRIENTES AV.,4524,,Almagro,Comuna 5,1195,C1195AAR
-58.4295880629711,-34.6022068265485,159,RESTAURANT,2013,4U,1,VIA PUBLICA,AV. CORRIENTES,CORRIENTES AV.,4567,,Almagro,Comuna 5,1195,C1195AAE
-58.4342494280913,-34.601502685512,160,EL TREBOL,2013,4U,1,VIA PUBLICA,AV. CORRIENTES,CORRIENTES AV.,4854,,Villa Crespo,Comuna 15,1414,C1414AJO
-58.4375390918087,-34.6004014944594,161,BANCO SANTANDER,2013,4U,1,VIA PUBLICA,AV. CORRIENTES,CORRIENTES AV.,5100,,Villa Crespo,Comuna 15,1414,C1414AJQ
-58.4378040586079,-34.600079383232,162,BANCO FRANCES,2013,4U,1,VIA PUBLICA,AV. CORRIENTES,CORRIENTES AV.,5117,,Villa Crespo,Comuna 15,1414,C1414AJE
-58.4389958811029,-34.5998547972629,163,EL IMPERIO,2013,4U,1,VIA PUBLICA,AV. CORRIENTES,CORRIENTES AV.,5206,,Villa Crespo,Comuna 15,1414,C1414AJS
-58.4406046588566,-34.5983570135071,164,BANCO ICBC,2013,4U,1,VIA PUBLICA,AV. CORRIENTES,CORRIENTES AV.,5386,,Villa Crespo,Comuna 15,1414,C1414AJT
-58.4404571109486,-34.5981687439842,165,BANCO PROVINCIA,2013,4U,1,VIA PUBLICA,AV. CORRIENTES,CORRIENTES AV.,5391,,Villa Crespo,Comuna 15,1414,C1414AJG
-58.4412125776305,-34.5977929220776,166,BONAFIDE,2013,4U,1,VIA PUBLICA,AV. CORRIENTES,CORRIENTES AV.,5444,,Villa Crespo,Comuna 15,1414,C1414AJU
-58.4420500556315,-34.5970157901557,167,TARJETA NARANJA,2013,4U,1,VIA PUBLICA,AV. CORRIENTES,CORRIENTES AV.,5530,,Villa Crespo,Comuna 15,1414,C1414AJV
-58.4421281533125,-34.5966181251622,168,BANCO ITAU,2013,4U,1,VIA PUBLICA,AV. CORRIENTES,CORRIENTES AV.,5563,,Villa Crespo,Comuna 15,1414,C1414AJI
-58.4424521504017,-34.5966426539151,169,PIZZERIA NAPOLES,2013,4U,1,VIA PUBLICA,AV. CORRIENTES,CORRIENTES AV.,5580,,Villa Crespo,Comuna 15,1414,C1414AJV
-58.3746990529116,-34.6033934166101,170,PERSONAL,2013,4U,1,VIA PUBLICA,AV. CORRIENTES,CORRIENTES AV.,566,,San Nicolas,Comuna 1,1043,C1043AAS
-58.4467705579752,-34.5926358593408,171,BAR DOLCE HORA,2013,4U,1,VIA PUBLICA,AV. CORRIENTES,CORRIENTES AV.,6096,,Villa Crespo,Comuna 15,1414,C1414AKN
-58.3769556930433,-34.6035317214967,172,IGLESIA,2013,4U,1,VIA PUBLICA,AV. CORRIENTES,CORRIENTES AV.,718,,San Nicolas,Comuna 1,1043,C1043AAU
-58.3774157046668,-34.6035598912094,173,DALISA,2013,4U,1,VIA PUBLICA,AV. CORRIENTES,CORRIENTES AV.,756,,San Nicolas,Comuna 1,1043,C1043AAU
-58.3805099436774,-34.6037494207744,174,BONAFIDE,2013,4U,1,VIA PUBLICA,AV. CORRIENTES,CORRIENTES AV.,974,,San Nicolas,Comuna 1,1043,C1043AAW
-58.3786247146309,-34.6034169934575,175,SPRAYETTE,2013,4U,1,VIA PUBLICA,AV. CORRIENTES,CORRIENTES AV.,837,,San Nicolas,Comuna 1,1043,C1043AAI
-58.3827930057255,-34.6029836879101,176,EDIFICIO DIAGONAL PLAZA,2013,4U,1,VIA PUBLICA,AV. ROQUE SAENZ PEÃ‘A,"SAENZ PEÃ‘A, ROQUE, PRES. DIAGONAL NORTE AV.",1145,,San Nicolas,Comuna 1,,
-58.3833332277875,-34.6029697006581,177,PODER JUDICIAL DE LA NACION,2013,4U,1,VIA PUBLICA,AV. ROQUE SAENZ PEÃ‘A-ESPACIOS PUBLICOS,"SAENZ PEÃ‘A, ROQUE, PRES. DIAGONAL NORTE AV.",1184,,San Nicolas,Comuna 1,,
-58.3758526093427,-34.6068857009197,178,MINISTERIO DEL INTERIOR,2013,4U,1,VIA PUBLICA,AV. ROQUE SAENZ PEÃ‘A-ESPACIOS PUBLICOS,"SAENZ PEÃ‘A, ROQUE, PRES. DIAGONAL NORTE AV.",660,,San Nicolas,Comuna 1,,
-58.3772811264818,-34.606137228323,179,TRIBUNALES DE TRABAJO,2013,4U,1,VIA PUBLICA,AV. ROQUE SAENZ PEÃ‘A-ESPACIOS PUBLICOS,"SAENZ PEÃ‘A, ROQUE, PRES. DIAGONAL NORTE AV.",760,,San Nicolas,Comuna 1,,
-58.3787808065088,-34.6050937977353,180,BANCO GALICIA,2013,4U,1,VIA PUBLICA,AV. ROQUE SAENZ PEÃ‘A,"SAENZ PEÃ‘A, ROQUE, PRES. DIAGONAL NORTE AV.",865,,San Nicolas,Comuna 1,,
-58.380334998086,-34.6045342504729,181,RANDTAD,2013,4U,1,VIA PUBLICA,AV. ROQUE SAENZ PEÃ‘A,"SAENZ PEÃ‘A, ROQUE, PRES. DIAGONAL NORTE AV.",950,,San Nicolas,Comuna 1,,
-58.4371708555521,-34.5961534376026,182,OUMS,2013,4U,1,VIA PUBLICA,CCCA AGUIRRE-COMERCIO AMIGO,AGUIRRE,686,,Villa Crespo,Comuna 15,1414,C1414ASN
-58.4376497136058,-34.5957008546945,183,COMPLOT,2013,4U,1,VIA PUBLICA,CCCA AGUIRRE,AGUIRRE,730,,Villa Crespo,Comuna 15,1414,C1414ASP
-58.4386846563509,-34.5943082677047,184,VIVIENDA,2013,4U,1,VIA PUBLICA,CCCA AGUIRRE,AGUIRRE,883,,Villa Crespo,Comuna 15,1414,C1414ASQ
-58.4396136520685,-34.5936057701772,185,VIVIENDA,2013,4U,1,VIA PUBLICA,CCCA AGUIRRE,AGUIRRE,980,,Villa Crespo,Comuna 15,1414,C1414AST
-58.4382443078562,-34.5952275620378,186,CHRISTIAN LACROIX,2013,4U,1,VIA PUBLICA,CCCA AGUIRRE,GURRUCHAGA,787,,Villa Crespo,Comuna 15,1414,C1414DHO
-58.4377204552047,-34.5946770768677,187,BUENOS AIRES MALL,2013,4U,1,VIA PUBLICA,CCCA AGUIRRE,GURRUCHAGA,842,,Villa Crespo,Comuna 15,1414,C1414DHR
-58.4370190061675,-34.5945323044195,188,AYRES,2013,4U,1,VIA PUBLICA,CCCA AGUIRRE,LOYOLA,692,,Villa Crespo,Comuna 15,1414,C1414AUN
-58.4362439931462,-34.5986829623114,189,BICICLETERIA JUNIORÂ´S,2013,4U,1,VIA PUBLICA,CCCA AGUIRRE,"RAMIREZ DE VELASCO, JUAN",465,,Villa Crespo,Comuna 15,1414,C1414AQI
-58.4383166450935,-34.5964753685716,190,ALMACEN PURISTA,2013,4U,1,VIA PUBLICA,CCCA AGUIRRE-COMERCIO AMIGO,"RAMIREZ DE VELASCO, JUAN",701,,Villa Crespo,Comuna 15,1414,C1414AQO
-58.4391807008917,-34.5972636168074,191,CRESPIN,2013,4U,1,VIA PUBLICA,CCCA AGUIRRE,VERA,699,,Villa Crespo,Comuna 15,1414,C1414AOM
-58.4256021241287,-34.5923800084265,192,BICICLETAS ARAOZ,2013,4U,1,VIA PUBLICA,CCCA AGUIRRE-COMERCIO AMIGO,ARAOZ,1458,,Palermo,Comuna 14,1414,C1414DQD
-58.428861797641,-34.5903363254481,193,NUCHA,2013,4U,1,VIA PUBLICA,CCCA PALERMO,ARMENIA,1540,,Palermo,Comuna 14,1414,C1414DKH
-58.4282518100209,-34.5901577565493,194,OUMS,2013,4U,1,VIA PUBLICA,CCCA AGUIRRE-COMERCIO AMIGO,ARMENIA,1595,,Palermo,Comuna 14,1414,C1414DKG
-58.4274730318739,-34.5896951419116,195,VERO ALFIE,2013,4U,1,VIA PUBLICA,CCCA AGUIRRE-COMERCIO AMIGO,ARMENIA,1665,,Palermo,Comuna 14,1414,C1414DKI
-58.4267765193029,-34.5891801048056,196,KEY BISCAYNE,2013,4U,1,VIA PUBLICA,CCCA PALERMO,ARMENIA,1735,,Palermo,Comuna 14,1414,C1414DKK
-58.4259257110975,-34.588394778841,197,TRIPPIN,2013,4U,1,VIA PUBLICA,CCCA PALERMO-COMERCIO AMIGO,ARMENIA,1838,,Palermo,Comuna 14,1414,C1414DKN
-58.4255489070104,-34.5881455376038,198,JULIETA SEDLER,2013,4U,1,VIA PUBLICA,CCCA PALERMO-COMERCIO AMIGO,ARMENIA,1886,,Palermo,Comuna 14,1414,C1414DKN
-58.4251697241953,-34.5879538725462,199,GABY DI GRAZIA DECO,2013,4U,1,VIA PUBLICA,CCCA PALERMO,ARMENIA,1914,,Palermo,Comuna 14,1414,C1414DKP
-58.4424275223914,-34.5859585300036,200,ORENSE,2013,4U,1,VIA PUBLICA,CCCA PALERMO-COMERCIO AMIGO,CORDOBA AV.,5801,,Palermo,Comuna 14,1414,C1414BBE
-58.4387087152663,-34.5873002310934,201,NICETO CLUB,2017,1U,2,VIA PUBLICA,Locales Amigos,"VEGA, NICETO, CNEL. AV.",5510,,Palermo,Comuna 14,1414,C1414BFD
-58.4249124159972,-34.5907427078121,202,ONLY BIKES,2013,4U,1,VIA PUBLICA,CCCA PALERMO-COMERCIO AMIGO,"SCALABRINI ORTIZ, RAUL AV.",1602,,Palermo,Comuna 14,1414,C1414DOQ
-58.4157050326119,-34.5965962302108,203,ENDEMOL,2013,4U,1,VIA PUBLICA,CCCA PALERMO,"CABRERA, JOSE A.",3507,,Palermo,Comuna 14,1186,C1186AAO
-58.4262758256935,-34.5885733735586,204,AGARRATE CATALINA,2013,4U,1,VIA PUBLICA,CCCA PALERMO,COSTA RICA,4605,,Palermo,Comuna 14,1414,C1414BSI
-58.4273529072085,-34.5880277981989,205,QM,2013,4U,1,VIA PUBLICA,CCCA PALERMO,COSTA RICA,4700,,Palermo,Comuna 14,1414,C1414BSJ
-58.4346391556986,-34.5826933267598,206,KENTUCKY,2013,4U,1,VIA PUBLICA,CCCA PALERMO,COSTA RICA,0,FITZ ROY,Palermo,Comuna 14,,
-58.42571823974,-34.5904212142147,207,CIBELES,2013,4U,1,VIA PUBLICA,CCCA PALERMO-COMERCIO AMIGO,EL SALVADOR,4570,,Palermo,Comuna 14,1414,C1414BPH
-58.425897003005,-34.5903053529664,208,URBAN STATION,2013,4U,1,VIA PUBLICA,CCCA PALERMO,EL SALVADOR,4588,,Palermo,Comuna 14,1414,C1414BPH
-58.4274063310635,-34.5892984254244,209,LEVIÂ´S,2013,4U,1,VIA PUBLICA,CCCA PALERMO-COMERCIO AMIGO,EL SALVADOR,4714,,Palermo,Comuna 14,1414,C1414BPL
-58.4310813485442,-34.5868820626554,210,MUCHACHOBAR,2013,4U,1,VIA PUBLICA,CCCA PALERMO-COMERCIO AMIGO,EL SALVADOR,5100,,Palermo,Comuna 14,1414,C1414BPR
-58.4365635486501,-34.5822498251365,211,MOREMORE,2013,4U,1,VIA PUBLICA,CCCA PALERMO-COMERCIO AMIGO,EL SALVADOR,5721,,Palermo,Comuna 14,1414,C1414BQG
-58.4396867974905,-34.5799633272795,212,CUSIC,2013,4U,1,VIA PUBLICA,CCCA PALERMO-COMERCIO AMIGO,EL SALVADOR,6016,,Palermo,Comuna 14,1414,C1414BQN
-58.4359535275889,-34.5886722793878,213,SOHO BIKES,2013,4U,1,VIA PUBLICA,CCCA PALERMO-COMERCIO AMIGO,GODOY CRUZ,1518,,Palermo,Comuna 14,1414,C1414CYH
-58.4293984756323,-34.5906336582356,214,FIFI ALMACEN,2013,4U,1,VIA PUBLICA,CCCA PALERMO-COMERCIO AMIGO,GORRITI,4812,,Palermo,Comuna 14,1414,C1414BJN
-58.4316246740734,-34.5889848095362,215,MUVIN,2013,4U,1,VIA PUBLICA,CCCA PALERMO-COMERCIO AMIGO,GORRITI,5051,,Palermo,Comuna 14,1414,C1414BJQ
-58.4325852163508,-34.588367972283,216,SORIA,2013,4U,1,VIA PUBLICA,CCCA PALERMO-COMERCIO AMIGO,GORRITI,5151,,Palermo,Comuna 14,1414,C1414BJS
-58.4337894005804,-34.587470789888,217,DON JACINTO PARRILLITA,2013,4U,1,VIA PUBLICA,CCCA PALERMO-COMERCIO AMIGO,GORRITI,5299,,Palermo,Comuna 14,1414,C1414BJU
-58.4369617570384,-34.584946535016,218,DASHI,2013,4U,1,VIA PUBLICA,CCCA PALERMO,GORRITI,5591,,Palermo,Comuna 14,1414,C1414BKC
-58.4378471614121,-34.584574084942,219,MONOCHROME,2013,4U,1,VIA PUBLICA,CCCA PALERMO-COMERCIO AMIGO,GORRITI,5656,,Palermo,Comuna 14,1414,C1414BKF
-58.439489048911,-34.5833442570978,220,LA MOLINA,2013,4U,1,VIA PUBLICA,CCCA PALERMO-COMERCIO AMIGO,GORRITI,5806,,Palermo,Comuna 14,1414,C1414BKJ
-58.4400634840925,-34.5829145300166,221,OLSEN,2013,4U,1,VIA PUBLICA,CCCA PALERMO-COMERCIO AMIGO,GORRITI,5870,,Palermo,Comuna 14,1414,C1414BKJ
-58.4409311093216,-34.5822654579077,222,MATTONE,2013,4U,1,VIA PUBLICA,CCCA PALERMO-COMERCIO AMIGO,GORRITI,5950,,Palermo,Comuna 14,1414,C1414BKL
-58.431165416316,-34.5904555331587,223,PEHACHE,2013,4U,1,VIA PUBLICA,CCCA PALERMO-COMERCIO AMIGO,GURRUCHAGA,1418,,Palermo,Comuna 14,1414,C1414DID
-58.4274023597786,-34.5880918007868,224,QM,2013,4U,1,VIA PUBLICA,CCCA PALERMO,GURRUCHAGA,0,COSTA RICA,Palermo,Comuna 14,,
-58.4281268991032,-34.5885571862883,225,DIESEL,2013,4U,1,VIA PUBLICA,CCCA PALERMO,GURRUCHAGA,0,EL SALVADOR,Palermo,Comuna 14,,
-58.4294089798834,-34.5893835319847,226,LIBRERIA,2013,4U,1,VIA PUBLICA,CCCA PALERMO,GURRUCHAGA,0,HONDURAS,Palermo,Comuna 14,,
-58.4299660855964,-34.5899584394866,227,BICICLETERIA BICIUP,2013,4U,1,VIA PUBLICA,CCCA PALERMO-COMERCIO AMIGO,GURRUCHAGA,1519,,Palermo,Comuna 14,1414,C1414DIE
-58.4311040724664,-34.5882577290069,228,BISTROT,2013,4U,1,VIA PUBLICA,CCCA PALERMO,HONDURAS,5090,,Palermo,Comuna 14,1414,C1414BMR
-58.4319606856702,-34.5877003020328,229,SOCIAL PARAISO,2013,4U,1,VIA PUBLICA,CCCA PALERMO,HONDURAS,5182,,Palermo,Comuna 14,1414,C1414BMT
-58.43475139072,-34.5852238134742,230,MOVISTAR,2013,4U,1,VIA PUBLICA,CCCA PALERMO,HONDURAS,5473,,Palermo,Comuna 14,1414,C1414BNA
-58.4368995114581,-34.5836073909467,231,AEROPUERTOS ARGENTINA 2000,2013,4U,1,VIA PUBLICA,CCCA PALERMO,HONDURAS,5663,,Palermo,Comuna 14,1414,C1414BNE
-58.4362579558142,-34.5842747084925,232,RESTAURANTE,2013,4U,1,VIA PUBLICA,CCCA PALERMO,HONDURAS,0,FITZ ROY,Palermo,Comuna 14,,
-58.4244028290197,-34.5886532065911,233,PROYECTO CUADRILLA,2013,4U,1,VIA PUBLICA,CCCA PALERMO-COMERCIO AMIGO,NICARAGUA,4519,,Palermo,Comuna 14,1414,C1414BVE
-58.427380780226,-34.5863727289213,234,LA MERSA,2013,4U,1,VIA PUBLICA,CCCA PALERMO-COMERCIO AMIGO,NICARAGUA,4835,,Palermo,Comuna 14,1414,C1414BVK
-58.4382219418593,-34.5781205695445,235,PANI,2013,4U,1,VIA PUBLICA,CCCA PALERMO-COMERCIO AMIGO,NICARAGUA,6048,,Palermo,Comuna 14,1414,C1414BWN
-58.43856311764,-34.5775589487167,236,OUI OUI,2013,4U,1,VIA PUBLICA,CCCA PALERMO-COMERCIO AMIGO,NICARAGUA,6099,,Palermo,Comuna 14,1414,C1414BWM
-58.4306360426131,-34.5888747074644,237,TAZZ,2013,4U,1,VIA PUBLICA,CCCA PALERMO,SERRANO,1556,,Palermo,Comuna 14,1414,C1414DFF
-58.441337963246,-34.5836128096412,238,ENDEMOL,2013,4U,1,VIA PUBLICA,CCCA PALERMO,"RAVIGNANI, EMILIO, DR.",1493,,Palermo,Comuna 14,1414,C1414CPI
-58.4333479013328,-34.5906483141608,239,FABRICA DE LUZ,2013,4U,1,VIA PUBLICA,CCCA PALERMO,SERRANO,1308,,Palermo,Comuna 14,1414,C1414DFB
-58.4312945768708,-34.5880314431654,240,INFINIT,2013,4U,1,VIA PUBLICA,CCCA PALERMO,THAMES,1600,,Palermo,Comuna 14,1414,C1414DDF
-58.429317476214,-34.5867773167732,241,ESTUDIO V,2013,4U,1,VIA PUBLICA,CCCA PALERMO-COMERCIO AMIGO,THAMES,1800,,Palermo,Comuna 14,1414,C1414DDJ
-58.4329275575288,-34.5881157086476,242,BAR LIBERTAD,2013,4U,1,VIA PUBLICA,CCCA PALERMO,URIARTE,0,GORRITI,Palermo,Comuna 14,,
-58.4286984425809,-34.5905053097381,243,LE COQ SPORTIF,2013,4U,1,VIA PUBLICA,COMERCIO AMIGO,ARMENIA,1539,,Palermo,Comuna 14,1414,C1414DKG
-58.412730894083,-34.5919609041601,244,AMERICAN BIKE,2013,4U,1,VIA PUBLICA,COMERCIO AMIGO,"DIAZ, CNEL. AV.",1664,,Palermo,Comuna 14,1425,C1425DQP
-58.4580295598567,-34.5687207633187,245,LORD BIKE,2013,4U,1,VIA PUBLICA,COMERCIO AMIGO,CRAMER AV.,1720,,Belgrano,Comuna 13,1426,C1426APD
-58.4583916018239,-34.5710558014209,246,NEW GARDEN,2013,4U,1,VIA PUBLICA,COMERCIO AMIGO,ELCANO AV.,3015,,Colegiales,Comuna 13,1426,C1426EJB
-58.4599244481169,-34.5779968619351,247,PEGASO PATAGONIA,2013,4U,1,VIA PUBLICA,COMERCIO AMIGO,ELCANO AV.,3584,,Colegiales,Comuna 13,1426,C1426EJT
-58.3794917926805,-34.6494784485601,248,LOS LAURELES,2013,1U,2,VIA PUBLICA,COMERCIO AMIGO,"IRIARTE, GRAL. AV.",2290,,Barracas,Comuna 4,1291,C1291ACB
-58.372949063322,-34.6467097065051,249,BAR EL PROGRESO,2013,4U,1,VIA PUBLICA,COMERCIO AMIGO,"MONTES DE OCA, MANUEL AV.",1702,,Barracas,Comuna 4,1270,C1270ABR
-58.3759472516505,-34.6065801004681,250,SPORT CLUB,2013,4U,2,VIA PUBLICA,AV. ROQUE SAENZ PEÃ‘A-COMERCIO AMIGO,"SAENZ PEÃ‘A, ROQUE, PRES. DIAGONAL NORTE AV.",647,,San Nicolas,Comuna 1,,
-58.4089020220092,-34.581181962923,251,TU HOGAR SUSTENTABLE,2013,1U,3,VIA PUBLICA,COMERCIO AMIGO,CABELLO,3433,,Palermo,Comuna 14,1425,C1425API
-58.4368553477852,-34.553548423609,252,CUCINA PARADISO,2013,4U,1,VIA PUBLICA,COMERCIO AMIGO,CASTAÃ‘EDA,1871,,Belgrano,Comuna 13,,
-58.4339693304606,-34.5837945060005,253,NOAVESTRUZ TEATRO,2013,4U,1,VIA PUBLICA,COMERCIO AMIGO,HUMBOLDT,1857,,Palermo,Comuna 14,1414,C1414CTS
-58.4222671621307,-34.598092869478,254,LE COQ SPORTIF,2013,4U,1,VIA PUBLICA,COMERCIO AMIGO,LAVALLE,4022,,Almagro,Comuna 5,1190,C1190ABB
-58.3845682338007,-34.5938112794641,255,BICICLETERIA CANAGLIA,2013,1U,2,VIA PUBLICA,COMERCIO AMIGO,LIBERTAD,1238,,Retiro,Comuna 1,1012,C1012AAZ
-58.4857152186681,-34.5765013048233,256,CHUNGO,2013,4U,1,VIA PUBLICA,COMERCIO AMIGO,OLAZABAL AV.,5092,,Villa Urquiza,Comuna 12,1431,C1431CGT
-58.3782953998729,-34.653133763037,257,3 ESQUINAS,2013,1U,2,VIA PUBLICA,COMERCIO AMIGO,"CRUZ, OSVALDO AV.",2302,,Barracas,Comuna 4,1293,C1293ADO
-58.3787486870687,-34.6408457572984,258,ECLAIR,2013,1U,2,VIA PUBLICA,COMERCIO AMIGO,LANIN,168,,Barracas,Comuna 4,1274,C1274AED
-58.3787399381695,-34.651938306535,259,SANTA MARIA DEL BUEN AIRE Y SANTO DOMINGO,2013,1U,2,VIA PUBLICA,COMERCIO AMIGO,SANTO DOMINGO,2302,,Barracas,Comuna 4,1293,C1293AFD
-58.3795292393051,-34.6418142432421,260,LA FLOR DE BARRACAS,2013,4U,1,VIA PUBLICA,COMERCIO AMIGO,SUAREZ AV.,2095,,Barracas,Comuna 4,1288,C1288AFC
-58.411691850247,-34.5799036316173,261,THE PICK MARKET,2013,4U,1,VIA PUBLICA,COMERCIO AMIGO,UGARTECHE,3154,,Palermo,Comuna 14,1425,C1425EVH
-58.3747831118848,-34.6554856115822,262,EL PUENTECITO,2013,1U,2,VIA PUBLICA,COMERCIO AMIGO,VIEYTES,1895,,Barracas,Comuna 4,1275,C1275AGU
-58.3795292393051,-34.6418142432421,263,LA FLOR DE BARRACAS,2013,4U,1,VIA PUBLICA,COMERCIO AMIGO,SUAREZ AV.,2095,,Barracas,Comuna 4,1288,C1288AFC
-58.375029785218,-34.606950967473,264,EDIFICIO TORNQUIST,2013,4U,1,VIA PUBLICA,EDIFICIOS CULTURALES,"MITRE, BARTOLOME",0,FLORIDA,San Nicolas,Comuna 1,,
-58.4164465192681,-34.6202732053582,265,TIMBRE 4,2013,4U,1,VIA PUBLICA,EDIFICIOS CULTURALES,BOEDO AV.,640,,Almagro,Comuna 5,1218,C1218AAP
-58.380296090208,-34.5991011176364,266,ALIANZA FRANCESA,2013,4U,1,VIA PUBLICA,EDIFICIOS CULTURALES,CORDOBA AV.,936,,San Nicolas,Comuna 1,1054,C1054AAV
-58.3883662376506,-34.604247710455,267,TEATRO SAN MARTIN,2013,4U,1,VIA PUBLICA,EDIFICIOS CULTURALES,CORRIENTES AV.,1530,,San Nicolas,Comuna 1,1042,C1042AAO
-58.3885694174267,-34.6040461317859,268,CENTRO CULTURAL DE COOPERACION,2013,4U,1,VIA PUBLICA,EDIFICIOS CULTURALES,CORRIENTES AV.,1543,,San Nicolas,Comuna 1,1042,C1042AAB
-58.3948833900803,-34.604378996736,269,TEATRO BAR LA CASONA,2013,4U,1,VIA PUBLICA,EDIFICIOS CULTURALES,CORRIENTES AV.,1975,,Balvanera,Comuna 3,1045,C1045AAB
-58.3788647381249,-34.6034316943623,270,TEATRO GRAN REX,2013,4U,1,VIA PUBLICA,EDIFICIOS CULTURALES,CORRIENTES AV.,857,,San Nicolas,Comuna 1,1043,C1043AAI
-58.4457371893461,-34.5842264352791,271,TEATRO REGIO,2018,1U,4,VIA PUBLICA,EDIFICIOS CULTURALES,CORDOBA AV.,6056,,Chacarita,Comuna 15,1427,C1427BZN
-58.4195015639035,-34.5799712506464,272,TEATRO SARMIENTO,2013,4U,1,VIA PUBLICA,EDIFICIOS CULTURALES,SARMIENTO AV.,2715,,Palermo,Comuna 14,1425,C1425FGB
-58.3705751825544,-34.6130759807331,273,LA TRASTIENDA,2013,4U,1,VIA PUBLICA,EDIFICIOS CULTURALES,BALCARCE,460,,Monserrat,Comuna 1,1064,C1064AAJ
-58.3706437896376,-34.6158029798873,274,TEATRO MOLIERE,2013,4U,1,VIA PUBLICA,EDIFICIOS CULTURALES,CHILE AV.,0,BALCARCE,Monserrat,Comuna 1,,
-58.3614467516408,-34.6392158337487,275,TEATRO DE LA RIBERA,2013,4U,1,VIA PUBLICA,EDIFICIOS CULTURALES,DON PEDRO DE MENDOZA AV.,1875,,La Boca,Comuna 4,1169,C1169AAC
-58.4095679613246,-34.6058685696783,276,PANAL 361,2018,1U,4,Via Publica/ Internos,Centro Cultural Abasto,"JAURES, JEAN",361,,Balvanera,Comuna 3,1215,C1215ACE
-58.3875678890539,-34.6087992626615,278,TEATRO MAIPO,2013,4U,1,VIA PUBLICA,EDIFICIOS CULTURALES,RIVADAVIA AV.,1499,,San Nicolas,Comuna 1,1033,C1033AAE
-58.3740487727341,-34.5996395109388,279,MONASTERIO DE SANTA CATALINA DE SIENA,2013,4U,1,INTERIOR,EDIFICIOS CULTURALES,SAN MARTIN,705,,San Nicolas,Comuna 1,1004,C1004AAO
-58.3886349298105,-34.605368582464,280,CENTRO CULTURAL SAN MARTIN,2013,4U,3,INTERIOR,EDIFICIOS CULTURALES,SARMIENTO,1551,,San Nicolas,Comuna 1,1042,C1042ABC
-58.4432837992596,-34.5958705191839,281,SECRETARIA NACIONAL DE JUSTICIA- REG. NAC. DE LA PROP. AUTOMOTOR,2013,4U,1,VIA PUBLICA,EDIFICIOS PUBLICOS,CORRIENTES AV.,5666,,Villa Crespo,Comuna 15,1414,C1414AJW
-58.3756750687149,-34.6087630450042,282,CONSEJO DE LA MAJISTRATURA,2013,4U,1,VIA PUBLICA,EDIFICIOS PUBLICOS,DE MAYO AV.,654,,Monserrat,Comuna 1,1084,C1084AAO
-58.3682677673338,-34.6232662314798,283,MINISTERIO PUBLICO FISCAL,2013,4U,1,INTERIOR,EDIFICIOS PUBLICOS,PASEO COLON AV.,1333,,San Telmo,Comuna 1,1063,C1063ADA
-58.3682677673338,-34.6232662314798,284,MINISTERIO PUBLICO FISCAL,2013,4U,1,VIA PUBLICA,EDIFICIOS PUBLICOS,PASEO COLON AV.,1333,,San Telmo,Comuna 1,1063,C1063ADA
-58.4328649895276,-34.6056667404593,285,CGPC 6,2013,4U,2,VIA PUBLICA,EDIFICIOS PUBLICOS,PATRICIAS ARGENTINAS AV.,277,,Caballito,Comuna 6,1405,C1405BWC
-58.4412738737987,-34.5870009015858,286,SEDE COMUNA 15,2013,4U,1,VIA PUBLICA,EDIFICIOS PUBLICOS,CORDOBA AV.,5690,,Chacarita,Comuna 15,1414,C1414BBP
-58.3707196272076,-34.6156041281279,287,MINISTERIO DE DEFENSA DE LA CIUDAD,2013,4U,1,VIA PUBLICA,EDIFICIOS PUBLICOS,BALCARCE,677,,Monserrat,Comuna 1,1064,C1064AAM
-58.4094207754476,-34.5872370120878,288,CGPC 14,2013,4U,1,VIA PUBLICA,EDIFICIOS PUBLICOS,BERUTI,3325,,Palermo,Comuna 14,1425,C1425BBQ
-58.4512589321183,-34.6314791299834,289,DG MUSICA,2013,4U,2,VIA PUBLICA,EDIFICIOS PUBLICOS,CURAPALIGUE,585,,Parque Chacabuco,Comuna 7,1406,C1406DAF
-58.4247749654941,-34.6503488708362,290,CGPC 4,2013,4U,1,VIA PUBLICA,EDIFICIOS PUBLICOS,BARCO CENTENERA DEL,2906,,Nueva Pompeya,Comuna 4,1437,C1437ACO
-58.4417128115454,-34.5800347809835,291,DISTRITO AUDIOVISUAL,2013,4U,3,INTERIOR,EDIFICIOS PUBLICOS,DORREGO,1898,,Colegiales,Comuna 13,1414,C1414CLN
-58.4411517713809,-34.6321050927387,292,SUB SEDE CGPC 6,2013,4U,1,INTERIOR,EDIFICIOS PUBLICOS,"MITRE, EMILIO",956,,Parque Chacabuco,Comuna 7,1424,C1424AYT
-58.441168360832,-34.632410754045,293,BASE CHACABUCO DE CUERPO DE AGENTES,2013,4U,2,INTERIOR,EDIFICIOS PUBLICOS,"MITRE, EMILIO",981,,Parque Chacabuco,Comuna 7,1424,C1424AYS
-58.3911245431591,-34.6261617635002,294,DESARROLLO SOCIAL GCBA,2013,4U,2,VIA PUBLICA E INTERIOR,EDIFICIOS PUBLICOS,ENTRE RIOS AV.,1492,,Constitucion,Comuna 1,1133,C1133AAP
-58.4828984958733,-34.5686972734413,295,SEDE COMUNA 12,2013,4U,1,VIA PUBLICA,EDIFICIOS PUBLICOS,MILLER,2751,,Villa Urquiza,Comuna 12,1431,C1431GEC
-58.4909028229293,-34.5511635161034,296,POLICIA METROPOLITANA COMUNA 12,2013,4U,3,VIA PUBLICA,EDIFICIOS PUBLICOS,RAMALLO,4398,,Saavedra,Comuna 12,1430,C1430CQD
-58.4961231168991,-34.6018988898531,297,SEDE COMUNA 11,2013,4U,1,INTERIOR,EDIFICIOS PUBLICOS,"GUTIERREZ, RICARDO",3254,,Villa Del Parque,Comuna 11,1417,C1417ECB
-58.3988516905767,-34.5966165938219,298,SEDE COMUNA 2,2013,4U,1,INTERIOR,EDIFICIOS PUBLICOS,"URIBURU JOSE E., PRES.",1022,,Recoleta,Comuna 2,1114,C1114AAF
-58.3868762415821,-34.6000639538483,299,CGPC 1,2013,4U,1,VIA PUBLICA,EDIFICIOS PUBLICOS,URUGUAY AV.,740,,San Nicolas,Comuna 1,1015,C1015ABP
-58.3924318282621,-34.604252852223,300,NEXTEL,2013,4U,1,VIA PUBLICA,EMPRESA AMIGA,CALLAO AV.,410,,Balvanera,Comuna 3,1022,C1022AAR
-58.5015264729745,-34.5996442460711,301,NEXTEL,2013,4U,1,VIA PUBLICA,EMPRESA AMIGA,"BEIRO, FRANCISCO AV.",3456,,Villa Del Parque,Comuna 11,1419,C1419HYV
-58.4455404991182,-34.6242825808679,302,CHUNGO,2013,4U,1,VIA PUBLICA,EMPRESA AMIGA,"ALBERDI, JUAN BAUTISTA AV.",1250,,Caballito,Comuna 6,1406,C1406GRO
-58.4576660684015,-34.5607101243062,303,CHUNGO,2013,4U,1,VIA PUBLICA,EMPRESA AMIGA,CABILDO AV.,2231,,Belgrano,Comuna 13,1428,C1428AAE
-58.4412623574267,-34.5716638549571,304,NEXTEL,2013,4U,1,VIA PUBLICA,EMPRESA AMIGA,CABILDO AV.,451,,Palermo,Comuna 14,1426,C1426AAE
-58.4336775822762,-34.5832254838334,305,CHUNGO,2013,4U,1,VIA PUBLICA,EMPRESA AMIGA,HUMBOLDT,1906,,Palermo,Comuna 14,1414,C1414CTV
-58.4207833145517,-34.6009901894172,306,NEXTEL,2013,4U,1,VIA PUBLICA,EMPRESA AMIGA,MEDRANO AV.,780,,Almagro,Comuna 5,1179,C1179AAN
-58.3922304229851,-34.638206077667,307,LABORATORIO BRITANIA,2013,4U,1,VIA PUBLICA,EMPRESA AMIGA,LOS PATOS,2175,,Parque Patricios,Comuna 4,1283,C1283ABI
-58.409851024509,-34.6291549713216,308,ESC. PRIMARIA COMUN NÂ° 07 OLEGARIO VICTOR ANDRADE,2018,1,4,VIA PUBLICA,Universidades - Colegios,24 DE NOVIEMBRE,1536,,San Cristobal,Comuna 3,1242,C1242AAH
-58.4549457128666,-34.5558909699303,309,ESC. NORMAL SUPERIOR NÂ° 10 JUAN BAUTISTA ALBERDI (ANEXO),2013,4U,1,VIA PUBLICA,ESCUELAS,3 DE FEBRERO,2463,,Belgrano,Comuna 13,1428,C1428AHM
-58.511116731135,-34.6463149653508,310,ESC. DE COMERCIO NÂ° 32 JOSE LEON SUAREZ (ANEXO),2013,4U,1,VIA PUBLICA,ESCUELAS,ACASSUSO,6138,,Liniers,Comuna 9,1408,C1408FDV
-58.4438089688603,-34.5891080434042,311,ESC. TECNICA NÂ° 34 ING. ENRIQUE MARTIN HERMITTE,2013,4U,1,VIA PUBLICA,ESCUELAS,AGUIRRE,1473,,Chacarita,Comuna 15,1414,C1414ATC
-58.4328214333655,-34.6481389384192,312,ESCUELA MEDIA NÂ°3,2013,4U,1,VIA PUBLICA,ESCUELAS,"VEDIA, AGUSTIN DE",2519,,Flores,Comuna 7,1437,C1437ANK
-58.488246059062,-34.6566621420334,313,ESC. PRIMARIA COMUN NÂ° 19 CAJA NACIONAL DE AHORRO Y SEGURO,2013,4U,1,VIA PUBLICA,ESCUELAS,ALBARIÃ‘O,2062,,Mataderos,Comuna 9,,
-58.5037505759283,-34.6294353523743,315,ESC. DE DANZAS NÂ° 02 JORGE DONN,2013,4U,1,INTERIOR,ESCUELAS,"MAGARIÃ‘OS CERVANTES, A.",5068,,Velez Sarsfield,Comuna 10,,
-58.4350147578764,-34.5797843327663,316,ESC. DE COMERCIO NÂ° 31 NACIONES UNIDAS,2013,4U,1,INTERIOR,ESCUELAS,"CARRANZA, ANGEL JUSTINIANO",2045,,Palermo,Comuna 14,1414,C1414COY
-58.4803043144724,-34.6775029538566,317,ESC. DE COMERCIO NÂ° 12 JUAN XXIII,2013,4U,1,INTERIOR,ESCUELAS,AQUINO,6040,,Villa Lugano,Comuna 8,1439,C1439AEF
-58.3800457786383,-34.641273621788,318,LICEO NÂ°3 / ESC NORMAL SUP. NÂ°5,2013,4U,1,INTERIOR,ESCUELAS,ARCAMENDIA,743,,Barracas,Comuna 4,1274,C1274AAC
-58.5101776332734,-34.5794967075179,319,ESC. DE EDUCACION MEDIA NÂ° 01/16Â° RODOLFO WALSH,2013,4U,1,VIA PUBLICA,ESCUELAS,ARGERICH,5651,,Villa Pueyrredon,Comuna 12,1419,C1419DCC
-58.4671273344317,-34.6226749957538,320,CFP NÂ° 24,2013,4U,1,INTERIOR,ESCUELAS,"ARTIGAS, JOSE GERVASIO, GRAL.",690,,Flores,Comuna 7,1406,C1406ABJ
-58.3928863678678,-34.6347933738461,321,ESC. PRIMARIA COMUN NÂ° 18 JUAN ENRIQUE PESTALOZZI,2013,4U,1,VIA PUBLICA,ESCUELAS,CASEROS AV.,2152,,Parque Patricios,Comuna 4,1264,C1264AAO
-58.4215724290133,-34.6399691098608,322,ESC. PRIMARIA COMUN NÂ° 05 PROVINCIA DE CORRIENTES,2013,4U,1,VIA PUBLICA,ESCUELAS,CASEROS AV.,4050,,Nueva Pompeya,Comuna 4,1263,C1263AAW
-58.4055432610872,-34.612992873338,323,ESC. TECNICA NÂ° 26 CONFEDERACION SUIZA,2017,1U,8,VIA PUBLICA,ESCUELAS,JUJUY AV.,255,,Balvanera,Comuna 3,1083,C1083AAC
-58.3772195860865,-34.630043205693,324,ESC. TECNICA NÂ° 04 REPUBLICA DEL LIBANO,2013,4U,1,VIA PUBLICA,ESCUELAS,"MONTES DE OCA, MANUEL AV.",121,,Barracas,Comuna 4,1270,C1270AAB
-58.4059157163242,-34.5928590044263,325,LICEO NÂ° 01 JOSE FIGUEROA ALCORTA,2013,4U,1,VIA PUBLICA,ESCUELAS,SANTA FE AV.,2778,,Recoleta,Comuna 2,1425,C1425BGP
-58.5087959705377,-34.6216092690906,326,ESC. DE COMERCIO NÂ° 33 MAIPU,2013,4U,1,VIA PUBLICA,ESCUELAS,ALVAREZ JONTE AV.,5075,,Monte Castro,Comuna 10,1407,C1407GPE
-58.4195159908344,-34.615714791258,327,ESC. PRIMARIA COMUN NÂ° 18 DR. ANTONIO BERMEJO,2013,4U,1,VIA PUBLICA,ESCUELAS,BELGRANO AV.,3767,,Almagro,Comuna 5,1210,C1210AAF
-58.4163288498934,-34.6366278676781,328,ESC. PRIMARIA COMUN NÂ° 23 PROVINCIA DE ENTRE RIOS,2013,4U,1,VIA PUBLICA,ESCUELAS,BOEDO AV.,1935,,Boedo,Comuna 5,1239,C1239AAJ
-58.4166899176608,-34.620470990749,329,ESC. PRIMARIA COMUN NÂ° 22 MARTINA SILVA DE GURRUCHAGA,2013,4U,1,VIA PUBLICA,ESCUELAS,BOEDO AV.,657,,Almagro,Comuna 5,1218,C1218AAC
-58.4163342646151,-34.6218166043815,330,ESC. TECNICA NÂ° 29 RECONQUISTA DE BUENOS AIRES,2013,4U,1,INTERIOR,ESCUELAS,BOEDO AV.,760,,Boedo,Comuna 5,1218,C1218AAQ
-58.4900644618941,-34.6463174385521,331,ESC. PRIMARIA COMUN NÂ° 24 SARA DE ELIA DE GIMENEZ,2013,4U,1,VIA PUBLICA,ESCUELAS,BRUIX AV.,4620,,Parque Avellaneda,Comuna 9,1407,C1407IKY
-58.4362735063637,-34.5747989684552,332,ESC. TECNICA NÂ° 03 MARIA SANCHEZ DE THOMPSON (SEDE),2013,4U,1,INTERIOR,ESCUELAS,CABILDO AV.,40,,Palermo,Comuna 14,1426,C1426AAN
-58.4549006713908,-34.6301510298252,333,LICEO NÂ° 05 PASCUAL GUAGLIANONE,2013,4U,1,INTERIOR,ESCUELAS,CARABOBO AV.,286,,Flores,Comuna 7,1406,C1406DGP
-58.471589716574,-34.6657255990522,334,ESC. PRIMARIA COMUN NÂ° 15 REPUBLICA ARGENTINA,2013,4U,1,VIA PUBLICA,ESCUELAS,CASTAÃ‘ARES AV.,4689,,Villa Lugano,Comuna 8,,
-58.5021474758442,-34.6666740853675,335,ESC. PRIMARIA COMUN NÂ° 11 EMILIO VON BEHRING,2013,4U,1,VIA PUBLICA,ESCUELAS,"CARDENAS, CNEL. AV.",2652,,Mataderos,Comuna 9,1440,C1440EJP
-58.4758759021939,-34.6873133356524,336,ESC. PRIMARIA COMUN NÂ° 13 DR. ALFREDO LANARI,2013,4U,1,VIA PUBLICA,ESCUELAS,PIEDRA BUENA AV.,4863,,Villa Riachuelo,Comuna 8,1439,C1439GWF
-58.395121456163,-34.5995816626933,337,ESC. NORMAL SUPERIOR NÂ° 01 EN LENGUAS VIVAS PRESIDENTE R. SAENZ PEÃ‘A,2013,4U,1,INTERIOR,ESCUELAS,CORDOBA AV.,1951,,Recoleta,Comuna 2,1120,C1120AAB
-58.4558990819598,-34.5429041704118,338,ESC. DE EDUCACION MEDIA NÂ° 03/10Â°,2013,4U,1,INTERIOR,ESCUELAS,"SANCHEZ, MIGUEL B. AV.",1050,,NuÃ±ez,Comuna 13,,
-58.5043666632219,-34.6661899086701,339,ESC. PRIMARIA COMUN NÂ° 14 ISLAS MALVINAS,2013,4U,1,VIA PUBLICA,ESCUELAS,DE LOS CORRALES AV.,7040,,Mataderos,Comuna 9,1440,C1440BBT
-58.4676130283336,-34.5901467523265,340,ESC. DE COMERCIO NÂ° 24 DR. DALMACIO VELEZ SARSFIELD,2013,4U,1,INTERIOR,ESCUELAS,DEL CAMPO AV.,1340,,Paternal,Comuna 15,1427,C1427APN
-58.3773104908004,-34.5917424013623,341,ESC. TECNICA NÂ° 12 LIBERTADOR GRAL. JOSE DE SAN MARTIN,2013,4U,1,INTERIOR,ESCUELAS,DEL LIBERTADOR AV.,238,,Retiro,Comuna 1,1001,C1001ABP
-58.466360490693,-34.536355972869,342,ESC. TECNICAS RAGGIO,2013,4U,1,INTERIOR,ESCUELAS,DEL LIBERTADOR AV.,8635,,NuÃ±ez,Comuna 13,1429,C1429BNG
-58.4189635680704,-34.5647525899983,343,INST. SUPERIOR DEL PROF. DE EDUC. INICIAL SARA CHAMBERLAIN DE ECCLESTON (SEDE),2013,4U,1,INTERIOR,ESCUELAS,DORREGO AV.,3751,,Palermo,Comuna 14,1425,C1425GBB
-58.3918182187266,-34.6175942843708,344,ESC. DE EDUCACION MEDIA NÂ° 01/03Â°,2013,4U,1,INTERIOR,ESCUELAS,ENTRE RIOS AV.,757,,Balvanera,Comuna 3,1080,C1080ABB
-58.4701799780124,-34.6645062491408,345,ESC. DE COMERCIO NÂ° 06 AMERICA,2013,4U,1,INTERIOR,ESCUELAS,ESCALADA AV.,2890,,Villa Lugano,Comuna 8,1439,C1439FHN
-58.4499314956642,-34.6095388447994,346,ESC. SUPERIOR DE COMERCIO NÂ° 03 HIPOLITO VIEYTES,2013,4U,1,INTERIOR,ESCUELAS,GAONA AV.,1502,,Caballito,Comuna 6,1416,C1416DRQ
-58.4164975355974,-34.581711515116,347,ESC. TECNICA DE JARDINERIA CRISTOBAL M. HICKEN,2013,4U,1,INTERIOR,ESCUELAS,LAS HERAS GENERAL AV.,4078,,Palermo,Comuna 14,1425,C1425ATR
-58.4209040638889,-34.6559145711526,348,ESC. TECNICA NÂ° 33 FUNDICION MAESTRANZA DEL PLUMERILLO,2013,4U,1,INTERIOR,ESCUELAS,"RABANAL, FRANCISCO, INTENDENTE AV.",1549,,Nueva Pompeya,Comuna 4,1437,C1437FPC
-58.4287547836358,-34.659440625042,349,ESC. PRIMARIA COMUN NÂ° 08 LUIS FEDERICO LELOIR,2013,4U,1,VIA PUBLICA,ESCUELAS,"RABANAL, FRANCISCO, INTENDENTE AV.",2275,,Villa Soldati,Comuna 8,1437,C1437FPJ
-58.4343806255642,-34.661998024265,350,ESC. PRIMARIA COMUN NÂ° 14 CAPITANA MARIA REMEDIOS DEL VALLE,2013,4U,1,VIA PUBLICA,ESCUELAS,"RABANAL, FRANCISCO, INTENDENTE AV.",2751,,Villa Soldati,Comuna 8,1437,C1437FQB
-58.4350880949441,-34.6221182290406,351,LICEO NÂ° 12 FRAY MAMERTO ESQUIU,2013,4U,1,INTERIOR,ESCUELAS,"MORENO, JOSE MARIA AV.",345,,Caballito,Comuna 6,1424,C1424AAD
-58.4929670517345,-34.6438854666628,352,ESC. DE BELLAS ARTES ROGELIO YRURTIA,2013,4U,1,INTERIOR,ESCUELAS,"ALBERDI, JUAN BAUTISTA AV.",4754,,Parque Avellaneda,Comuna 9,1407,C1407HAO
-58.4200553217829,-34.6319443751213,353,ESC. PRIMARIA COMUN NÂ° 26 REPUBLICA DE COLOMBIA,2013,4U,1,VIA PUBLICA,ESCUELAS,"GARAY, JUAN DE AV.",3972,,Boedo,Comuna 5,1256,C1256ABV
-58.4265104184024,-34.6274904828868,354,ESC. PRIMARIA COMUN NÂ° 06 SAN JOSE DE CALASANZ,2013,4U,1,VIA PUBLICA,ESCUELAS,LA PLATA AV.,1038,,Boedo,Comuna 5,1250,C1250AAN
-58.4442666939498,-34.6583063726785,355,ESC. PRIMARIA COMUN NÂ° 16 WILLIAM C. MORRIS,2013,4U,1,VIA PUBLICA,ESCUELAS,LAFUENTE,2670,,Villa Soldati,Comuna 8,1437,C1437BUQ
-58.4994261829897,-34.6537372408197,356,ESC. PRIMARIA COMUN NÂ° 03 EDUARDO LADISLAO HOLMBERG,2013,4U,1,VIA PUBLICA,ESCUELAS,LARRAZABAL,1556,,Mataderos,Comuna 9,1440,C1440CUU
-58.4722891915713,-34.6764586078826,357,ESC. PRIMARIA COMUN NÂ° 03 CRISTOBAL COLON,2013,4U,1,VIA PUBLICA,ESCUELAS,LARRAZABAL,4051,,Villa Lugano,Comuna 8,1439,C1439EDC
-58.4659284077332,-34.6800739691214,358,ESC. PRIMARIA COMUN NÂ° 05 ARMADA ARGENTINA,2013,4U,1,VIA PUBLICA,ESCUELAS,LARRAZABAL AV.,4520,,Villa Lugano,Comuna 8,1439,C1439EEN
-58.4608618629268,-34.6841887748559,359,ESC. PRIMARIA COMUN NÂ° 10 ITALO AMERICO FORADORI,2013,4U,1,VIA PUBLICA,ESCUELAS,LARRAZABAL AV.,5001,,Villa Lugano,Comuna 8,1439,C1439EEF
-58.458672061544,-34.6853294748503,360,ESC. DE COMERCIO NÂ° 35 LEOPOLDO MARECHAL,2013,4U,1,INTERIOR,ESCUELAS,LARRAZABAL AV.,5140,,Villa Lugano,Comuna 8,1439,C1439EET
-58.458672061544,-34.6853294748503,361,ESC. DE EDUCACION MEDIA NÂ° 06/21Â°,2013,4U,1,INTERIOR,ESCUELAS,LARRAZABAL AV.,5140,,Villa Lugano,Comuna 8,1439,C1439EET
-58.4585156093071,-34.6854049732944,362,ESC. PRIMARIA COMUN NÂ° 02 MAESTRO EDUARDO LUIS VICENTE,2013,4U,1,VIA PUBLICA,ESCUELAS,LARRAZABAL AV.,0,"ROCA, CNEL. AV.",Villa Lugano,Comuna 8,,
-58.3757689773189,-34.6337123275273,363,ESC. PRIMARIA COMUN NÂ° 03 BERNARDO DE IRIGOYEN,2013,4U,1,VIA PUBLICA,ESCUELAS,"MONTES DE OCA, MANUEL AV.",439,,Barracas,Comuna 4,1270,C1270AAE
-58.4661638512653,-34.561863429736,364,ESC. DE COMERCIO NÂ° 07 MANUEL BELGRANO,2013,4U,1,INTERIOR,ESCUELAS,MONROE,3061,,Belgrano,Comuna 13,1428,C1428BLY
-58.4693794839255,-34.6718964989687,365,ESC. PRIMARIA COMUN NÂ° 04 PROVINCIA DE TUCUMAN,2013,4U,1,VIA PUBLICA,ESCUELAS,RIESTRA AV.,5030,,Villa Lugano,Comuna 8,1439,C1439BYO
-58.4169306300173,-34.6107702048002,366,COLEGIO NÂ° 03 MARIANO MORENO,2013,4U,1,INTERIOR,ESCUELAS,RIVADAVIA AV.,3577,,Almagro,Comuna 5,1204,C1204AAA
-58.4353155042632,-34.6179168561194,367,ESC. NORMAL SUPERIOR NÂ° 04 ESTANISLAO SEVERO ZEBALLOS,2013,4U,1,INTERIOR,ESCUELAS,RIVADAVIA AV.,4950,,Caballito,Comuna 6,1424,C1424CER
-58.4353155042632,-34.6179168561194,368,LICEO NÂ° 02 AMANCIO ALCORTA,2013,4U,1,INTERIOR,ESCUELAS,RIVADAVIA AV.,4950,,Caballito,Comuna 6,1424,C1424CER
-58.3957932279674,-34.5989999866249,369,LICEO NÂ° 04 REMEDIOS DE ESCALADA DE SAN MARTIN,2013,4U,1,INTERIOR,ESCUELAS,AYACUCHO,875,,Recoleta,Comuna 2,1111,C1111AAA
-58.3730662832935,-34.6434213276588,370,COLEGIO NÂ° 11 HIPOLITO YRIGOYEN,2013,4U,1,INTERIOR,ESCUELAS,"QUINQUELA MARTIN, BENITO",1649,,Barracas,Comuna 4,1296,C1296ADG
-58.4637427439404,-34.6889410990386,371,ESC. PRIMARIA COMUN NÂ° 09 HECTOR PANIZZA,2013,4U,1,VIA PUBLICA,ESCUELAS,BERON DE ASTRADA,5920,,Villa Lugano,Comuna 8,1439,C1439DPB
-58.467146246783,-34.6918917690744,372,ESC. PRIMARIA COMUN NÂ° 16 DR. SOFANOR NOVILLO CORVALAN,2013,4U,1,VIA PUBLICA,ESCUELAS,BERON DE ASTRADA,6351,,Villa Riachuelo,Comuna 8,1439,C1439DPI
-58.4692504213242,-34.6267247717698,373,ESC. DE EDUCACION MEDIA NÂ° 01/12Â° JULIO CORTAZAR,2013,4U,1,INTERIOR,ESCUELAS,BOGOTA,2759,,Flores,Comuna 7,1406,C1406GBY
-58.4973664345822,-34.6490654361269,374,ESC. PRIMARIA COMUN NÂ° 13 PROF. LUZ VIEIRA MENDEZ,2013,4U,1,VIA PUBLICA,ESCUELAS,BRAGADO,5350,,Mataderos,Comuna 9,1440,C1440ACJ
-58.4184448300611,-34.6103838095692,375,ESC. DE CERAMICA NÂ° 01,2013,4U,1,INTERIOR,ESCUELAS,BULNES,45,,Almagro,Comuna 5,1176,C1176AAA
-58.4664444155168,-34.6866877086236,376,ESC. PRIMARIA COMUN NÂ° 01 CONCEJAL ALBERTO SALVATORI,2013,4U,1,VIA PUBLICA,ESCUELAS,CAFAYATE,5115,,Villa Lugano,Comuna 8,1439,C1439FUW
-58.4636469728799,-34.6884494939146,377,ESC. PRIMARIA COMUN NÂ° 15 DR. CARLOS ALBERTO VERONELLI,2013,4U,1,VIA PUBLICA,ESCUELAS,CAFAYATE,5388,,Villa Lugano,Comuna 8,1439,C1439IEB
-58.4864811048772,-34.6760514329355,378,ESC. DE EDUCACION MEDIA NÂ° 02/20Â°,2013,4U,1,INTERIOR,ESCUELAS,CAÃ‘ADA DE GOMEZ,3850,,Villa Lugano,Comuna 8,,
-58.4779361661893,-34.6829986615871,379,ESC. PRIMARIA COMUN NÂ° 14 DR. RICARDO LEVENE,2013,4U,1,VIA PUBLICA,ESCUELAS,CAÃ‘ADA DE GOMEZ,4548,,Villa Lugano,Comuna 8,,
-58.5103317736792,-34.6608440849659,380,ESC. PRIMARIA COMUN NÂ° 07 ARISTOBULO DEL VALLE,2013,4U,1,VIA PUBLICA,ESCUELAS,CARHUE,2157,,Mataderos,Comuna 9,1440,C1440FNO
-58.4281196539448,-34.6607808662029,381,ESC. PRIMARIA COMUN NÂ° 09 DR. JOSE BENJAMIN ZUBIAUR,2013,4U,1,VIA PUBLICA,ESCUELAS,"BERG, CARLOS",3460,,Villa Soldati,Comuna 8,1437,C1437BEJ
-58.4098197352954,-34.6226056058141,382,ESC. NORMAL SUPERIOR NÂ° 08 PTE. JULIO ARGENTINO ROCA (ANEXO),2013,4U,1,INTERIOR,ESCUELAS,"CALVO, CARLOS",3150,,San Cristobal,Comuna 3,1230,C1230ABB
-58.4593432304702,-34.5694135566452,383,COLEGIO NÂ° 08 JULIO ARGENTINO ROCA,2013,4U,1,INTERIOR,ESCUELAS,"ZUBERBUHLER, CARLOS E.",1830,,Belgrano,Comuna 13,1426,C1426ASD
-58.4193006456613,-34.6239017567095,384,ESC. PRIMARIA COMUN NÂ° 14 INTENDENTE ALVEAR,2013,4U,1,VIA PUBLICA,ESCUELAS,CASTRO BARROS,965,,Boedo,Comuna 5,1217,C1217ABI
-58.3757017395267,-34.6188267808412,385,COLEGIO NÂ° 07 JUAN MARTIN DE PUEYRREDON,2013,4U,1,INTERIOR,ESCUELAS,CHACABUCO,922,,San Telmo,Comuna 1,1069,C1069AAT
-58.4965754158265,-34.6540233422715,386,ESC. PRIMARIA COMUN NÂ° 02 ISABEL LA CATOLICA,2013,4U,1,VIA PUBLICA,ESCUELAS,CHASCOMUS,5598,,Mataderos,Comuna 9,1440,C1440AQP
-58.4675443837384,-34.6792773518528,387,ESC. TECNICA NÂ° 13 ING. JOSE LUIS DELPINI,2013,4U,1,INTERIOR,ESCUELAS,"CHILAVERT, MARTINIANO, CORONEL",5460,,Villa Lugano,Comuna 8,1439,C1439CLF
-58.4598915548496,-34.6294849041793,388,ESC. DE COMERCIO NÂ° 09 JOSE INGENIEROS,2013,4U,1,VIA PUBLICA,ESCUELAS,"FALCON, RAMON L.,CNEL.",2248,,Flores,Comuna 7,1406,C1406GNT
-58.4046179245045,-34.6257131666878,389,ESC. TECNICA NÂ° 11 MANUEL BELGRANO,2013,4U,2,INTERIOR,ESCUELAS,COCHABAMBA,2830,,San Cristobal,Comuna 3,1252,C1252AAV
-58.5024886065477,-34.5994531486119,390,ESC. TECNICA NÂ° 16 ESPAÃ‘A,2013,4U,1,INTERIOR,ESCUELAS,CONCORDIA,3555,,Villa Devoto,Comuna 11,1419,C1419ANA
-58.4680141394911,-34.6277861850944,391,COLEGIO NÂ° 09 JUSTO JOSE DE URQUIZA,2013,4U,1,INTERIOR,ESCUELAS,CONDARCO,290,,Flores,Comuna 7,1406,C1406AFD
-58.4602278678043,-34.5676067537299,392,LICEO NÂ° 09 SANTIAGO DERQUI,2013,4U,1,INTERIOR,ESCUELAS,CONESA,1855,,Belgrano,Comuna 13,1428,C1428CUA
-58.5078730379151,-34.6517774677116,393,ESC. PRIMARIA COMUN NÂ° 20 JUAN RAMON JIMENEZ,2013,4U,1,VIA PUBLICA,ESCUELAS,MURGUIONDO,1347,,Mataderos,Comuna 9,1440,C1440CNE
-58.4617156807377,-34.5644718011006,394,ESC. DE EDUCACION MEDIA NÂ° 05/10Â° HEROES DE MALVINAS,2013,4U,1,INTERIOR,ESCUELAS,CRAMER AV.,2136,,Belgrano,Comuna 13,1428,C1428CTH
-58.4573664786273,-34.5579886646739,395,ESC. TECNICA NÂ° 28 REPUBLICA FRANCESA,2013,4U,1,INTERIOR,ESCUELAS,CUBA,2410,,Belgrano,Comuna 13,1428,C1428AEN
-58.4048341704636,-34.6320372026592,396,ESC. NORMAL SUPERIOR NÂ° 11 DR. RICARDO LEVENE,2013,4U,1,INTERIOR,ESCUELAS,DEAN FUNES,1821,,Parque Patricios,Comuna 4,1244,C1244AAM
-58.4246492459548,-34.6139311990998,397,ESC. PRIMARIA COMUN NÂ° 16 JOSE MARIA RAMOS MEJIA,2013,4U,1,VIA PUBLICA,ESCUELAS,DON BOSCO,4200,,Almagro,Comuna 5,1206,C1206ABP
-58.4988013474076,-34.6308424880767,398,ESC. PRIMARIA COMUN NÂ° 10 ADA MARIA ELFLEIN,2013,4U,1,VIA PUBLICA,ESCUELAS,"BELAUSTEGUI, LUIS, DR.",4949,,Velez Sarsfield,Comuna 10,1407,C1407EYG
-58.4857275514349,-34.6668258897382,399,ESC. PRIMARIA COMUN NÂ° 22 SANTA MARIA DE LOS BUENOS AIRES,2013,4U,1,VIA PUBLICA,ESCUELAS,ECHEANDIA,5650,,Villa Lugano,Comuna 8,1439,C1439BJZ
-58.5237465378744,-34.6375425791765,400,COLEGIO NÂ° 13 CNEL. TOMAS ESPORA,2013,4U,1,INTERIOR,ESCUELAS,GALLARDO,149,,Liniers,Comuna 9,1408,C1408BSA
-58.4319597562278,-34.5887695618377,401,ESC. DE EDUCACION MEDIA NÂ° 05/21Â° JUAN MANUEL FANGIO,2013,4U,1,VIA PUBLICA,ESCUELAS,GORRITI,5091,,Palermo,Comuna 14,1414,C1414BJQ
-58.4101412987059,-34.6131009526464,402,ESC. PRIMARIA COMUN NÂ° 13 BRIG. GRAL. JOSE MATIAS ZAPIOLA,2013,4U,1,VIA PUBLICA,ESCUELAS,"URQUIZA, GRAL.",227,,Balvanera,Comuna 3,1215,C1215ADE
-58.4764870383741,-34.6431436025302,403,ESC. PRIMARIA COMUN NÂ° 17 GRAL. JUAN GALO LAVALLE,2013,4U,1,VIA PUBLICA,ESCUELAS,GARZON EUGENIO GENERAL,3950,,Parque Avellaneda,Comuna 9,1407,C1407HLJ
-58.4817100430499,-34.6481644257382,404,ESC. PRIMARIA COMUN NÂ° 16 DR. TOMAS A. LE BRETON,2013,4U,1,VIA PUBLICA,ESCUELAS,GARZON EUGENIO GENERAL,4346,,Parque Avellaneda,Comuna 9,1407,C1407HMB
-58.377220976724,-34.6337727268136,405,ESC. PRIMARIA COMUN NÂ° 01 REPUBLICA DE BOLIVIA,2013,4U,1,INTERIOR,ESCUELAS,"HORNOS, GRAL.",530,,Barracas,Comuna 4,1272,C1272ACJ
-58.4100558696388,-34.6136589147368,406,INST. DE EDUC. SUPERIOR MARIANO ACOSTA,2013,4U,1,INTERIOR,ESCUELAS,"URQUIZA, GRAL.",277,,Balvanera,Comuna 3,1215,C1215ADE
-58.4692008248787,-34.6432642293895,407,ESC. PRIMARIA COMUN NÂ° 11 DR. PEDRO GOYENA,2013,4U,1,VIA PUBLICA,ESCUELAS,"LAFERRERE, GREGORIO DE",3624,,Parque Avellaneda,Comuna 9,1407,C1407HQB
-58.5230392830847,-34.6522390228401,408,ESC. PRIMARIA COMUN NÂ° 01 DE LA INDEPENDENCIA ARGENTINA,2013,4U,1,VIA PUBLICA,ESCUELAS,GUAMINI,1167,,Liniers,Comuna 9,1408,C1408IAC
-58.4161389306953,-34.5869439591187,409,ESC. NORMAL SUPERIOR NÂ° 06 VICENTE LOPEZ Y PLANES,2013,4U,1,INTERIOR,ESCUELAS,GUEMES,3859,,Palermo,Comuna 14,1425,C1425BKS
-58.419125247053,-34.5992875628745,410,ESC. TECNICA NÂ° 30 DR. NORBERTO PIÃ‘ERO,2013,4U,1,INTERIOR,ESCUELAS,"SALGUERO, JERONIMO",920,,Almagro,Comuna 5,1177,C1177AER
-58.4868940292791,-34.6438239665503,411,ESC. PRIMARIA COMUN NÂ° 21 PEDRO INCHAUSPE,2013,4U,1,VIA PUBLICA,ESCUELAS,"RODO, JOSE E.",4431,,Parque Avellaneda,Comuna 9,1407,C1407HDQ
-58.4805886360146,-34.6765532524489,412,ESC. PRIMARIA COMUN NÂ° 08 JUDITH Y DEMETRIO DEMARCHI,2013,4U,1,VIA PUBLICA,ESCUELAS,"RUCCI, JOSE IGNACIO",3961,,Villa Lugano,Comuna 8,1439,C1439FVQ
-58.5291937913495,-34.6210861559821,413,CICLO BASICO DE FORMACION OCUPACIONAL NÂ° 02 SALVADOR MAZA,2013,4U,1,INTERIOR,ESCUELAS,"VARELA, JOSE PEDRO",5966,,Villa Real,Comuna 10,1408,C1408BJN
-58.5068500073712,-34.6271039114172,414,ESC. PRIMARIA COMUN NÂ° 18 GENDARMERIA NACIONAL,2018,1U,3,VIA PUBLICA,Universidades - Colegios,"GARCIA, JUAN AGUSTIN",5265,,Monte Castro,Comuna 10,1407,C1407FXM
-58.4034357501075,-34.6185071239387,415,ESC. NÂº 25 DE 6,2013,4U,1,INTERIOR,ESCUELAS,JUJUY AV.,780,,Balvanera,Comuna 3,1229,C1229ABP
-58.4104886785496,-34.5854818339438,416,ESC. DE COMERCIO NÂ° 26 ENRIQUE DE VEDIA,2013,4U,1,INTERIOR,ESCUELAS,JUNCAL,3250,,Palermo,Comuna 14,1425,C1425AYR
-58.4104070976434,-34.5852756701341,417,ESC. NORMAL SUPERIOR EN LENGUAS VIVAS SOFIA ESTHER BROQUEN DE SPANGENBERG,2013,4U,1,INTERIOR,ESCUELAS,JUNCAL,3251,,Palermo,Comuna 14,1425,C1425AYQ
-58.4618455012277,-34.5649524278424,418,CICLO BASICO DE FORMACION OCUPACIONAL NÂ° 03 OLGA COSSETTINI,2013,4U,1,VIA PUBLICA,ESCUELAS,JURAMENTO,2945,,Belgrano,Comuna 13,1428,C1428DNY
-58.4071648594211,-34.6225323452203,419,ESC. NORMAL SUPERIOR NÂ° 08 PRESIDENTE JULIO ARGENTINO ROCA (SEDE),2013,4U,1,INTERIOR,ESCUELAS,LA RIOJA,1042,,San Cristobal,Comuna 3,1221,C1221ACL
-58.4060777926346,-34.6325084027692,420,ESC. PRIMARIA COMUN NÂ° 02 JOSE MARIA GUTIERREZ,2013,4U,1,INTERIOR,ESCUELAS,LA RIOJA,1846,,Parque Patricios,Comuna 4,1244,C1244ABN
-58.4079394926924,-34.6179278243998,421,CBO NÂ°1,2013,4U,1,VIA PUBLICA,ESCUELAS,LA RIOJA,660,,Balvanera,Comuna 3,1221,C1221ACD
-58.4757417899292,-34.6447650051917,422,ESC. PRIMARIA COMUN NÂ° 10 ANTONIO ZACCAGNINI,2013,4U,1,VIA PUBLICA,ESCUELAS,LACARRA AV.,1135,,Parque Avellaneda,Comuna 9,1407,C1407JQW
-58.4817173882467,-34.6400433088071,423,ESC. TECNICA NÂ° 17 BRIG. GRAL. CORNELIO SAAVEDRA,2013,4U,1,INTERIOR,ESCUELAS,LACARRA,535,,Parque Avellaneda,Comuna 9,1407,C1407JQK
-58.4749622294933,-34.6452318528055,424,ESC MEDIA NÂ°2,2013,4U,1,INTERIOR,ESCUELAS,LACARRA AV.,0,"BILBAO, FRANCISCO AV.",Parque Avellaneda,Comuna 9,,
-58.4940264003077,-34.6575804383667,425,ESC. PRIMARIA COMUN NÂ° 12 PRESBITERO PROF. V. MONTES CARBALLO,2013,4U,1,VIA PUBLICA,ESCUELAS,LARRAYA,2055,,Mataderos,Comuna 9,1440,C1440CWK
-58.4956935136835,-34.6128949674423,426,INST. SUPERIOR DE LENGUAS VIVAS SEDE Y ANEXO,2013,4U,1,INTERIOR,ESCUELAS,LASCANO,3810,,Villa Del Parque,Comuna 11,1417,C1417GZF
-58.3908734198851,-34.6030187862993,427,ESC. TECNICA NÂ° 19 ALEJANDRO VOLTA,2013,4U,1,VIA PUBLICA,ESCUELAS,LAVALLE,1681,,San Nicolas,Comuna 1,1048,C1048AAM
-58.3843945154531,-34.5935374522072,428,COLEGIO NÂ° 02 DOMINGO FAUSTINO SARMIENTO,2013,4U,1,INTERIOR,ESCUELAS,LIBERTAD,1257,,Retiro,Comuna 1,1012,C1012AAY
-58.5030336854469,-34.6499151560839,429,ESC. PRIMARIA COMUN NÂ° 04 REPUBLICA DEL BRASIL,2013,4U,1,VIA PUBLICA,ESCUELAS,ARTIGAS MANUEL DE,5951,,Mataderos,Comuna 9,1440,C1440BRQ
-58.4483792285783,-34.66061140682,430,ESC. PRIMARIA COMUN NÂ° 21 GUILLERMO JOSE BARROS,2013,4U,1,VIA PUBLICA,ESCUELAS,"ACOSTA, MARIANO",2976,,Villa Soldati,Comuna 8,1437,C1437CDF
-58.417555142377,-34.6079417307824,431,ESC. DE EDUCACION MEDIA NÂ° 01/02Â°,2013,4U,1,INTERIOR,ESCUELAS,"BRAVO, MARIO",234,,Almagro,Comuna 5,1175,C1175ABD
-58.4487692111535,-34.6623180826915,432,ESC. PRIMARIA COMUN NÂ° 20 MAESTRO CARLOS ALBERTO CARRANZA,2013,4U,1,VIA PUBLICA,ESCUELAS,MARTINEZ CASTRO,3061,,Villa Soldati,Comuna 8,1437,C1437CHE
-58.4487369198676,-34.6623427307421,433,ESC. DE EDUCACION MEDIA NÂ° 02/19Â° ARTURO JAURETCHE,2013,4U,1,INTERIOR,ESCUELAS,MARTINEZ CASTRO,3067,,Villa Soldati,Comuna 8,1437,C1437CHE
-58.4486641879049,-34.6624012363657,434,ESC. DE EDUCACION MEDIA NÂ° 05/19Â°,2013,4U,1,INTERIOR,ESCUELAS,MARTINEZ CASTRO,3077,,Villa Soldati,Comuna 8,1437,C1437CHE
-58.5082626752511,-34.652488256903,435,ESC. PRIMARIA COMUN NÂ° 16 DR. MARTINIANO LEGUIZAMON,2013,4U,1,VIA PUBLICA,ESCUELAS,"LEGUIZAMON, MARTINIANO",1470,,Mataderos,Comuna 9,1440,C1440DYF
-58.4145339967285,-34.6338873105829,436,ESC. PRIMARIA COMUN NÂ° 08 ALMAFUERTE,2013,4U,1,VIA PUBLICA,ESCUELAS,MAZA,1913,,Boedo,Comuna 5,1240,C1240ADO
-58.5126253958416,-34.6006403737952,437,ESC. DE EDUCACION MEDIA NÂ° 03/17Â° ANTONIO DEVOTO,2013,4U,1,INTERIOR,ESCUELAS,MERCEDES,4002,,Villa Devoto,Comuna 11,1419,C1419BGJ
-58.3999997635104,-34.6163711951409,438,ESC. PRIMARIA COMUN NÂ° 15 FRANCISCO NARCISO DE LAPRIDA,2013,4U,1,INTERIOR,ESCUELAS,MEXICO,2383,,Balvanera,Comuna 3,1222,C1222ABK
-58.4581047162806,-34.5440233019441,439,PROFESORADO ROMERO BREST,2013,4U,10,INTERIOR,ESCUELAS,"SANCHEZ, MIGUEL B. AV.",1338,,NuÃ±ez,Comuna 13,,
-58.4820450509687,-34.6627744868808,440,ESC. PRIMARIA COMUN NÂ° 09 HOMERO MANZI,2013,4U,1,VIA PUBLICA,ESCUELAS,MIRALLA,2666,,Villa Lugano,Comuna 8,1439,C1439EPD
-58.525811293944,-34.6506272805229,441,ESC. PRIMARIA COMUN NÂ° 02 DR. FRANCISCO MELITON ALVAREZ,2013,4U,1,VIA PUBLICA,ESCUELAS,MONTIEL,1041,,Liniers,Comuna 9,1408,C1408FVU
-58.4933223421843,-34.6763803647837,442,ESC. PRIMARIA COMUN NÂ° 22 RUFINO LURO CAMBACERES,2013,4U,1,VIA PUBLICA,ESCUELAS,MONTIEL,3826,,Villa Lugano,Comuna 8,1439,C1439HEF
-58.5049977044396,-34.6532430802958,443,LICEO NÂ° 08 ESTEBAN ECHEVERRIA,2013,4U,1,INTERIOR,ESCUELAS,MURGUIONDO,1568,,Mataderos,Comuna 9,1440,C1440CNJ
-58.5128102833005,-34.605417236947,444,COLEGIO NÂ° 19 LUIS PASTEUR,2013,4U,2,INTERIOR,ESCUELAS,NAVARRO,4344,,Villa Devoto,Comuna 11,1419,C1419HUJ
-58.4607881221511,-34.6019802182902,445,ESC. DE COMERCIO NÂ° 20 DR. JUAN AGUSTIN GARCIA,2013,4U,1,INTERIOR,ESCUELAS,"OROÃ‘O, NICASIO",2131,,Paternal,Comuna 15,,
-58.4641812539948,-34.6837641750325,446,ESC. PRIMARIA COMUN NÂ° 06 REPUBLICA DE LA INDIA,2013,4U,1,VIA PUBLICA,ESCUELAS,"DESCALZI, NICOLAS",5425,,Villa Lugano,Comuna 8,1439,C1439DEA
-58.4780491948963,-34.5561638106051,447,ESC. TECNICA NÂ° 21 FRAGATA ESCUELA LIBERTAD,2013,4U,1,INTERIOR,ESCUELAS,NUÃ‘EZ,3620,,Coghlan,Comuna 12,,
-58.4265517941819,-34.6034311487498,448,ESC. PRIMARIA COMUN NÂ° 11 PROVINCIA DE JUJUY,2013,4U,1,VIA PUBLICA,ESCUELAS,"NUÃ‘EZ, ROBERTO, OBRERO",4355,,Almagro,Comuna 5,,
-58.4557059525768,-34.556579934766,449,ESC. NORMAL SUPERIOR NÂ° 10 JUAN BAUTISTA ALBERDI (SEDE),2013,4U,1,INTERIOR,ESCUELAS,O'HIGGINS,2441,,Belgrano,Comuna 13,1428,C1428AGM
-58.4895769258722,-34.6649457217042,450,ESC. PRIMARIA COMUN NÂ° 11 PONCIANO VIVANCO,2013,4U,1,VIA PUBLICA,ESCUELAS,OLIDEN,2851,,Villa Lugano,Comuna 8,1439,C1439FNA
-58.3952026728092,-34.5987596897668,451,ESC. DE COMERCIO NÂ° 10 ISLAS MALVINAS,2013,4U,1,INTERIOR,ESCUELAS,PARAGUAY,1950,,Recoleta,Comuna 2,1121,C1121ABD
-58.4733902944077,-34.6350943650606,452,ESC. TECNICA NÂ° 37 HOGAR NAVAL STELLA MARIS,2013,4U,1,INTERIOR,ESCUELAS,PERGAMINO,211,,Floresta,Comuna 10,1406,C1406FHE
-58.3961526903296,-34.6312258298273,453,ESC. PRIMARIA COMUN NÂ° 26 BRIGADIER MIGUEL DE AZCUENAGA,2013,4U,1,VIA PUBLICA,ESCUELAS,PICHINCHA AV.,1873,,Parque Patricios,Comuna 4,1249,C1249ABM
-58.4836174598096,-34.6399436985065,454,ESC. TECNICA NÂ° 08 PAULA ALBARRACIN DE SARMIENTO,2013,4U,1,INTERIOR,ESCUELAS,"COLLIVADINO, PIO",436,,Parque Avellaneda,Comuna 9,1407,C1407JOB
-58.4678705005672,-34.6295191430977,455,ESC. TECNICA NÂ° 06 FERNANDO FADER,2013,4U,1,INTERIOR,ESCUELAS,LA PORTEÃ‘A,54,,Flores,Comuna 7,,
-58.442904582542,-34.6621181464329,456,ESC. PRIMARIA COMUN NÂ° 15 EVARISTO CARRIEGO,2013,4U,1,VIA PUBLICA,ESCUELAS,PORTELA,3150,,Villa Soldati,Comuna 8,1437,C1437BZP
-58.4263786839093,-34.5983935322703,457,ESC. PRIMARIA COMUN NÂ° 20 ROSARIO VERA PEÃ‘ALOZA,2013,4U,1,VIA PUBLICA,ESCUELAS,PRINGLES,1165,,Almagro,Comuna 5,1183,C1183AEU
-58.4275005102329,-34.6093928300784,458,ESC. PRIMARIA COMUN NÂ° 23 GRAL. BELGRANO,2013,4U,1,VIA PUBLICA,ESCUELAS,PRINGLES,263,,Almagro,Comuna 5,1183,C1183AEC
-58.4222929368755,-34.6192546875737,459,ESC. PRIMARIA COMUN NÂ° 04 SALVADOR MARIA DEL CARRIL,2013,4U,1,VIA PUBLICA,ESCUELAS,"BOCAYUVA, QUINTINO",620,,Almagro,Comuna 5,1216,C1216AAD
-58.4235479209556,-34.6167662745412,460,COLEGIO NÂ° 10 JOSE DE SAN MARTIN,2013,4U,1,INTERIOR,ESCUELAS,QUITO,4047,,Almagro,Comuna 5,1212,C1212ABI
-58.4958420159515,-34.6018838781745,461,ESC. TECNICA NÂ° 24 DEFENSA DE BUENOS AIRES,2013,4U,1,INTERIOR,ESCUELAS,"GUTIERREZ, RICARDO",3246,,Villa Del Parque,Comuna 11,1417,C1417ECB
-58.3940712934985,-34.6017408681624,462,ESC. DE COMERCIO NÂ° 02 DR. ANTONIO BERMEJO,2013,4U,1,INTERIOR,ESCUELAS,RIOBAMBA,623,,Balvanera,Comuna 3,1025,C1025ABM
-58.4026154184241,-34.6176800204374,463,ESC. PRIMARIA COMUN NÂ° 06 DR. GUILLERMO CORREA,2013,4U,1,INTERIOR,ESCUELAS,SAAVEDRA,695,,Balvanera,Comuna 3,1229,C1229ACC
-58.5090041431306,-34.630590786777,464,ESC. DE COMERCIO NÂ° 30 DR. ESTEBAN AGUSTIN GASCON,2013,4U,1,INTERIOR,ESCUELAS,SAN BLAS,5387,,Villa Luro,Comuna 10,1407,C1407FUO
-58.480696226802,-34.6489651937498,465,ESC. PRIMARIA COMUN NÂ° 18 DRA. ELVIRA RAWSON DE DELLEPIANE,2013,4U,1,VIA PUBLICA,ESCUELAS,SAN PEDRO,4457,,Parque Avellaneda,Comuna 9,1407,C1407HNQ
-58.4927348113648,-34.6591588997491,466,ESC. PRIMARIA COMUN NÂ° 14 JOSE ANTONIO CABRERA,2013,4U,1,VIA PUBLICA,ESCUELAS,SAN PEDRO,5845,,Mataderos,Comuna 9,1440,C1440BDS
-58.4149878747365,-34.6064161347298,467,ESC. PRIMARIA COMUN NÂ° 22 CARLOS JAVIER BENIELLI,2013,4U,1,VIA PUBLICA,ESCUELAS,SANCHEZ DE BUSTAMANTE,260,,Almagro,Comuna 5,1173,C1173ABD
-58.4674308484806,-34.6607237818068,468,ESCUELA NORMAL SUPERIOR NÂ°3 ( ANEXO ),2013,4U,1,VIA PUBLICA,ESCUELAS,SARAZA,4202,,Villa Lugano,Comuna 8,1439,C1439AOB
-58.4674489937839,-34.6607412039091,469,ESCUELA NORMAL SUPERIOR N 3 (ANEXO),2013,4U,1,VIA PUBLICA,ESCUELAS,SARAZA,4204,,Villa Lugano,Comuna 8,1439,C1439AOB
-58.464388529423,-34.6852185051989,470,ESC. DE BELLAS ARTES LOLA MORA,2013,4U,1,INTERIOR,ESCUELAS,SOLDADO DE LA FRONTERA AV.,5155,,Villa Lugano,Comuna 8,1439,C1439FPE
-58.4225383270236,-34.6298695990971,471,ESC. PRIMARIA COMUN NÂ° 25 PAULA ALBARRACIN DE SARMIENTO,2013,4U,1,VIA PUBLICA,ESCUELAS,TARIJA,4136,,Boedo,Comuna 5,1253,C1253ACR
-58.4203948587377,-34.6547003849021,472,ESC. PRIMARIA COMUN NÂ° 02 DR. GENARO SISTO,2013,4U,1,VIA PUBLICA,ESCUELAS,TILCARA,3365,,Nueva Pompeya,Comuna 4,1437,C1437CYK
-58.4868230292919,-34.5527978911952,473,ESC. DE EDUCACION MEDIA NÂ° 05/15Â°,2013,4U,1,INTERIOR,ESCUELAS,TRONADOR,4134,,Saavedra,Comuna 12,1430,C1430DMZ
-58.4901828966688,-34.5617799907395,474,ESC. DE COMERCIO NÂ° 15 DRA. CECILIA GRIERSON,2013,4U,1,INTERIOR,ESCUELAS,VALDENEGRO,3523,,Saavedra,Comuna 12,1431,C1431GAS
-58.3792868536339,-34.6434032949904,475,ESC. TECNICA NÂ° 10 FRAY LUIS BELTRAN,2013,4U,1,INTERIOR,ESCUELAS,VIEYTES,942,,Barracas,Comuna 4,1275,C1275AGD
-58.3715010010457,-34.6348168466909,476,ESC. DE BELLAS ARTES MANUEL BELGRANO,2013,4U,1,INTERIOR,ESCUELAS,"VILLAFAÃ‘E, WENCESLAO",1342,,Barracas,Comuna 4,,
-58.4431962244399,-34.608013235056,477,PARQUE CENTENARIO,2013,4U,6,INTERIOR,ESPACIOS VERDES,DIAZ VELEZ AV.,5463,,Caballito,Comuna 6,1405,C1405DCJ
-58.4084262228404,-34.5865032086421,478,PLAZA LAS HERAS,2013,4U,2,VIA PUBLICA,ESPACIOS VERDES,"DIAZ, CNEL. AV.",0,JUNCAL,Recoleta,Comuna 2,,
-58.4982751433292,-34.5532326895014,479,POLIDEPORTIVO SARMIENTO,2018,1U,15,INTERIOR,POLIDEPORTIVO,"BALBIN, RICARDO, DR. AV.",4750,,Saavedra,Comuna 12,1430,C1430ABS
-58.426043646242,-34.5886996928628,480,PLAZA PALERMO VIEJO,2013,4U,1,VIA PUBLICA,ESPACIOS VERDES,COSTA RICA,0,ARMENIA,Palermo,Comuna 14,,
-58.3839984655506,-34.5970026969964,481,PLAZA LIBERTAD,2013,4U,1,VIA PUBLICA,ESPACIOS VERDES,LIBERTAD,0,"ALVEAR, MARCELO T. DE",Retiro,Comuna 1,,
-58.397738567678,-34.588634505638,482,PLAZA EMILIO MITRE,2013,4U,1,VIA PUBLICA,ESPACIOS VERDES,"PACHECO DE MELO, JOSE ANDRES",0,LARREA,Recoleta,Comuna 2,,
-58.3919228198574,-34.5972832545176,483,PLAZA RODRIGUEZ PEÃ‘A,2013,4U,3,VIA PUBLICA,ESPACIOS VERDES,RODRIGUEZ PEÃ‘A,0,"ALVEAR, MARCELO T. DE",Recoleta,Comuna 2,,
-58.3917673813492,-34.5985592536813,484,PLAZA RODRIGUEZ PEÃ‘A,2013,4U,3,VIA PUBLICA,ESPACIOS VERDES,RODRIGUEZ PEÃ‘A,0,PARAGUAY,Recoleta,Comuna 2,,
-58.3841056018746,-34.6013401599935,485,PLAZA,2013,4U,2,VIA PUBLICA,ESPACIOS VERDES,LIBERTAD,0,TUCUMAN,San Nicolas,Comuna 1,,
-58.4183743364921,-34.5715305721318,486,ESTACION SALUDABLE,2013,4U,1,VIA PUBLICA,ESPACIOS VERDES,"MONTT, PEDRO, PRES. AV.",0,"KENNEDY, JOHN FITZGERALD",Palermo,Comuna 14,,
-58.4347107428347,-34.5544072924522,487,ESTACION SALUDABLE,2013,4U,1,VIA PUBLICA,ESPACIOS VERDES,"ALSINA, VALENTIN AV.",0,"ARMAUER HANSEN, GERARDO, DR.",Palermo,Comuna 14,,
-58.3907995880261,-34.5878460212749,488,LA BIELA,2013,4U,1,VIA PUBLICA,GASTRONOMICOS,"QUINTANA, MANUEL, PRES. AV.",600,,Recoleta,Comuna 2,1129,C1129ABO
-58.5111065555,-34.5999200728144,489,"HOSPITAL GENERAL DE AGUDOS A. ZUBIZARRETA""""",2013,4U,3,VIA PUBLICA,HOSPITALES,NUEVA YORK,3952,,Villa Devoto,Comuna 11,1419,C1419HDN
-58.3745816922569,-34.6102465208297,490,VIA PUBLICA,2013,4U,1,VIA PUBLICA,MICROCENTRO,"ROCA, JULIO A., PRESIDENTE DIAGONAL SUR AV.",600,,Monserrat,Comuna 1,1067,C1067ABN
-58.4115250322541,-34.6041759363578,491,SUBTE CARLOS GARDEL,2013,4U,1,VIA PUBLICA,SUBTE,CORRIENTES AV.,3292,,Balvanera,Comuna 3,1193,C1193AAR
-58.4313339090191,-34.60224654151,492,SUBTE ANGEL GALLARDO,2013,4U,1,VIA PUBLICA,SUBTE,CORRIENTES AV.,4662,,Almagro,Comuna 5,1195,C1195AAS
-58.3928225746456,-34.6013190631977,493,USAL CS. JURIDICAS,2013,4U,1,INTERIOR,UNIVERSIDADES,CALLAO AV.,660,,Balvanera,Comuna 3,1022,C1022AAT
-58.3985855292446,-34.599856859712,494,FACULTAD DE CIENCIAS ECONOMICAS UBA,2013,4U,1,VIA PUBLICA,UNIVERSIDADES,CORDOBA AV.,0,"URIBURU JOSE E., PRES.",Balvanera,Comuna 3,,
-58.3912243779471,-34.6042609318319,495,UMSA,2017,1U,4,VIA PUBLICA,Universidades - Colegios,CORRIENTES AV.,1723,,San Nicolas,Comuna 1,1042,C1042AAD
-58.3928442955086,-34.5992844930961,496,USAL CS DE LA EDUCACION Y LA COMUNICACION,2013,4U,1,VIA PUBLICA,UNIVERSIDADES,CALLAO AV.,835,,Recoleta,Comuna 2,1023,C1023AAB
-58.4009342374431,-34.6108990678907,497,UNIVERSIDAD DEL SALVADOR - FACULTAD DE CIENCIAS SOCIALES,2013,4U,1,INTERIOR,UNIVERSIDADES,"YRIGOYEN, HIPOLITO",2441,,Balvanera,Comuna 3,1089,C1089AAU
-58.3935683747639,-34.6032410261335,498,USAL FILOSOFIA Y LETRAS,2013,4U,1,INTERIOR,UNIVERSIDADES,LAVALLE,1878,,Balvanera,Comuna 3,1051,C1051ABB
-58.38588134962,-34.5970352543393,499,USAL CS. DE LA ADMINISTRACION,2013,4U,1,INTERIOR,UNIVERSIDADES,"ALVEAR, MARCELO T. DE",1312,,Retiro,Comuna 1,1058,C1058AAV
-58.3861790471512,-34.5969476547724,500,USAL CS. ECONOMICAS,2013,4U,1,INTERIOR,UNIVERSIDADES,"ALVEAR, MARCELO T. DE",1335,,Retiro,Comuna 1,1058,C1058AAU
-58.4201956686741,-34.5985649491377,501,UNIVERSIDAD TECNOLOGICA NACIONAL,2013,4U,2,VIA PUBLICA,UNIVERSIDADES,MEDRANO AV.,951,,Almagro,Comuna 5,1179,C1179AAQ
-58.4686962371409,-34.6595670820095,502,UNIVERSIDAD TECNOLOGICA NACIONAL,2013,4U,7,INTERIOR,UNIVERSIDADES,MOZART,2350,,Villa Lugano,Comuna 8,1407,C1407IVV
-58.4626524918232,-34.6324182614325,503,UFLO,2013,4U,1,INTERIOR,UNIVERSIDADES,PEDERNERA,272,,Flores,Comuna 7,1406,C1406EEF
-58.3914423120605,-34.6011654602774,504,USAL DISEÃ‘O,2013,4U,1,INTERIOR,UNIVERSIDADES,RODRIGUEZ PEÃ‘A,670,,San Nicolas,Comuna 1,,
-58.4147213816407,-34.6092769636958,505,USAL ARTE Y ARQUITECTURA,2013,4U,1,VIA PUBLICA,UNIVERSIDADES,SANCHEZ DE BUSTAMANTE,106,,Almagro,Comuna 5,1173,C1173ABB
-58.4000079806909,-34.5892407923416,506,VIA PUBLICA,2013,4U,2,VIA PUBLICA,VIA PUBLICA,PUEYRREDON AV.,0,"ANCHORENA, TOMAS MANUEL DE, DR.",Recoleta,Comuna 2,,
-58.4052590385264,-34.5959063979087,507,RADIO MITRE,2013,1U,3,VIA PUBLICA,VIA PUBLICA,"MANSILLA, LUCIO NORBERTO, GENERAL",2668,,Recoleta,Comuna 2,1425,C1425BPD
-58.426855478283,-34.5890558864049,508,TONY SOIREE BOUTIQUE,2014,1U,2,VIA PUBLICA,CCCA PALERMO-COMERCIO AMIGO,ARMENIA,1738,,Palermo,Comuna 14,1414,C1414DKL
-58.4391128540733,-34.5833634721345,509,ALTURA CRUCERO,2014,1U,2,VIA PUBLICA,CCCA PALERMO-COMERCIO AMIGO,"CARRANZA, ANGEL JUSTINIANO",1601,,Palermo,Comuna 14,1414,C1414COQ
-58.4396187455317,-34.5829555155733,510,VICEVERSA,2014,1U,2,VIA PUBLICA,CCCA PALERMO,GORRITI,5839,,Palermo,Comuna 14,1414,C1414BKI
-58.4210183430471,-34.5822292826651,512,EL CLUB DE LA TELA,2014,1U,1,VIA PUBLICA,CCCA PALERMO-COMERCIO AMIGO,"BORGES, JORGE LUIS",2473,,Palermo,Comuna 14,1425,C1425FFI
-58.4258882785963,-34.5899215016558,513,POLIFUNCIONAL PALERMO VIEJO,2014,1U,2,VIA PUBLICA,CCCA PALERMO-COMERCIO AMIGO,MALABIA,1720,,Palermo,Comuna 14,1414,C1414DMJ
-58.4420503561516,-34.5822184606801,514,CUCINA PARADISO,2014,1U,2,VIA PUBLICA,COMERCIO AMIGO,AREVALO,1538,,Palermo,Comuna 14,1414,C1414CQF
-58.4279556004941,-34.5900141887632,515,LA MERCERIA,2014,1U,2,VIA PUBLICA,COMERCIO AMIGO,ARMENIA,1609,,Palermo,Comuna 14,1414,C1414DKI
-58.426493444234,-34.5888222079443,516,HUIJA,2014,1U,1,VIA PUBLICA,COMERCIO AMIGO,ARMENIA,1780,,Palermo,Comuna 14,1414,C1414DKL
-58.4155440294959,-34.5847579458103,517,NEW BIKES,2014,1U,2,VIA PUBLICA,COMERCIO AMIGO,"SCALABRINI ORTIZ, RAUL",2552,,Palermo,Comuna 14,1425,C1425DBT
-58.4582575949574,-34.5724370671896,518,LA DOMINGA,2014,1U,1,VIA PUBLICA,COMERCIO AMIGO,"FREIRE, RAMON, CAP. GRAL.",1514,,Colegiales,Comuna 13,1426,C1426AWF
-58.4306636575431,-34.5901942212428,519,ESCUELA DR. HUGO ARDILES (YOGA),2014,1U,1,VIA PUBLICA,COMERCIO AMIGO,GURRUCHAGA,1462,,Palermo,Comuna 14,1414,C1414DID
-58.4288271481284,-34.589172611521,520,AY NOT DEAD (WOMEN STORE),2014,1U,2,VIA PUBLICA,COMERCIO AMIGO,GURRUCHAGA,1637,,Palermo,Comuna 14,1414,C1414DIG
-58.4279555955152,-34.5886621987371,521,AY NOT DEAD (MEN STORE),2014,1U,2,VIA PUBLICA,COMERCIO AMIGO,GURRUCHAGA,1715,,Palermo,Comuna 14,1414,C1414DII
-58.4275389861481,-34.5883928321537,522,MARIANA DAPPIANO,2014,1U,2,VIA PUBLICA,COMERCIO AMIGO,GURRUCHAGA,1755,,Palermo,Comuna 14,1414,C1414DII
-58.4392258605164,-34.5834770981397,523,LA BOHÃˆME,2018,1U,2,VIA PUBLICA,COMERCIO AMIGO,GORRITI,5796,,Palermo,Comuna 14,1414,C1414BKH
-58.3991206312817,-34.6239709160995,524,ONG Â AVES ARGENTINAS,2018,1U,2,VIA PUBLICA,COMERCIO AMIGO,MATHEU,1246,,San Cristobal,Comuna 3,1249,C1249AAB
-58.4284076827046,-34.5855659576561,525,ESPACIO OXIVITAL,2014,1U,2,VIA PUBLICA,COMERCIO AMIGO,NICARAGUA,4959,,Palermo,Comuna 14,1414,C1414BVM
-58.4284522511099,-34.5839224446974,526,BAZAR DE LA ESQUINA,2014,1U,1,VIA PUBLICA,COMERCIO AMIGO,FRAY JUSTO SANTAMARIA DE ORO,2013,,Palermo,Comuna 14,1425,C1425FOA
-58.3919740010207,-34.5951526073907,527,WELLCLUB,2014,1U,2,VIA PUBLICA,COMERCIO AMIGO,RODRIGUEZ PEÃ‘A,1177,,Recoleta,Comuna 2,,
-58.4377539932724,-34.5960959260032,528,BIBLIOTECA ALBERDI,2014,1U,2,VIA PUBLICA,EDIFICIOS CULTURALES,ACEVEDO,666,,Villa Crespo,Comuna 15,1414,C1414DJN
-58.4591502880346,-34.6268470816469,529,ALIANZA FRANCESA,2014,1U,2,VIA PUBLICA,EDIFICIOS CULTURALES,GRANADEROS,61,,Flores,Comuna 7,1406,C1406BCA
-58.4078985683337,-34.6016392008543,530,MUSEO CASA CARLOS GARDEL,2019,1U,2,VIA PUBLICA,Centro Cultural Abasto,"JAURES, JEAN",735,,Balvanera,Comuna 3,1215,C1215ACM
-58.4346802945936,-34.595887356065,531,CENTRO STAMBOULIAN,2014,1U,2,VIA PUBLICA,EMPRESA AMIGA,MALABIA,853,,Villa Crespo,Comuna 15,1414,C1414DLQ
-58.399965710453,-34.590493411552,532,UNIVERSIDAD BARCELO,2014,1U,2,VIA PUBLICA,UNIVERSIDADES,FRENCH,2464,,Recoleta,Comuna 2,1125,C1125AAH
-58.4303403207836,-34.5845811780072,533,HOTEL BOUTIQUE,2014,1U,2,VIA PUBLICA,VIA PUBLICA,GODOY CRUZ,2081,,Palermo,Comuna 14,1414,C1414CYQ
-58.4594842471831,-34.5581126855273,534,NEW BIKES,2018,1U,6,VIA PUBLICA,COMERCIO AMIGO,MONROE,2364,,Belgrano,Comuna 13,1428,C1428BLL
-58.3898016024887,-34.5979825511793,535,SOCIEDAD CENTRAL DE ARQUITECTOS,2014,1U,2,VIA PUBLICA,VIA PUBLICA,MONTEVIDEO,938,,Recoleta,Comuna 2,1019,C1019ABT
-58.437967279684,-34.5672992134707,536,SIN INSTALAR CASA FOA,2014,4U,2,INTERIOR,EDIFICIO CULTURAL,GOROSTIAGA,0,"CAMPOS, LUIS M. AV.",Palermo,Comuna 14,,
-58.414971064426,-34.5783311628819,537,ZOO DE BUENOS AIRES,2014,4U,2,INTERIOR,EDIFICIO CULTURAL,REPUBLICA DE LA INDIA,3000,,Palermo,Comuna 14,1425,C1425FCF
-58.414971064426,-34.5783311628819,538,ZOO DE BUENOS AIRES,2014,1U,2,INTERIOR,EDIFICIO CULTURAL,REPUBLICA DE LA INDIA,3000,,Palermo,Comuna 14,1425,C1425FCF
-58.4125102733155,-34.592077618396,539,AMERICAN BIKES,2015,4U,1,VIA PUBLICA,COMERCIO AMIGO,"DIAZ, CNEL. AV.",1665,,Recoleta,Comuna 2,1425,C1425DQC
-58.4275389861481,-34.5883928321537,540,MARIANA DAPPIANO,2015,1U,1,VIA PUBLICA,COMERCIO AMIGO,GURRUCHAGA,1755,,Palermo,Comuna 14,1414,C1414DII
-58.4316246740734,-34.5889848095362,541,MUVIN,2015,4U,1,VIA PUBLICA,COMERCIO AMIGO,GORRITI,5051,,Palermo,Comuna 14,1414,C1414BJQ
-58.4022751208269,-34.589496852519,542,COMO ENCASA,2015,1U,1,VIA PUBLICA,COMERCIO AMIGO,LAPRIDA,1782,,Recoleta,Comuna 2,1425,C1425EKP
-58.394300319117,-34.5942919831123,543,COMO ENCASA,2015,1U,1,VIA PUBLICA,COMERCIO AMIGO,RIOBAMBA,1239,,Recoleta,Comuna 2,1116,C1116ABI
-58.3845953087167,-34.5926873915521,544,COMO ENCASA,2015,1U,1,VIA PUBLICA,COMERCIO AMIGO,"QUINTANA, MANUEL, PRES.",2,,Retiro,Comuna 1,1014,C1014ACN
-58.3741976067389,-34.5996868686332,545,PANI MICROCENTRO,2015,1U,1,VIA PUBLICA,COMERCIO AMIGO,VIAMONTE,501,,San Nicolas,Comuna 1,1053,C1053ABK
-58.4071166426563,-34.5774497274024,546,CASA CAVIA,2015,1U,1,VIA PUBLICA,COMERCIO AMIGO,CAVIA,2985,,Palermo,Comuna 14,1425,C1425DDA
-58.4402272470171,-34.6086906460437,547,RODADOS LA ESQUINA,2015,1U,4,VIA PUBLICA,COMERCIO AMIGO,DIAZ VELEZ AV.,5201,,Caballito,Comuna 6,1405,C1405DCH
-58.4305432059359,-34.6058334019918,548,EL GRAN MOSQUITO,2015,1U,1,VIA PUBLICA,COMERCIO AMIGO,"PERON, JUAN DOMINGO, TTE. GENERAL",4499,,Almagro,Comuna 5,1199,C1199ABG
-58.4966388544415,-34.6182208109486,549,CAFFERÃA COFEE SHOP,2015,1U,1,VIA PUBLICA,COMERCIO AMIGO,MERCEDES,0,"GONZALEZ, ELPIDIO",Monte Castro,Comuna 10,,
-58.4833012962655,-34.5726417314529,550,CROSSFIT,2015,1U,1,VIA PUBLICA,COMERCIO AMIGO,MONROE,4850,,Villa Urquiza,Comuna 12,1431,C1431CAJ
-58.4349356868272,-34.5907289624438,551,CENTRO SHIZENDO,2015,1U,1,VIA PUBLICA,COMERCIO AMIGO,THAMES,1227,,Palermo,Comuna 14,1414,C1414DCY
-58.4302797601815,-34.5976936929665,552,EMAD SEDE JUFRE,2015,1U,1,VÃŒA PUBLICA,EDIFICIO CULTURAL,JUFRE,141,,Villa Crespo,Comuna 15,1414,C1414AYC
-58.409872481453,-34.6029316839923,553,CONVENTILLO ABASTO,2015,1U,1,VIA PUBLICA,EDIFICIO CULTURAL,"ANCHORENA, TOMAS MANUEL DE, DR.",575,,Balvanera,Comuna 3,1170,C1170ACI
-58.4525798439875,-34.5637539703779,554,BIBLIOTECA LUGONES,2015,1U,1,VIA PUBLICA,EDIFICIO CULTURAL-BIBLIOTECAS,LA PAMPA,2215,,Belgrano,Comuna 13,1428,C1428EAM
-58.4503199751214,-34.5913423802955,555,BIBLIOTECA FERNANDEZ MORENO,2015,1U,1,VIA PUBLICA,EDIFICIO CULTURAL-BIBLIOTECAS,"ARENAL, CONCEPCION",4206,,Chacarita,Comuna 15,1427,C1427EKR
-58.5108098648988,-34.5993101396545,556,BIBLIOTECA DEVOTO,2015,1U,1,VIA PUBLICA,EDIFICIO CULTURAL-BIBLIOTECAS,BAHIA BLANCA,4025,,Villa Devoto,Comuna 11,1419,C1419BAI
-58.4237319436137,-34.5813701049831,557,BIBLIOTECA GUIDO Y SPANO,2015,1U,1,VIA PUBLICA,EDIFICIO CULTURAL-BIBLIOTECAS,GUEMES,4601,,Palermo,Comuna 14,1425,C1425BLI
-58.4316436864118,-34.5939516421072,558,ESCUELA MOTIVARTE,2015,4U,1,VIA PUBLICA,EDIFICIO CULTURAL-EMPRESA AMIGA,MALABIA,1141,,Villa Crespo,Comuna 15,1414,C1414DLW
-58.3859640840676,-34.5934476176526,559,BIBLIOTECA GUIRALDES,2015,1U,1,VIA PUBLICA,EDIFICIO CULTURAL-BIBLIOTECAS,TALCAHUANO,1261,,Retiro,Comuna 1,1014,C1014ADA
-58.3889880065208,-34.5995097773106,560,BIBLIOTECA GALVEZ,2015,1U,1,VIA PUBLICA,EDIFICIO CULTURAL-BIBLIOTECAS,CORDOBA AV.,1558,,San Nicolas,Comuna 1,1055,C1055AAS
-58.4298061840023,-34.5978786846283,561,CASA DE LECTURA,2018,1U,4,VIA PUBLICA,Comercio Amigo,LAVALLEJA,924,,Villa Crespo,Comuna 15,1414,C1414DTT
-58.5072451679964,-34.5685980063426,562,BIBLIOTECA SAAVEDRA,2015,1U,1,VIA PUBLICA,EDIFICIO CULTURAL-BIBLIOTECAS,"LARRALDE, CRISOLOGO AV.",6293,,Saavedra,Comuna 12,1431,C1431AQE
-58.3702206603604,-34.621890744461,564,MUSEO DE ARTE CONTEMPORANEO,2015,1U,1,VIA PUBLICA,EDIFICIO CULTURAL-MUSEOS,SAN JUAN AV.,328,,San Telmo,Comuna 1,1147,C1147AAO
-58.3773029102697,-34.5937090899073,565,CASA FOA (SIN INSTALAR. PRESTAMO),2015,4U,1,INTERIOR,EDIFICIO CULTURAL,BASAVILBASO,1233,,Retiro,Comuna 1,1006,C1006AAA
-58.3705193403343,-34.621905341965,566,MAMBA,2018,Lazo,3,VIA PUBLICA,AMS,SAN JUAN AV.,350,,San Telmo,Comuna 1,1147,C1147AAO
-58.3928815927799,-34.5833887109772,567,AAMNBA,2015,1U,1,INTERIOR,EDIFICIO CULTURAL,"FIGUEROA ALCORTA, PRES. AV.",2280,,Recoleta,Comuna 2,1425,C1425CKO
-58.3929033945194,-34.5833851176661,568,AAMNBA,2015,4U,1,INTERIOR,EDIFICIO CULTURAL-MUSEOS,"FIGUEROA ALCORTA, PRES. AV.",2280,,Recoleta,Comuna 2,1425,C1425CKO
-58.4004337190977,-34.5847317199342,569,HOSPITAL RIVADAVIA,2015,4U,2,INTERIOR,EDIFICIO PUBLICO-HOSPITALES,LAS HERAS GENERAL AV.,2670,,Recoleta,Comuna 2,1425,C1425ASQ
-58.4640228969361,-34.5537587350852,570,SEDE COMUNA 13,2015,4U,1,VIA PUBLICA,EDIFICIO PUBLICO,CABILDO AV.,3067,,NuÃ±ez,Comuna 13,1429,C1429AAB
-58.4131887611858,-34.6099976663148,571,SBASE,2015,1U,1,VIA PUBLICA,EDIFICIO PUBLICO,AGUERO,48,,Balvanera,Comuna 3,1171,C1171AAB
-58.4124297346712,-34.6075897239198,572,ESTADISTICAS Y CENSOS,2015,4U,1,VIA PUBLICA,EDIFICIO PUBLICO,"PERON, JUAN DOMINGO, TTE. GENERAL",3269,,Balvanera,Comuna 3,1198,C1198AAI
-58.3869693139137,-34.6334202995298,573,CENTRO CULTURAL DEL SUR,2015,4U,2,INTERIOR,EDIFICIO CULTURAL-MUSEOS,CASEROS AV.,1750,,Barracas,Comuna 4,1152,C1152ABN
-58.3660494722092,-34.6401210005601,574,CESAC 9,2015,4U,1,VIA PUBLICA,EDIFICIO PUBLICO,IRALA,1254,,La Boca,Comuna 4,1164,C1164ACD
-58.4257632068412,-34.5871898311302,575,CESAC 26,2015,4U,1,VIA PUBLICA,EDIFICIO PUBLICO,GURRUCHAGA,1939,,Palermo,Comuna 14,1414,C1414DIM
-58.3937916987996,-34.6413757374254,576,SAME,2015,4U,2,INTERIOR,EDIFICIO PUBLICO,"ALCORTA, AMANCIO AV.",0,MONASTERIO,Parque Patricios,Comuna 4,,
-58.4106405685306,-34.6429680141773,577,HTAL PENNA,2015,4U,1,VIA PUBLICA,EDIFICIO PUBLICO-HOSPITALES,"CHUTRO, PEDRO, PROF., DR.",3380,,Parque Patricios,Comuna 4,1437,C1437IYP
-58.4021609989158,-34.6253297413955,578,CESAC 45,2015,4U,1,VIA PUBLICA,EDIFICIO PUBLICO,COCHABAMBA,2622,,San Cristobal,Comuna 3,1252,C1252AAR
-58.4556024917582,-34.5613031891279,579,MUSEO ENRIQUE LARRETA,2019,1U,5,VIA PÃšBLICA,EDIFICIO PUBLICO-MUSEOS,JURAMENTO AV.,2291,,Belgrano,Comuna 13,1428,C1428DNK
-58.4306583400371,-34.5885481138181,580,MAYEP - DG RECICLADO,2015,1U,2,VIA PUBLICA,EDIFICIO PUBLICO,HONDURAS,5028,,Palermo,Comuna 14,1414,C1414BMR
-58.3849662665313,-34.6224521679981,581,ESTADISTICAS Y CENSOS,2015,1U,5,VIA PUBLICA,EDIFICIO PUBLICO,SAN JUAN AV.,1340,,Constitucion,Comuna 1,1148,C1148AAO
-58.3760333014376,-34.6056852101688,582,MINISTERIO PUBLICO FISCAL,2015,4U,1,INTERIOR,EDIFICIO PUBLICO,"PERON, JUAN DOMINGO, TTE. GENERAL",667,,San Nicolas,Comuna 1,1038,C1038AAM
-58.4273108892817,-34.6285056800191,583,ASI,2015,1U,2,VIA PUBLICA,EDIFICIO PUBLICO,ZUVIRIA,64,,Parque Chacabuco,Comuna 7,1424,C1424CKB
-58.3787004211431,-34.6415281941156,584,SUBSEDE COMUNA 4,2015,1U,3,VIA PUBLICA,EDIFICIO PUBLICO,SUAREZ AV.,2032,,Barracas,Comuna 4,1288,C1288AFD
-58.3915796948069,-34.5913186171166,585,COLEGIO DE ESCRIBANOS,2015,1U,1,VIA PUBLICA,EDIFICIO PUBLICO,CALLAO AV.,1542,,Recoleta,Comuna 2,1024,C1024AAO
-58.3977590221691,-34.5799963428814,586,EMBAJADA DE CANADA,2015,1U,3,VIA PUBLICA,EDIFICIO PUBLICO-EMBAJADAS,TAGLE,2828,,Palermo,Comuna 14,1425,C1425EEH
-58.3552311500384,-34.6293870352034,587,UNA,2015,1U,3,VIA PUBLICA,EDIFICIO PUBLICO-UNIVERSIDADES,DON PEDRO DE MENDOZA AV.,679,,La Boca,Comuna 4,1156,C1156ACG
-58.4293241656497,-34.5850127319446,588,HT CONTENIDOS,2015,4U,1,VIA PUBLICA,EMPRESA AMIGA,FRAY JUSTO SANTAMARIA DE ORO,0,NICARAGUA,Palermo,Comuna 14,,
-58.3883321614721,-34.6028578975553,589,WALL STREET ENGLISH,2015,1U,1,VIA PUBLICA,EMPRESA AMIGA,LAVALLE,1519,,San Nicolas,Comuna 1,1048,C1048AAK
-58.4112981713014,-34.5875751825774,590,WALL STREET ENGLISH,2015,1U,1,VIA PUBLICA,EMPRESA AMIGA,BULNES,2056,,Palermo,Comuna 14,1425,C1425DKJ
-58.4570158672921,-34.5620931847691,591,WALL STREET ENGLISH,2015,1U,1,VIA PUBLICA,EMPRESA AMIGA,JURAMENTO AV.,2421,,Belgrano,Comuna 13,1428,C1428DNO
-58.4944679404126,-34.6030020649202,592,WALL STREET ENGLISH,2015,1U,3,VIA PUBLICA,EMPRESA AMIGA,MELINCUE,3215,,Villa Del Parque,Comuna 11,1417,C1417FHG
-58.4327388888533,-34.5879726624302,593,RGA,2017,1U,2,VIA PUBLICA,Locales Amigos,URIARTE,1537,,Palermo,Comuna 14,1414,C1414DAO
-58.4052481350441,-34.5959099985496,594,RADIO MITRE,2015,1U,1,VIA PUBLICA,EMPRESA AMIGA,"MANSILLA, LUCIO NORBERTO, GENERAL",2668,,Recoleta,Comuna 2,1425,C1425BPD
-58.4015043523581,-34.5835608902291,595,FARMACITY,2015,1U,1,VIA PUBLICA,EMPRESA AMIGA,LAS HERAS GENERAL AV.,2845,,Palermo,Comuna 14,1425,C1425ASF
-58.4134569964406,-34.5911273427158,596,FARMACITY,2015,1U,1,VIA PUBLICA,EMPRESA AMIGA,REPUBLICA DOMINICANA,3358,,Palermo,Comuna 14,1425,C1425GKB
-58.4500049732638,-34.578722323641,597,FARMACITY,2015,1U,1,VIA PUBLICA,EMPRESA AMIGA,"LACROZE, FEDERICO AV.",3289,,Colegiales,Comuna 13,1426,C1426CQF
-58.4481686726242,-34.5816937818429,598,FARMACITY,2015,1U,1,VIA PUBLICA,EMPRESA AMIGA,ALVAREZ THOMAS AV.,284,,Chacarita,Comuna 15,1427,C1427CCP
-58.3925029901658,-34.5959568498516,599,FARMACITY,2015,1U,1,VIA PUBLICA,EMPRESA AMIGA,SANTA FE AV.,1740,,Recoleta,Comuna 2,1060,C1060ABQ
-58.3859539698754,-34.5957961752489,600,FARMACITY,2015,1U,1,VIA PUBLICA,EMPRESA AMIGA,SANTA FE AV.,1310,,Retiro,Comuna 1,1059,C1059ABU
-58.3983068836916,-34.5899624635717,601,FARMACITY,2015,1U,1,VIA PUBLICA,EMPRESA AMIGA,PEÃ‘A,2383,,Recoleta,Comuna 2,,
-58.4189658440662,-34.5940204039917,602,FARMACITY,2015,1U,1,VIA PUBLICA,EMPRESA AMIGA,HONDURAS AV.,3953,,Palermo,Comuna 14,1180,C1180ACE
-58.3902724180535,-34.5919576458118,603,FARMACITY,2015,1U,1,VIA PUBLICA,EMPRESA AMIGA,RODRIGUEZ PEÃ‘A,1572,,Recoleta,Comuna 2,,
-58.4301770354618,-34.6223430266346,604,ESCUELA DE JORNADA COMPLETA N11 DE 9,2015,4U,1,INTERIOR,ESCUELAS,"ALBERDI, JUAN BAUTISTA AV.",163,,Caballito,Comuna 6,1424,C1424BYB
-58.4470985182319,-34.6269761015742,605,ESCUELA DE JORNADA COMPLETA NÂº 03 D.E. 08,2015,1U,2,VÃŒA PUBLICA,ESCUELAS,PUAN,360,,Caballito,Comuna 6,1406,C1406CQH
-58.4393888231139,-34.6028397631205,606,ESC. DE COMERCIO NÂº 16 GABRIELA MISTRAL,2018,1U,2,VIA PUBLICA,Universidades - Colegios,"ALVAREZ, JULIAN",123,,Villa Crespo,Comuna 15,1414,C1414DRC
-58.4058888184529,-34.6413564193099,607,CICLO BASICO DE FORMACION OCUPACIONAL NÂ° 01 EVITA,2015,4U,1,INTERIOR,ESCUELAS,LOS PATOS,3080,,Parque Patricios,Comuna 4,1437,C1437JAJ
-58.492899536275,-34.5601137906177,608,ESCUELA TECNICA 36 POLO EDUCATIVO SAAVEDRA,2015,4U,2,INTERIOR,ESCUELAS,GALVAN,3710,,Saavedra,Comuna 12,1431,C1431FVX
-58.4307208505397,-34.6141940902496,609,ESCUELA DE EDUCACION MEDIA N1 DE 17,2015,4U,1,INTERIOR,ESCUELAS,YERBAL,25,,Caballito,Comuna 6,1405,C1405CDA
-58.3777043768229,-34.6075797328889,610,ESCUELA ESPECIAL DE FORMACION LABORAL N36,2015,1U,1,VÃŒA PUBLICA,ESCUELAS,ESMERALDA,55,,San Nicolas,Comuna 1,1035,C1035ABA
-58.5131327758458,-34.6068141650666,611,ESCUELA ESPECIAL Y DE FORMACION LABORAL N3 DE 17,2015,1U,2,VÃŒA PUBLICA,ESCUELAS,"BEIRO, FRANCISCO AV.",4418,,Villa Devoto,Comuna 11,1419,C1419HZT
-58.4774146302017,-34.5499640006202,612,PRIMARIA COMUN CORNELIO SAAVEDRA,2015,4U,1,INTERIOR,ESCUELAS,PINTO,3910,,Saavedra,Comuna 12,1429,C1429APP
-58.4423344460251,-34.5579550928226,613,ESCUELA DE RECUPERACION N9 DE 9,2015,4U,1,INTERIOR,ESCUELAS,LA PAMPA,1240,,Belgrano,Comuna 13,1428,C1428DYZ
-58.4913100628817,-34.5848085371585,614,ESCUELA 19 DE 16,2015,1U,2,VÃŒA PUBLICA,ESCUELAS,GAVILAN,4246,,Villa Pueyrredon,Comuna 12,1419,C1419ENP
-58.4734049902746,-34.5827946404603,615,ESCUELA PRIMARIA COMUN N5 ENRIQUE DE VEDIA,2015,1U,3,VÃŒA PUBLICA,ESCUELAS,COMBATIENTES DE MALVINAS AV.,3234,,Parque Chas,Comuna 15,1427,C1427ARP
-58.5000157668289,-34.5784367562718,616,ESCUELA ESPECIAL Y DE FORMACION LABORAL 21 DE 16 ROSARIO VERA PEÃ‘ALOZA,2015,1U,4,INTERIOR,ESCUELAS,OBISPO SAN ALBERTO,2379,,Villa Pueyrredon,Comuna 12,1419,C1419FEE
-58.4896698580408,-34.5715855311905,617,ESCUELA NI DE 15,2015,1U,2,VÃŒA PUBLICA,ESCUELAS,TRIUNVIRATO AV.,5101,,Villa Urquiza,Comuna 12,1431,C1431FCE
-58.4774146302017,-34.5499640006202,618,PRIMARIA COMUN CORNELIO SAAVEDRA,2015,4U,1,INTERIOR,ESCUELAS,PINTO,3910,,Saavedra,Comuna 12,1429,C1429APP
-58.3980096487602,-34.5995984094191,620,PLAZA HOUSSAY,2015,1U,10,INTERIOR,ESPACIOS VERDES,CORDOBA AV.,0,JUNIN,Balvanera,Comuna 3,,
-58.3938074835513,-34.637425129328,621,HOSPITAL MUÃ‘IZ,2015,4U,1,INTERIOR,HOSPITALES,USPALLATA,2272,,Parque Patricios,Comuna 4,1282,C1282AEN
-58.3718633030183,-34.6126530496547,622,FUNDACION PENSAR,2015,4U,1,INTERIOR,ORGANIZACION,DEFENSA,412,,Monserrat,Comuna 1,1065,C1065AAH
-58.4503015440316,-34.5578852872487,623,BARRIO CHINO,2015,1U,10,VIA PUBLICA,VIA PUBLICA,JURAMENTO,0,ARRIBEÃ‘OS,Belgrano,Comuna 13,,
-58.4625004755477,-34.6438270261011,624,ESTACION SAGUIER,2015,4U,2,VIA PUBLICA,SUBTE,LAFUENTE AV.,0,"PERON, EVA AV.",Flores,Comuna 7,,
-58.4570538986712,-34.5815997580413,625,ESCUELA METROPOLITANA DE ARTE DRAMATICO,2015,1U,3,VIA PUBLICA,EDIFICIO CULTURAL-EMPRESA AMIGA,FOREST AV.,933,,Chacarita,Comuna 15,1427,C1427CEG
-58.4964956854712,-34.6183599437288,626,CAFFERÃA COFEE SHOP,2015,1U,1,VIA PUBLICA,COMERCIO AMIGO,MERCEDES,0,"GONZALEZ, ELPIDIO",Monte Castro,Comuna 10,,
-58.4138171864621,-34.5809937011947,627,VIVA VICTORIA,2015,1U,1,VIA PUBLICA,EMPRESA AMIGA,REPUBLICA ARABE SIRIA,2982,,Palermo,Comuna 14,1425,C1425EYJ
-58.4426628090966,-34.583005922873,628,LABORATORIO MARTE,2017,1U,3,VIA PUBLICA,Locales Amigos,AREVALO,1473,,Palermo,Comuna 14,1414,C1414CQC
-58.46490535178,-34.6031287089104,629,RODADOS PATERNAL,2015,1U,1,VIA PUBLICA,EMPRESA AMIGA,"ALVAREZ, DONATO, TTE. GRAL. AV.",2090,,Villa Gral. Mitre,Comuna 11,1416,C1416BTW
-58.4327376616311,-34.6088554392038,630,NODARI,2015,1U,3,VIA PUBLICA,EMPRESA AMIGA,DIAZ VELEZ AV.,4686,,Caballito,Comuna 6,1405,C1405DCO
-58.4343795684003,-34.6241908899365,631,PINTA CONMIGO,2015,1U,2,VIA PUBLICA,EMPRESA AMIGA,"MORENO, JOSE MARIA AV.",488,,Caballito,Comuna 6,1424,C1424AAR
-58.3666543068136,-34.6203832854073,632,GLOBANT,2015,1U,4,VIA PUBLICA,EMPRESA AMIGA,HUMBERTO 1Â°,55,,San Telmo,Comuna 1,,
-58.4724387691433,-34.5437949644501,633,GLOBANT,2015,1U,1,VIA PUBLICA,EMPRESA AMIGA,CORREA,2425,,Saavedra,Comuna 12,1429,C1429DRM
-58.4396239833112,-34.5768099070778,634,LO DE COKI CANTINA CHIC,2015,1U,2,VIA PUBLICA,COMERCIO AMIGO,AMENABAR,93,,Palermo,Comuna 14,1426,C1426AIA
-58.4729805207941,-34.5655754711572,635,COGHLAN CLUB,2015,1U,4,VIA PUBLICA,EMPRESA AMIGA,WASHINGTON,2558,,Coghlan,Comuna 12,1430,C1430EUB
-58.4307327949943,-34.6071094188642,636,DOLCE AMARETTO,2015,1U,2,VIA PUBLICA,COMERCIO AMIGO,RIO DE JANEIRO,700,,Caballito,Comuna 6,1405,C1405CCJ
-58.416738891493,-34.6157886500644,637,EL BARUYO RESTO BAR,2015,1U,2,VIA PUBLICA,,BELGRANO AV.,3584,,Almagro,Comuna 5,1210,C1210AAQ
-58.4729100207076,-34.5755629691866,638,CAFE EL BOHEMIO,2015,1U,3,VIA PUBLICA,COMERCIO AMIGO,DONADO,1802,,Villa Urquiza,Comuna 12,1430,C1430DRJ
-58.4348505107982,-34.5685171247295,639,ZENTRA,2015,1U,1,VIA PUBLICA,EMPRESA AMIGA,ARCE,733,,Palermo,Comuna 14,1426,C1426BSK
-58.4043307717052,-34.5835795562661,640,ZENTRA,2015,1U,1,VIA PUBLICA,EMPRESA AMIGA,BILLINGHURST,2496,,Recoleta,Comuna 2,1425,C1425DTX
-58.5000654266282,-34.5906639770145,641,BARABA RESTO BAR,2015,1U,1,VIA PUBLICA,COMERCIO AMIGO,PAREJA,2997,,Villa Pueyrredon,Comuna 12,1419,C1419GTQ
-58.4254416974248,-34.589363590613,642,VITA,2015,1U,1,VIA PUBLICA,COMERCIO AMIGO,COSTA RICA,4522,,Palermo,Comuna 14,1414,C1414BSH
-58.3707373393541,-34.6082739688248,643,CASA ROSADA,2015,4U,1,INTERIOR,EDIFICIO PUBLICO,BALCARCE,50,,Monserrat,Comuna 1,1064,C1064AAB
-58.36914646087,-34.6064656670046,644,ESTACIONAMIENTO EMPLEADOS CASA ROSADA,2015,4U,2,INTERIOR,VIA PUBLICA,LA RABIDA (N) AV.,0,ROSALES AV.,San Nicolas,Comuna 1,,
-58.3760130573665,-34.6059009076221,645,MINISTERIO PUBLICO FISCAL DE LA NACION,2015,4U,1,VIA PUBLICA,EDIFICIO PUBLICO,"PERON, JUAN DOMINGO, TTE. GENERAL",668,,San Nicolas,Comuna 1,1038,C1038AAN
-58.3886649907155,-34.594531644533,646,PLAZA VICENTE LOPEZ,2015,4U,1,INTERIOR,ESPACIOS VERDES,PARANA,0,ARENALES,Recoleta,Comuna 2,,
-58.3701950341156,-34.6089162786428,647,MINISTERIO DE ECONOMIA DE LA NACION,2015,4U,2,INTERIOR,EDIFICIO PUBLICO,"YRIGOYEN, HIPOLITO AV.",250,,Monserrat,Comuna 1,1086,C1086AAB
-58.3601786679214,-34.6093223417734,648,DIRECCION GENERAL DE MUSEOS,2013,4U,2,VIA PUBLICA,EDIFICIOS PUBLICOS,AV. DE LOS ITALIANOS,851,,,,,
-58.3601543692839,-34.6093957117531,649,DIRECCION GENERAL DE MUSEOS,2012,4U,2,INTERIOR,EDIFICIOS PUBLICOS,AV. DE LOS ITALIANOS,851,,,,,
-58.370840292969,-34.6090197595384,650,LINEA A PLAZA DE MAYO,2011,4U,1,VIA PUBLICA,SUBTE,,0,,,,,
-58.4436227090863,-34.5421208045375,651,CIUDAD UNIVERSITARIA,2015,1U,68,INTERIOR,UNIVERSIDADES,,0,,,,,
-58.4620173181339,-34.6910201991032,652,ESC. PRIMARIA COMUN NÂ° 18 JORGE NEWBERY,2013,4U,1,VIA PUBLICA,ESCUELAS,ROCA CNEL AV,5970,,Villa Riachuelo,Comuna 8,1439,C1439DVW
-58.4629852354677,-34.6053417028413,653,Escuela Primaria NÂ°18 DE 7,2017,1U,3,VIA PUBLICA,ESCUELAS,MagariÃ±os Cervantes,1556,,Villa Gral. Mitre,Comuna 11,,
-58.4220729677581,-34.5874159952552,654,Escuela EducaciÃ³n Media NÂ°7 DE 9,2017,1U,3,VIA PUBLICA,ESCUELAS,Malabia,2148,,Palermo,Comuna 14,1425,C1425EZD
-58.4308216439918,-34.5918407076982,655,Centro Armenio,2017,1U,3,VIA PUBLICA,AMS,Armenia,1353,,Palermo,Comuna 14,1414,C1414DKC
-58.4318322812867,-34.5873668927979,656,Club-Restaurant Eros,2017,1U,2,VIA PUBLICA,AMS,Uriarte,1609,,Palermo,Comuna 14,1414,C1414DAQ
-58.4365660658583,-34.6007081559184,657,"Club ""V"" Bar",2017,1U,2,VIA PUBLICA,EDIFICIO CULTURAL,Corrientes,5008,,Villa Crespo,Comuna 15,1414,C1414AJQ
-58.3936431699324,-34.5889406203548,658,Village Recoleta,2014,4U,4,VIA PUBLICA,CINES Y TEATROS,Vicente LÃ³pez,2050,,Recoleta,Comuna 2,,
-58.4102685113282,-34.586685695283,659,Cinemark Palermo,2014,4U,2,Interior,CINES Y TEATROS,Beruti,3399,,Palermo,Comuna 14,1425,C1425BBQ
-58.4847085888807,-34.5848789780969,660,Dinamo,2014,4U,1,VIA PUBLICA,Comercio amigo,Altolaguirre,1584,,Parque Chas,Comuna 15,1431,C1431ECD
-58.4138850643111,-34.5853357659669,661,WellClub Arenales,2014,4U,1,VIA PUBLICA,Comercio amigo,Arenales,3674,,Palermo,Comuna 14,1425,C1425BEX
-58.4420122434208,-34.5822711155942,662,Cucina Paradiso,2014,1U,2,VIA PUBLICA,Comercio amigo,Arevalo,1538,,Palermo,Comuna 14,1414,C1414CQF
-58.4232012514369,-34.5866636476517,663,La Bladousse,2014,4U,1,VIA PUBLICA,Comercio amigo,Armenia,2150,,Palermo,Comuna 14,1425,C1425FBD
-58.4118608106343,-34.5910129032498,664,WellClub,2014,4U,1,VIA PUBLICA,Comercio amigo,Cnel Diaz,1750,,Palermo,Comuna 14,1425,C1425DQQ
-58.4067637386451,-34.5844830129103,665,WellClub,2014,4U,1,VIA PUBLICA,Comercio amigo,Cnel Diaz,2439,,Recoleta,Comuna 2,1425,C1425DQK
-58.4513859005131,-34.5813786633828,666,BMCycles,2014,4U,1,VIA PUBLICA,Comercio amigo,Federico lacroze,3584,,Chacarita,Comuna 15,1427,C1427EDN
-58.4741797476048,-34.6162783827745,667,BicicleterÃ­a Works,2014,4U,1,VIA PUBLICA,Comercio amigo,Juan B Justo,5502,,Villa Santa Rita,Comuna 11,1416,C1416DKW
-58.4757911080915,-34.6183057483664,668,Victorian Bikes,2014,4U,1,VIA PUBLICA,Comercio amigo,Nazca,1303,,Villa Santa Rita,Comuna 11,1416,C1416ASC
-58.4230521130871,-34.5895133813946,669,LibrerÃ­a Thesis,2014,4U,1,VIA PUBLICA,Comercio amigo,Scalabrini Ortiz,1828,,Palermo,Comuna 14,1414,C1414DOS
-58.4577197838941,-34.6403965407383,670,Farmacia,2014,4U,1,VIA PUBLICA,Comercio amigo,Varela Av,999,,Flores,Comuna 7,1406,C1406EKS
-58.4269711885606,-34.5881254304577,671,La JoyerÃ­a,2014,4U,1,VIA PUBLICA,Comercio amigo,Costa Rica,4693,,Palermo,Comuna 14,1414,C1414BSI
-58.4308945315143,-34.5855054004799,672,Sieben,2014,4U,1,VIA PUBLICA,Comercio amigo,Costa Rica,5179,,Palermo,Comuna 14,1414,C1414BSS
-58.4790703734584,-34.554911216548,673,Tedeatres,2014,4U,1,VIA PUBLICA,Comercio amigo,Crisologo Larralde,3609,,Saavedra,Comuna 12,1430,C1430AIE
-58.4284705657979,-34.5884346274771,674,Monoblock,0,4U,1,VIA PUBLICA,Comercio amigo,El Salvador,4833,,Palermo,Comuna 14,1414,C1414BPM
-58.4289653398665,-34.57781033464,675,MECA - La Casa del Ãrbol,2014,4U,1,VIA PUBLICA,Comercio amigo,Fitz Roy,2483,,Palermo,Comuna 14,1425,C1425FVG
-58.4323115982424,-34.5914017729782,676,Wood Market,2014,4U,1,VIA PUBLICA,Comercio amigo,Gurruchaga,1301,,Palermo,Comuna 14,1414,C1414DIA
-58.4291106790213,-34.5879511817808,677,Sullivans,2014,4U,1,VIA PUBLICA,Comercio amigo,Jorge Luis Borges,1702,,Palermo,Comuna 14,1414,C1414DGD
-58.4332313028687,-34.6229942580153,678,Organic Way,2014,4U,1,VIA PUBLICA,Comercio amigo,Juan Bautista Alberdi,400,,Caballito,Comuna 6,1424,C1424BYQ
-58.4309972044884,-34.5933271629416,679,Sixfeet,2014,4U,1,VIA PUBLICA,Comercio amigo,Malabia,1220,,Palermo,Comuna 14,1414,C1414DLZ
-58.4277472162325,-34.5860819382614,680,La mundana - Wedcompany,2014,4U,1,VIA PUBLICA,Comercio amigo,Nicaragua,4889,,Palermo,Comuna 14,1414,C1414BVK
-58.4310453255553,-34.586612707503,681,MÃ©todo de Rose,2014,1U,6,VIA PUBLICA,Locales Amigos,Fray SantamarÃ­a de Oro,1702,,Palermo,Comuna 14,,
-58.4196558751299,-34.588271151373,682,SalÃ³n Veracruz (peluquerÃ­a),2014,4U,1,VIA PUBLICA,Comercio amigo,Paraguay,4024,,Palermo,Comuna 14,1425,C1425BSF
-58.4266403611415,-34.5828949689009,683,BicicleterÃ­a Orense,2014,4U,1,VIA PUBLICA,Comercio amigo,Paraguay,4718,,Palermo,Comuna 14,1425,C1425BST
-58.4551437185411,-34.5542047375784,684,CafÃ© PastelerÃ­a,2014,4U,1,VIA PUBLICA,Comercio amigo,Roosevelt,1806,,Belgrano,Comuna 13,1428,C1428BNH
-58.4072074479817,-34.5790849731882,685,WellClub,2014,4U,1,VIA PUBLICA,Comercio amigo,Salguero,2863,,Palermo,Comuna 14,1425,C1425DEM
-58.4968593344491,-34.6113150569627,686,Venton SRL,2014,4U,1,VIA PUBLICA,CINES Y TEATROS,San NicolÃ¡s,2338,,Villa Del Parque,Comuna 11,,
-58.4285412024429,-34.5850407290329,687,Centro Sai Baba,2014,4U,1,VIA PUBLICA,Comercio amigo,Uriarte,1934,,Palermo,Comuna 14,1414,C1414DAX
-58.356995511718,-34.628089963604,688,Teatro de la Ribera y Museo Quinquela MartÃ­n,2014,4U,1,VIA PUBLICA,Comercio amigo,Pedro Mendoza,501,,La Boca,Comuna 4,1156,C1156ACF
-58.4087673450017,-34.6395436820381,689,Polideportivo Patricios,2014,4U,2,VIA PUBLICA,EDIFICIOS CULTURALES,Pepiri,135,,Parque Patricios,Comuna 4,1437,C1437EIC
-58.3691032594519,-34.6404256950263,690,Edificio PÃºblico,2014,4U,1,VIA PUBLICA,EDIFICIOS PÃšBLICOS,Regimiento Patricios,1142,,La Boca,Comuna 4,1265,C1265AER
-58.491990748441,-34.6217782184381,691,SubsecretarÃ­a de Deportes,2014,4U,1,VIA PUBLICA,EDIFICIOS PÃšBLICOS,Mercedes,1389,,Floresta,Comuna 10,1407,C1407AHY
-58.3805731722541,-34.6049637375167,692,Edifico de SST - TrÃ¡nsito (Inspecciones),2014,4U,1,VIA PUBLICA,EDIFICIOS PÃšBLICOS,Sarmiento,980,,San Nicolas,Comuna 1,1041,C1041AAT
-58.4547948645206,-34.6695467321033,693,Parque de la Ciudad,2014,4U,15,INTERIOR,ESPACIOS VERDES,FernÃ¡ndez de la Cruz,4052,,Villa Soldati,Comuna 8,,
-58.4368594295406,-34.6058955202665,694,Anfiteatro Parque Centenario,2014,4U,5,INTERIOR,ESPACIOS VERDES,Warnes,0,Angel gallardo,Caballito,Comuna 6,,
-58.4564555681333,-34.5296235402454,695,Parque de los NiÃ±os,2014,4U,3,INTERIOR,ESPACIOS VERDES,Lugones Av,0,Gral Paz,NuÃ±ez,Comuna 13,,
-58.4678709089584,-34.6645590588291,696,Parque Indoamericano,2014,4U,6,INTERIOR,ESPACIOS VERDES,CastaÃ±ares av,0,Escalada av,Villa Soldati,Comuna 8,,
-58.446715872819,-34.5473804023253,697,Universidad Di Tella,2014,4U,6,INTERIOR,UNIVERSIDADES,Av Figueroa Alcorta,7350,,Belgrano,Comuna 13,1428,C1428BCW
-58.3933378641503,-34.6040177800575,698,Pasaje DiscÃ©polo,2014,4U,4,VIA PUBLICA,VÃA PÃšBLICA,Av Corrientes,0,DiscÃ©polo,Balvanera,Comuna 3,,
-58.4106488872307,-34.5946168441065,699,Colegio Aletheia,2014,4U,1,VIA PUBLICA,VÃA PÃšBLICA,Gallo,1341,,Recoleta,Comuna 2,1425,C1425EFC
-58.4265123759529,-34.5870673471306,700,Colegio Amapola,2014,4U,1,VIA PUBLICA,VÃA PÃšBLICA,Nicaragua,4739,,Palermo,Comuna 14,1414,C1414BVI
-58.4660103877796,-34.5547388764391,701,Catering  Schuster,2016,1U,2,VIA PUBLICA,Comercio amigo,Amenabar,3075,,NuÃ±ez,Comuna 13,1429,C1429AEC
-58.410203407127,-34.5920425550597,702,La MÃ¡quina de Jugar,2016,1U,2,VIA PUBLICA,Comercio amigo,SÃ¡nchez de Bustamante,1645,,Recoleta,Comuna 2,,
-58.4312994661123,-34.5798568196733,703,Gimnasio Omnia,2016,1U,2,VIA PUBLICA,Comercio amigo,Fitz Roy,2261,,Palermo,Comuna 14,1425,C1425FVC
-58.4132450994262,-34.6047137945115,704,El Emergente,2016,1U,2,VIA PUBLICA,Comercio amigo,Gallo,333,,Balvanera,Comuna 3,1172,C1172ABG
-58.3739889806991,-34.6426268737042,705,Veiga Inmobiliaria,2018,1U,2,VIA PUBLICA,Comercio amigo,Montes de Oca,1237,,Barracas,Comuna 4,1270,C1270AAM
-58.4289434388419,-34.5854477223852,706,Radio POP 101.5,2016,1U,2,VIA PUBLICA,Comercio amigo,Uriarte,0,Nicaragua,Palermo,Comuna 14,,
-58.3738466790501,-34.6026955573037,707,Ministerio de Ambiente de NaciÃ³n,2016,1U,2,VIA PUBLICA,EDIFICIOS PÃšBLICOS,San MartÃ­n,451,,San Nicolas,Comuna 1,,
-58.3989398022133,-34.6413855694075,708,Registro Nacional de las Personas RENAPER,2016,1U,3,VIA PUBLICA,EDIFICIOS PÃšBLICOS,Pedro Chutro,2780,,Parque Patricios,Comuna 4,1437,C1437IYD
-58.4051122617528,-34.5832290070937,709,Base de Agentes de Ocampo,2016,1U,3,VIA PUBLICA,EDIFICIOS PÃšBLICOS,Ortiz de Ocampo,0,Las Heras,Palermo,Comuna 14,,
-58.3756352889749,-34.6229078803949,710,Base de Agentes,2016,1U,2,INTERIOR,EDIFICIOS PÃšBLICOS,Chacabuco,1261,,San Telmo,Comuna 1,1140,C1140AAA
-58.375516864714,-34.6070494030544,711,Juzgado CABA,2016,1U,2,VIA PUBLICA,EDIFICIOS PÃšBLICOS,Roque Saenz PeÃ±a,636,,San Nicolas,Comuna 1,,
-58.4097894043476,-34.5870023769631,712,Juzgado CABA,2016,1U,2,VIA PUBLICA,EDIFICIOS PÃšBLICOS,Beruti,3345,,Palermo,Comuna 14,1425,C1425BBQ
-58.3738282556429,-34.6095391145869,713,Juzgado CABA,2016,1U,2,VIA PUBLICA,EDIFICIOS PÃšBLICOS,Diag. Av. julio A. Roca,516,,Monserrat,Comuna 1,1067,C1067ABN
-58.3916451239524,-34.6093711063094,714,Anexo Congreso,2016,1U,6,VIA PUBLICA,EDIFICIOS PÃšBLICOS,Rivadavia Av,1684,,Monserrat,Comuna 1,1033,C1033AAT
-58.3825470250098,-34.5995684449372,715,Tribunal Superior de Justicia de la CABA,2016,4U,1,VIA PUBLICA,EDIFICIOS PÃšBLICOS,Cerrito,760,,San Nicolas,Comuna 1,1010,C1010AAP
-58.369881317752,-34.6289609390674,716,Palacio Lezama,2018,1U,39,INTERIOR,EDIFICIOS PÃšBLICOS,Av MartÃ­n GarcÃ­a,346,,La Boca,Comuna 4,,
-58.4150902426486,-34.6019039148968,717,Centro Cultural,2016,1U,2,VIA PUBLICA,EDIFICIOS CULTURALES,Guardia Vieja,0,Billinghurst,Almagro,Comuna 5,,
-58.4384735728774,-34.6190180608089,718,Colegio NÂº 17 Primera Junta,2017,1U,12,INTERIOR,Universidades - Colegios,Rivadavia,5161,,Caballito,Comuna 6,1424,C1424CEG
-58.3925817542222,-34.5830726228974,719,Facultad de Derecho (UBA),2018,1U,5,VIA PUBLICA,Edificio PÃºblico,Av. Pres. Figueroa Alcorta,2263,,Recoleta,Comuna 2,1425,C1425CKB
-58.4546413126199,-34.6233800362848,720,Patio de los Lecheros,2017,1U,8,INTERIOR,EDIFICIOS PÃšBLICOS,Donato Alvarez,0,Bacacay,Flores,Comuna 7,,
-58.3805447440623,-34.6269379566669,721,Centro Transbordo Constitucion,2017,1U,56,VIA PUBLICA,EDIFICIOS PÃšBLICOS,Lima,0,garay,Constitucion,Comuna 1,,
-58.4580716459234,-34.551673399152,722,Francis Platz,2017,1U,2,VIA PUBLICA,AMS,Quesada,1892,,NuÃ±ez,Comuna 13,1429,C1429CNH
-58.4133977428809,-34.5980536180266,723,BicicleterÃ­a Schisano Bikes,2017,1U,2,VIA PUBLICA,AMS,CÃ³rdoba,3300,,Almagro,Comuna 5,,
-58.4792430393407,-34.5671460978811,724,Escuela Siglo XXI,2017,1U,4,VIA PUBLICA,ESCUELAS VERDES,Pedro I. Rivera,4221,,Villa Urquiza,Comuna 12,1430,C1430BFG
-58.464866835617,-34.5537536513084,725,BicicleterÃ­a Zikle,2017,1U,1,VIA PUBLICA,AMS,Ibera,2418,,NuÃ±ez,Comuna 13,1429,C1429CMJ
-58.4463048716328,-34.5559207051881,726,Instituto San RomÃ¡n Padre Juan Carlos Marzolla Primario e Inicial,2017,1U,4,VIA PUBLICA,ESCUELAS,Juramento,1368,,Belgrano,Comuna 13,1428,C1428DMP
-58.4412417924789,-34.5865744619562,727,JardÃ­n Maternal NÂ°8 DE 9,2018,1U,2,VIA PUBLICA,Universidades - Colegios,Bonpland,1324,,Palermo,Comuna 14,1414,C1414CMN
-58.4459373388753,-34.6073817495774,728,Farmacity,2017,1U,1,VIA PUBLICA,AMS,Gaona,1101,,Caballito,Comuna 6,1405,C1405DKA
-58.4361321473544,-34.5823835309779,729,Urban Station,2017,1U,1,VIA PUBLICA,AMS,Bonpland,1823,,Palermo,Comuna 14,1414,C1414CMW
-58.4653272275942,-34.5579826062171,730,Al Aire Radio Bar,2017,1U,1,VIA PUBLICA,Locales Amigos,Manuel Ugarte,2789,,Belgrano,Comuna 13,1428,C1428BSQ
-58.4181606156533,-34.5955435514195,731,CafÃ© Vinilo,2017,1U,2,VIA PUBLICA,Locales Amigos,Gorriti,3780,,Palermo,Comuna 14,1172,C1172ACH
-58.4283526535378,-34.6260448071384,732,IntervenciÃ³n Bonifacio y Senillosa,2018,1U,4,VIA PUBLICA,Espacio PÃºblico,Bonifacio,0,Senillosa,Caballito,Comuna 6,,
-58.4507872443436,-34.5533002720034,733,Aretha,2017,1U,1,VIA PUBLICA,Comercio amigo,Del Libertador,6370,,Belgrano,Comuna 13,1428,C1428ART
-58.3732699498293,-34.6141507735154,734,TELAM,2017,1U,4,VIA PUBLICA,ORGANIZACION,BolÃ­var,531,,Monserrat,Comuna 1,,
-58.4060223256237,-34.642940254038,735,CheLA,2017,1U,2,VIA PUBLICA,AMS,IguazÃº,451,,Parque Patricios,Comuna 4,,
-58.4059863093094,-34.5990656396961,736,Universidad de Palermo,0,1U,3,VIA PUBLICA,UNIVERSIDADES,Ecuador,933,,Balvanera,Comuna 3,1214,C1214ACO
-58.4032437748903,-34.577917128963,737,Instituto San Martin de Tours,2017,1U,5,VIA PUBLICA,UNIVERSIDADES,Av Figueroa Alcorta,3380,,Palermo,Comuna 14,1425,C1425CKZ
-58.5193882475529,-34.6004793115973,738,Escuela NÂ°7 DE 16,2017,1U,2,VIA PUBLICA,ESCUELAS,Jose Cubas,4440,,Villa Devoto,Comuna 11,1419,C1419GON
-58.5246414846568,-34.6069889430273,739,JardÃ­n de Infantes Integral NÂ°3 DE 17,2017,1U,2,VIA PUBLICA,ESCUELAS,Salvador MarÃ­a del Carril,4935,,Villa Devoto,Comuna 11,,
-58.4960524236499,-34.5910120380412,740,Escuela NÂº 4 del Distrito Escolar 16,2017,1U,2,VIA PÃšBLICA,ESCUELAS,Terrada,3983,,Agronomia,Comuna 15,1419,C1419DKE
-58.4076148320075,-34.6053231640077,741,BicicleterÃ­a HobbymanÃ­a,2017,1U,1,VIA PUBLICA,Locales Amigos,ValentÃ­n GÃ³mez,2957,,Balvanera,Comuna 3,,
-58.5163312791154,-34.6101150404098,742,Viento Bikes Devoto,2017,1U,2,VIA PUBLICA,Locales Amigos,JosÃ© Pedro Varela,4735,,Villa Devoto,Comuna 11,,
-58.3923665258759,-34.6049026796367,743,Bar La Academia,2017,1U,1,VIA PUBLICA,Locales Amigos,Callao,368,,Balvanera,Comuna 3,1022,C1022AAQ
-58.4397805430068,-34.5873226901362,744,Casa SofÃ­a,2017,1U,2,VIA PUBLICA,EDIFICIOS CULTURALES,Fitz Roy,1327,,Palermo,Comuna 14,1414,C1414CHQ
-58.3813795382682,-34.593059077892,745,Casa Creativa del Sur,2017,1U,4,INTERIOR,EDIFICIOS CULTURALES,Carlos pellegrini,1285,,Retiro,Comuna 1,1009,C1009ABY
-58.4418106756238,-34.5829181401723,746,Remax,2017,1U,1,VIA PUBLICA,Locales Amigos,Cabrera,5953,,Palermo,Comuna 14,1414,C1414BHK
-58.4759943774938,-34.5826455080271,747,Artesano de SueÃ±os,2017,1U,2,VIA PUBLICA,HLR,De los Incas,4654,,Parque Chas,Comuna 15,1427,C1427DNY
-58.4653126118416,-34.5554856072923,748,Cruz Roja,2017,1U,1,VIA PUBLICA,Locales Amigos,Quesada,2602,,NuÃ±ez,Comuna 13,1429,C1429COP
-58.4733833501068,-34.6113854170678,749,Club Ciencia y Labor,2017,1U,2,VIA PUBLICA,GONZALO,Cesar Diaz,2453,,Villa Gral. Mitre,Comuna 11,1416,C1416DVU
-58.431612655354,-34.5951681331846,750,Motivarte,2017,1U,1,VIA PUBLICA,Locales Amigos,Av. Scalabrini Ortiz,966,,Villa Crespo,Comuna 15,1414,C1414DNW
-58.4284564868505,-34.5876721176738,751,Cabernet,2017,1U,1,VIA PUBLICA,Locales Amigos,Borges,1757,,Palermo,Comuna 14,1414,C1414DGC
-58.4486695737333,-34.5675785038253,752,Swiss Medical,2017,1U,3,VIA PUBLICA,Locales Amigos,Zabala,2336,,Palermo,Comuna 14,1426,C1426DQR
-58.406271598593,-34.5882022528697,753,Asoc. MÃ©dica HomeopÃ¡tica Argentina,2017,1U,2,VIA PUBLICA,Locales Amigos,Juncal,2884,,Recoleta,Comuna 2,1425,C1425AYJ
-58.4546522150544,-34.6842082454105,754,Parque Vial Roca,2017,1U,5,VIA PUBLICA,Locales Amigos,Av Cnel Roca,5252,,Villa Riachuelo,Comuna 8,1439,C1439DVN
-58.3728117214828,-34.6224094503254,755,Escuela Normal NÂº 3 Bernardino Rivadavia (Sede),2017,1U,5,VIA PUBLICA,ESCUELAS,Bolivar,1235,,San Telmo,Comuna 1,1141,C1141AAA
-58.4922299151027,-34.6233260678003,756,Biblioteca Hilario Ascasubi,2017,1U,2,VIA PUBLICA,EDIFICIOS PÃšBLICOS,CÃ©sar DÃ­az,4219,,Floresta,Comuna 10,,
-58.448748673883,-34.5614353532948,757,Biblioteca Reina Batata,2017,1U,2,VIA PUBLICA,EDIFICIOS PÃšBLICOS,11 de Septiembre de 1888,1801,,Belgrano,Comuna 13,1428,C1428AIA
-58.4226711635331,-34.5859496108201,758,Disco Cencosud,2018,1U,3,VIA PUBLICA,CENCOSUD,Paraguay,4302,,Palermo,Comuna 14,1425,C1425BSL
-58.4365417217812,-34.5655963003098,759,Disco Cencosud,2018,1U,4,VIA PUBLICA,CENCOSUD,Gorostiaga,1636,,Palermo,Comuna 14,1426,C1426CTD
-58.4708724466682,-34.5697498528469,760,Disco Cencosud,2018,1U,3,VIA PUBLICA,CENCOSUD,RÃ³mulo NaÃ³n,2142,,Villa Urquiza,Comuna 12,,
-58.5028662909868,-34.6004206339242,761,Disco Cencosud,2018,4U,1,VIA PUBLICA,CENCOSUD,BeirÃ³,3560,,Villa Del Parque,Comuna 11,,
-58.4107812733638,-34.5869892509336,762,Disco Cencosud,2018,1U,3,VIA PUBLICA,CENCOSUD,Bulnes,2117,,Palermo,Comuna 14,1425,C1425DKK
-58.3918314842716,-34.6133457530744,763,Disco Cencosud,2018,1U,2,VIA PUBLICA,CENCOSUD,Entre RÃ­os,361,,Balvanera,Comuna 3,,
-58.4453605229916,-34.629614792915,764,Disco Cencosud,2018,1U,5,VIA PUBLICA,CENCOSUD,Directorio,1251,,Caballito,Comuna 6,1406,C1406GZB
-58.4136021684919,-34.6221387982614,766,Ochava Virrey Liniers y EEUU,2018,1U,4,VIA PUBLICA,ESPACIO PÃšBLICO,Virrey liniers,0,ESTADOS UNIDOS,Boedo,Comuna 5,,
-58.3769317328493,-34.6352137276947,767,Sucursal Cablevision,2017,1U,4,VIA PÃšBLICA,Comercio Amigo,Gral. Hornos,650,,Barracas,Comuna 4,1272,C1272ACL
-58.3905897953042,-34.5843263306121,768,Smart City,2017,1U,6,VIA PÃšBLICA,Comercio Amigo,Figueroa Alcorta,0,Pueyrredon,Recoleta,Comuna 2,,
-58.4812807208439,-34.601493555581,769,Club Villa Sahores,2017,1U,5,VIA PÃšBLICA,Polideportivo,Santo TomÃ©,2496,,Villa Del Parque,Comuna 11,,
-58.3713110601743,-34.6404291278089,770,Metrogas,2017,1U,6,INTERIOR,Comercio Amigo,Araoz de Lamadrid,1360,,Barracas,Comuna 4,1267,C1267AAB
-58.4412340032576,-34.5660697149875,771,Colegio Washington School,2017,1U,3,VIA PÃšBLICA,Universidades - Colegios,Federico Lacroze,1973,,Palermo,Comuna 14,1426,C1426CPE
-58.431662666954,-34.5921199165933,772,Teatro TadrÃ³n,2017,1U,2,VIA PÃšBLICA,EDIFICIO CULTURAL,Niceto Vega,4802,,Palermo,Comuna 14,1414,C1414BEF
-58.3767386995711,-34.6126971616629,773,Jefatura de Gabinete de Ministros,2017,1U,10,VIA PÃšBLICA,Edificio PÃºblico,Av. Belgrano,737,,Monserrat,Comuna 1,1092,C1092AAH
-58.4757644260065,-34.6052537008441,774,Escuela NÂ°26 D.E 14,2017,1U,3,VIA PÃšBLICA,Universidades - Colegios,Caracas,2372,,Villa Del Parque,Comuna 11,1416,C1416AIX
-58.4651721621948,-34.5388294727802,775,Centro medico Belgrano SA,2017,1U,2,VIA PÃšBLICA,Hospitales - Centros de Salud,Av. Del Libertador,8334,,NuÃ±ez,Comuna 13,1429,C1429BNQ
-58.4293239397498,-34.5963881287266,776,Casting Club,2017,1U,2,VIA PÃšBLICA,Comercio Amigo,Julian Alvarez,1021,,Villa Crespo,Comuna 15,1414,C1414DRU
-58.3912332920245,-34.627800444467,777,Inst. de EnseÃ±anza Federico Froebel,2017,1U,2,VIA PÃšBLICA,Universidades - Colegios,Av. Entre Rios,1641,,Parque Patricios,Comuna 4,1133,C1133AAE
-58.4542309746559,-34.6320655073665,778,Centro medico Stamboulian,2017,1U,3,VIA PÃšBLICA,Hospitales - Centros de Salud,Av. Carabobo,443,,Flores,Comuna 7,1406,C1406DGE
-58.366593796313,-34.6184787889165,779,Direccion general de Alumbrado Publico,2017,1U,8,INTERIOR,Edificio PÃºblico,Huergo,949,,San Telmo,Comuna 1,1107,C1107AOJ
-58.4346707782032,-34.5971227328288,780,Centro medico Stamboulian,2018,1U,6,VIA PÃšBLICA,Hospitales - Centros de Salud,Av. Scalabrini Ortiz,690,,Villa Crespo,Comuna 15,1414,C1414DNT
-58.4651537817402,-34.6439519627878,781,Escuela NÂ°16,2017,1U,3,VIA PÃšBLICA,Universidades - Colegios,Primera Junta,3445,,Flores,Comuna 7,1406,C1406HLS
-58.4061983696323,-34.5780979620111,782,Colegio Bayard,2017,1U,2,VIA PÃšBLICA,Universidades - Colegios,Jeronimo Salguero,2969,,Palermo,Comuna 14,1425,C1425DFA
-58.3807476823696,-34.6046647248373,783,Ministerio de Salud,2019,1U,4,INTERIOR,Edificio PÃºblico,Carlos Pelegrini,313,,San Nicolas,Comuna 1,1009,C1009ABG
-58.4304970607627,-34.6240541954079,784,Ochavas Valle y Doblas,2018,1U,None,VIA PÃšBLICA,Espacio PÃºblico,Valle,0,Doblas,Caballito,Comuna 6,,
-58.4296041906859,-34.6207291487311,785,Ochavas Senillosa y Formosa,2018,1U,None,VIA PÃšBLICA,Espacio PÃºblico,SENILLOSA,0,FORMOSA,Caballito,Comuna 6,,
-58.4253866250691,-34.5857073921734,786,"Ochavas GUATEMALA y BORGES, JORGE LUIS",2018,1U,None,VIA PÃšBLICA,Espacio PÃºblico,GUATEMALA,0,"BORGES, JORGE LUIS",Palermo,Comuna 14,,
-58.4290545391026,-34.605085874604,787,Ochavas YATAY y BOGADO,2018,1U,None,VIA PÃšBLICA,Espacio PÃºblico,YATAY,0,BOGADO,Almagro,Comuna 5,,
-58.4130928750473,-34.6032951970907,788,Ochavas HUMAHUACA y GALLO,2018,1U,None,VIA PÃšBLICA,Espacio PÃºblico,HUMAHUACA,0,GALLO,Balvanera,Comuna 3,,
-58.4183295922595,-34.6046097662558,789,"Ochavas GOMEZ, VALENTIN y BULNES",2018,1U,None,VIA PÃšBLICA,Espacio PÃºblico,"GOMEZ, VALENTIN",0,BULNES,Almagro,Comuna 5,,
-58.4270196093919,-34.6013640755739,790,Ochavas Pringles y Humahuaca,2018,1U,None,VIA PÃšBLICA,Espacio PÃºblico,Pringles,0,Humahuaca,Almagro,Comuna 5,,
-58.4155784163521,-34.6027038615857,791,Ochava BILLINGHURST y HUMAHUACA,2018,1U,None,VIA PÃšBLICA,Espacio PÃºblico,BILLINGHURST,0,HUMAHUACA,Almagro,Comuna 5,,
-58.4148474690901,-34.5997096710402,792,Ochava BILLINGHURST y TUCUMAN,2018,1U,None,VIA PÃšBLICA,Espacio PÃºblico,BILLINGHURST,0,TUCUMAN,Almagro,Comuna 5,,
-58.4157756354112,-34.6049232127014,793,"Ochava BILLINGHURST y GOMEZ, VALENTIN",2018,1U,None,VIA PÃšBLICA,Edificio PÃºblico,BILLINGHURST,0,"GOMEZ, VALENTIN",Almagro,Comuna 5,,
-58.4540015012867,-34.5793842807955,794,Lord Bike,2018,1U,3,VIA PÃšBLICA,Comercio Amigo,ALVAREZ THOMAS AV.,853,,Colegiales,Comuna 13,1427,C1427CCI
-58.4536170678109,-34.5843862944167,795,Bar Palacio,2018,1U,2,VIA PÃšBLICA,Comercio Amigo,"LACROZE, FEDERICO AV.",3901,,Chacarita,Comuna 15,1427,C1427EDE
-58.395965476082,-34.5867270485562,796,Centro Valls,2018,1U,2,VIA PÃšBLICA,Hospitales - Centros de Salud,Pueyrredon,2322,,Recoleta,Comuna 2,1119,C1119ACT
-58.4262870563939,-34.5859574708701,797,Velas de la Ballena,2018,1U,3,VIA PÃšBLICA,Comercio Amigo,Soler,4802,,Palermo,Comuna 14,1425,C1425BXH
-58.3997116425931,-34.6339928586992,798,Despegar,2018,1U,5,VIA PÃšBLICA,Comercio Amigo,Av. Jujuy,2013,,Parque Patricios,Comuna 4,1247,C1247ABI
-58.4467045515273,-34.5580680386965,799,Stambullian,2018,1U,3,VIA PÃšBLICA,Hospitales - Centros de Salud,Av. Libertador,5868,,Belgrano,Comuna 13,1428,C1428ARO
-58.4063501634428,-34.5864437008202,800,Stambullian,2018,1U,2,VIA PÃšBLICA,Hospitales - Centros de Salud,French,3085,,Recoleta,Comuna 2,1425,C1425AWK
-58.4039937722636,-34.5851652953538,801,Stambullian,2018,1U,2,VIA PÃšBLICA,Hospitales - Centros de Salud,"PACHECO DE MELO, JOSE ANDRES",2941,,Recoleta,Comuna 2,1425,C1425AUK
-58.4322439761766,-34.5443603986676,802,Patio Costanera,2018,1U,3,VIA PÃšBLICA,Espacio PÃºblico,Av. Rafael Obligado,7010,,Belgrano,Comuna 13,1428,C1428EIW
-58.4484549434651,-34.5715668194402,803,Jaen DermoestÃ©tica,2018,1U,3,VIA PÃšBLICA,Comercio Amigo,Palpa,2655,,Colegiales,Comuna 13,1426,C1426DOG
-58.444845369316,-34.6363687878403,804,Pista Polideportivo Parque Chacabuco,2018,1U,5,VIA PÃšBLICA,Espacio PÃºblico,ASAMBLEA AV.,1441,,Parque Chacabuco,Comuna 7,1406,C1406HVE
-58.3771775892841,-34.6231796521858,805,Fortalecimiento de la Sociedad Civil,2018,1U,5,VIA PÃšBLICA,Edificio PÃºblico,Piedras,1281,,Constitucion,Comuna 1,1140,C1140ABA
-58.4783238178398,-34.5912130666884,806,Escuela Agronomia NÂ°22 D.E 14,2018,1U,13,INTERIOR,Universidades - Colegios,Av. De Los Constituyentes,3100,,Agronomia,Comuna 15,1427,C1427BLO
-58.4923683298628,-34.5741817875754,807,Instituto Saint Jean,2018,1U,3,VIA PÃšBLICA,Universidades - Colegios,Pedro Ignacio Rivera,5445,,Villa Urquiza,Comuna 12,1431,C1431BVS
-58.4743093809368,-34.6458859190049,808,Polideportivo Avellaneda,0,1U,10,INTERIOR,Polideportivo,Lacarra,1257,,Parque Avellaneda,Comuna 9,1407,C1407JQY
-58.5136218596422,-34.6465928374629,809,Polideportivo Santojanni,2018,1U,8,INTERIOR,Polideportivo,Patron,6222,,Liniers,Comuna 9,1408,C1408FAT
-58.4911398624094,-34.6226399216655,810,Polideportivo Pomar,2018,1U,6,VIA PÃšBLICA,Polideportivo,Mercedes,1300,,Floresta,Comuna 10,1407,C1407AHX
-58.5136690323069,-34.5945821217832,811,Polideportivo Onega,2018,1U,8,VIA PÃšBLICA/INTERIOR,Polideportivo,Gabriela Mistral,3819,,Villa Devoto,Comuna 11,1419,C1419GGI
-58.4438460210646,-34.5797811309075,812,Polideportivo Colegiales,2018,1U,7,INTERIOR,POLIDEPORTIVO,Gral RamÃ³n Freire,123,,Colegiales,Comuna 13,,
-58.435609764773,-34.5558428080985,813,Polideportivo Golf - Velodromo,2018,1U,2,INTERIOR,Polideportivo,Tornquist,6397,,Palermo,Comuna 14,1426,C1426CDA
-58.4769986601117,-34.5915435950647,814,Polideportivo Costa Rica,2018,1U,2,INTERIOR,Polideportivo,Av. De Los Constituyentes,3050,,Agronomia,Comuna 15,1427,C1427BLO
-58.3763912127553,-34.6381372531704,815,Polideportivo Don Pepe,2018,1U,10,INTERIOR,POLIDEPORTIVO,Hornos,0,Brandsen,Barracas,Comuna 4,,
-58.3893465415591,-34.6490244970479,816,Polideportivo Pereyra,2018,1U,3,INTERIOR,Polideportivo,Velez Sarsfield,1271,,Barracas,Comuna 4,1285,C1285AAB
-58.4886520793753,-34.6168064691573,818,Escuela para Jovenes y Adultos con discapacidad mental y formaciÃ³n integral NÂ°16 D.E 12,2018,1U,2,VIA PÃšBLICA,Universidades - Colegios,Camarones,3559,,Villa Santa Rita,Comuna 11,1407,C1407FME
-58.4330198451887,-34.6083566785118,819,JardÃ­n NÂ°1 D.E 7,2018,1U,4,VIA PÃšBLICA,Universidades - Colegios,Eduardo Acevedo,609,,Caballito,Comuna 6,1405,C1405BVI
-58.3690692811605,-34.6014653472649,820,Subsecretaria de Transporte de NaciÃ³n,2018,1U,4,INTERIOR,Edificio PÃºblico,Bouchard,547,,San Nicolas,Comuna 1,1106,C1106ABG
-58.4097704272448,-34.6212714451138,821,Escuela Primaria Comun NÂ° 15,2018,1U,2,INTERIOR,Universidades - Colegios,Estados Unidos,3141,,San Cristobal,Comuna 3,1228,C1228ABC
-58.3732783400575,-34.6118614879888,822,Escuela Politecnica Manuel Belgrano D.E 04,2018,1U,3,INTERIOR,Universidades - Colegios,Bolivar,346,,Monserrat,Comuna 1,1066,C1066AAH
-58.3849476803419,-34.5955291112732,823,QA Elepants,2018,1U,1,VIA PÃšBLICA,Comercio Amigo,Av. Santa FÃ©,1245,,Retiro,Comuna 1,,
-58.4575777568892,-34.6459032002037,824,EPC NÂ°04 Benjamin Zorrilla,2018,1U,3,INTERIOR,Universidades - Colegios,Av. San Pedrito,1415,,Flores,Comuna 7,1406,C1406EYB
-58.5013607511397,-34.6170369298605,825,Club Barrial,2018,1U,3,VIA PÃšBLICA,Universidades - Colegios,Sanabria,2125,,Monte Castro,Comuna 10,1417,C1417AZA
-58.4962360777687,-34.6171153692534,826,Laboral NÂ°29 D.E.18,2018,1U,3,INTERIOR,Universidades - Colegios,Av. Chivilcoy,1820,,Monte Castro,Comuna 10,1407,C1407AFJ
-58.4539046954738,-34.5514944244154,827,Colegio Oxford,2018,1U,7,VIA PÃšBLICA,Universidades - Colegios,MontaÃ±eses,2759,,Belgrano,Comuna 13,,
-58.4650473696567,-34.5614141317489,828,Crossfit Fortia,2018,1U,2,VIA PÃšBLICA,Universidades - Colegios,Monroe,2950,,Belgrano,Comuna 13,1428,C1428BLX
-58.4529478272545,-34.5758864918045,829,CompaÃ±Ã­a de Maria,2018,1U,4,VIA PÃšBLICA,Universidades - Colegios,Cespedes,3172,,Colegiales,Comuna 13,1426,C1426DVF
-58.4322578972352,-34.5859252976889,830,Area Tres,2018,1U,8,VIA PÃšBLICA,Comercio Amigo,El Salvador,5218,,Palermo,Comuna 14,1414,C1414BPV
-58.4387822949391,-34.5838159549444,831,Jardin De Infantes Nucleado B,2018,1U,2,VIA PÃšBLICA,Universidades - Colegios,Gorriti,5744,,Palermo,Comuna 14,1414,C1414BKH
-58.4488502403696,-34.6064115115076,832,Escuela Primaria NÂ°7,2018,1U,5,INTERIOR,Universidades - Colegios,Cnel. Apolinario Figueroa,661,,Villa Crespo,Comuna 15,1416,C1416DPC
-58.3867570795704,-34.5788857503416,833,Barrio 31,2018,1U,4,VIA PÃšBLICA,Espacio PÃºblico,Calle 7,0,calle 12,Retiro,Comuna 1,,
-58.3702994471526,-34.6216784648234,834,Escuela Hipolito Yrigoyen,2018,1U,2,VIA PÃšBLICA,Universidades - Colegios,Av. San Juan,353,,San Telmo,Comuna 1,1147,C1147AAB
-58.3765518163803,-34.6253320661092,835,Escuela Integral Interdisciplinaria NÂ°03 D.E 03,2018,1U,2,INTERIOR,Universidades - Colegios,Piedras,1430,,San Telmo,Comuna 1,1140,C1140ABF
-58.4089302085967,-34.6260409014431,836,Polideportivo Martin Fierro,2018,1U,12,INTERIOR,Polideportivo,Oruro,1300,,San Cristobal,Comuna 3,1243,C1243ADB
-58.4046778642102,-34.6123204036637,837,Centro Cultural (FICYNA),2018,1U,3,VIA PÃšBLICA,,Adolfo Alsina,2725,,Balvanera,Comuna 3,1090,C1090AAS
-58.3867254034187,-34.6035862810029,838,Procuracion General,2018,1U,5,VIA PÃšBLICA,Edificio PÃºblico,Uruguay,442,,San Nicolas,Comuna 1,1015,C1015ABJ
-58.4787145706296,-34.5645162694744,839,Escuela NÂ°15 - Acevedo,2018,1U,7,VIA PÃšBLICA,Universidades - Colegios,Tronador,2861,,Coghlan,Comuna 12,1430,C1430DLE
-58.4058323662183,-34.5835961913721,840,Academia Nacional de Medicina de Buenos Aires,2018,1U,6,VIA PÃšBLICA,Edificio PÃºblico,Av. Gral Las Heras,3092,,Recoleta,Comuna 2,1425,C1425ASU
-58.4082307216742,-34.6077418608286,841,Agencia Gubernamental de Control (AGC),2018,1U,10,INTERIOR,Edificio PÃºblico,TTE. GENERAL/PERON,2933,,Balvanera,Comuna 3,1198,C1198AAC
-58.4301831004347,-34.6223047135139,842,Esc. Primaria Comun NÂ°11 Pres. Marcelo T. de Alvear,2018,1U,2,INTERIOR,Universidades - Colegios,Av. Juan B. Alberdi,163,,Caballito,Comuna 6,1424,C1424BYB
-58.4350789443576,-34.6220539037527,843,Liceo NÂ°12. Fray Mamerto Esquiu,2018,1U,11,VIA PÃšBLICA/INTERIOR,Universidades - Colegios,Av. Jose M. Moreno,345,,Caballito,Comuna 6,1424,C1424AAD
-58.3543795941477,-34.632099255264,844,Arenas Studios,2018,1U,9,INTERIOR,AMS,Avenida Don Pedro de Mendoza,965,,La Boca,Comuna 4,1156,C1156ACJ
-58.4019258286934,-34.5804997285391,845,Casa Victoria Ocampo,2018,1U,3,INTERIOR,AMS,Rufino de Elizalde,2831,,Palermo,Comuna 14,1425,C1425CBA
-58.4280585880698,-34.5941948084592,846,Origen Cowork,2018,1,3,VIA PÃšBLICA,AMS,Araoz,1201,,Palermo,Comuna 14,1414,C1414DPY
-58.4422173211453,-34.6065166732429,847,Heltronics,2018,1U,2,VIA PÃšBLICA,Expediente,Av. Angel Gallardo,848,,Caballito,Comuna 6,1405,C1405DJV
-58.4890476762742,-34.5618990288749,848,La Usina Pilates,2018,1U,3,VIA PÃšBLICA,Locales Amigos,Miller,3500,,Villa Urquiza,Comuna 12,1431,C1431GER
-58.4258226532619,-34.5898241261738,849,Area Tres,2018,1U,3,INTERIOR,AMS,Malabia,1720,,Palermo,Comuna 14,1414,C1414DMJ
-58.3765023978971,-34.6120257372168,850,Vialidad Nacional,2018,1,11,VIA PÃšBLICA/INTERIOR,AMS,Av. Julio Roca,738,,Monserrat,Comuna 1,1067,C1067ABP
-58.3797385156213,-34.5997359742754,851,Hospital Britanico,2018,Lazo,2,VIA PÃšBLICA,AMS,Suipacha,732,,San Nicolas,Comuna 1,1008,C1008AAP
-58.3875170755602,-34.6335315086057,852,Hospital Britanico,2018,1U,5,VIA PÃšBLICA,AMS,Av. Caseros,1828,,Barracas,Comuna 4,1152,C1152ABO
-58.4050341631523,-34.6412217082706,853,Escuela Infantil NÂ°11,2018,1U,2,INTERIOR,Universidades - Colegios,Los Patos,3004,,Parque Patricios,Comuna 4,1437,C1437JAJ
-58.3878050030024,-34.6223985726863,854,Colegio Bernardino Rivadavia,2018,1U,2,VIA PÃšBLICA,Universidades - Colegios,Av. San Juan,1545,,Constitucion,Comuna 1,1148,C1148AAD
-58.3882568287122,-34.6212999064959,855,Escuela Agustin Alvarez,2018,1,2,VIA PÃšBLICA,Universidades - Colegios,Humberto Primo,1573,,Constitucion,Comuna 1,1103,C1103ADE
-58.4240623120572,-34.6291617032712,856,Biosidus,2018,1U,8,Via Publica,AMS,Constitucion,4234,,Boedo,Comuna 5,1254,C1254ABX
-58.4297849134922,-34.5889014214874,857,Honduras y Serrano,2018,1,5,VIA PÃšBLICA,AMS,Honduras,4999,,Palermo,Comuna 14,1414,C1414BMO
-58.416115508042,-34.5986756035696,858,El Tinglado,2018,1U,3,VIA PÃšBLICA,Centro Cultural Abasto,Mario Bravo,948,,Almagro,Comuna 5,1175,C1175ABR
-58.412788217091,-34.6027758825542,859,Centro Cultural Colombo,2018,1U,2,VIA PÃšBLICA,Centro Cultural Abasto,Gallo,557,,Balvanera,Comuna 3,1172,C1172ABK
-58.417281436395,-34.6022177920676,860,Espacio CallejÃ³n,2018,1U,1,VIA PÃšBLICA,Centro Cultural Abasto,Humahuaca,3759,,Almagro,Comuna 5,1191,C1191ABI
-58.4161054606131,-34.5985282374104,862,El Camarin de las Musas,2018,1U,3,VIA PÃšBLICA,Centro Cultural Abasto,Mario Bravo,960,,Almagro,Comuna 5,1175,C1175ABR
-58.4578175604011,-34.5626235786244,863,Mercado de San Nicolas,2018,1U,4,VIA PÃšBLICA,AMS,Juramento,2501,,Belgrano,Comuna 13,1428,C1428DNQ
-58.4378413640293,-34.5837009791302,864,Mercado de San Nicolas,2018,1,4,VIA PÃšBLICA,AMS,Bonpland,1660,,Palermo,Comuna 14,1414,C1414CMT
-58.4448473637785,-34.5747401015626,865,Plaza Colegiales,2018,1U,5,VIA PÃšBLICA,AMS,Cramer,475,,Colegiales,Comuna 13,1426,C1426ANI
-58.3756440125928,-34.6229078866209,866,Agentes de Transito. Base Piedras,2019,1U,2,INTERIOR,Edificio PÃºblico,Chacabuco,1261,,San Telmo,Comuna 1,1140,C1140AAA
-58.375641018904,-34.6500955841558,867,Centro de Formacion Profesional,2018,1U,12,VIA PÃšBLICA,AMS,Rio Cuarto,1993,,Barracas,Comuna 4,1292,C1292AAM
-58.4581292163328,-34.5749343196981,868,Bicicleteria De Felice,2018,1U,5,VIA PÃšBLICA,Comercio Amigo,Superi,1300,,Colegiales,Comuna 13,1426,C1426BAD
-58.3805824532543,-34.6076092043116,869,Provincia Seguros,2018,1U,3,VIA PÃšBLICA,,Carlos Pelegrini,71,,San Nicolas,Comuna 1,1009,C1009ABA
-58.3651461468069,-34.5986125980839,870,Seguros Sura,2018,1U,8,VIA PÃšBLICA,AMS,Olga cossettini,0,grierson y olga cossettini,Puerto Madero,Comuna 1,,
-58.3658228888661,-34.5986849812396,871,Seguros Sura,2018,Lazo,5,VIA PÃšBLICA,AMS,Pierina Dealessi y grierson,0,grierson,Retiro,Comuna 1,,
-58.4107973807437,-34.5944899999124,872,Hospital Gutierrez,2018,1U,14,INTERIOR,Hospitales - Centros de Salud,gallo,1330,,Recoleta,Comuna 2,1425,C1425EFD
-58.3604311903745,-34.6295566628657,873,Museo del Cine,2018,1U,5,INTERIOR,AMS,Ministro Brin,615,,La Boca,Comuna 4,1158,C1158AAE
-58.4130197957501,-34.6052202957474,874,El Extranjero,2018,1U,2,VIA PÃšBLICA,Centro Cultural Abasto,Valentin Gomez,3378,,Balvanera,Comuna 3,1191,C1191AAL
-58.4168644494931,-34.6049074136926,875,Archibrazo,2018,1U,1,VIA PÃšBLICA,Centro Cultural Abasto,Mario Bravo,441,,Almagro,Comuna 5,1175,C1175ABG
-58.4630999939222,-34.6115917424819,876,Escuela Leopoldo Marechal NÂ°13 D.E 7,2018,1U,6,VIA PÃšBLICA,Universidades - Colegios,Galicia,1857,,Villa Gral. Mitre,Comuna 11,1416,C1416DHA
-58.4820964970954,-34.6118832661369,877,Escuela 7 D.E 12,2018,1U,7,VIA PÃšBLICA,Universidades - Colegios,San Blas,2962,,Villa Santa Rita,Comuna 11,1416,C1416EGB
-58.510208534094,-34.5794826170107,878,Escuela Rodolfo Walsh EEM NÂ°1 D.E 16,2018,1U,5,VIA PÃšBLICA,Universidades - Colegios,Argerich,5651,,Villa Pueyrredon,Comuna 12,1419,C1419DCC
-58.4478660551618,-34.5949847447697,879,Estudio UV,2018,1U,5,VIA PÃšBLICA,,Humboldt,401,,Villa Crespo,Comuna 15,1414,C1414CSI
-58.3705022132446,-34.614986161185,880,Edificio Central Anses,2018,1U,5,INTERIOR,AMS,Balcarce,610,,Monserrat,Comuna 1,1064,C1064AAN
-58.3871259019091,-34.612292597488,881,Edificio Central Anses,2018,1U,4,INTERIOR,AMS,Moreno,1473,,Monserrat,Comuna 1,1093,C1093ABA
-58.3720212173496,-34.6120967422785,882,Edificio Central Anses,2018,1U,2,INTERIOR,AMS,Defensa,363,,Monserrat,Comuna 1,1065,C1065AAE
-58.3732518868402,-34.6114403520962,883,Sucursal Itau,2018,1U,2,VIA PÃšBLICA,AMS,Moreno,498,,Monserrat,Comuna 1,1091,C1091AAJ
-58.3897476719091,-34.6006291371667,884,Sucursal Itau,2018,1U,3,VIA PÃšBLICA,AMS,Viamonte,1601,,San Nicolas,Comuna 1,1055,C1055ABE
-58.3860051037782,-34.6028531466216,885,Sucursal Itau,2018,1U,2,VIA PÃšBLICA,AMS,Lavalle,1354,,San Nicolas,Comuna 1,1048,C1048AAH
-58.3788635157516,-34.5949812859625,886,Sucursal Itau,2018,1U,2,VIA PÃšBLICA,AMS,Av. Santa FÃ©,831,,Retiro,Comuna 1,,
-58.4135339757986,-34.598729930091,887,El Porton de Sanchez,2019,1U,2,VIA PÃšBLICA,Centro Cultural Abasto,Sanchez de Bustamante,1034,,Almagro,Comuna 5,1173,C1173ABT
-58.4179862381572,-34.6010072360917,888,La Huella,2019,1U,6,VIA PÃšBLICA,Centro Cultural Abasto,Guardia Vieja,3802,,Almagro,Comuna 5,1192,C1192AAL
-58.4104622148671,-34.6066138809495,889,Centro Cultural Konex,2019,1U,4,VIA PÃšBLICA,Centro Cultural Abasto,Sarmiento,3131,,Balvanera,Comuna 3,1196,C1196AAG
-58.3697038890674,-34.6116920402627,890,Edificio Central Anses,2019,1U,3,INTERIOR,AMS,Paseo ColÃ³n,329,,Monserrat,Comuna 1,,
-58.3878504017054,-34.6036107788171,891,Edificio Central Anses,2019,1U,3,INTERIOR,AMS,ParanÃ¡,451,,San Nicolas,Comuna 1,,
-58.3761710832156,-34.6135666051388,892,Edificio Central Anses,2019,1U,1,INTERIOR,AMS,Chacabuco,467,,Monserrat,Comuna 1,1069,C1069AAI
-58.4628283750564,-34.6324996769758,893,Universidad Uflo,2019,1U,4,VIA PÃšBLICA,AMS,Pedernera,275,,Flores,Comuna 7,1406,C1406EEE
-58.4626559450072,-34.6326016893984,894,Universidad Uflo,2019,1U,2,VIA PÃšBLICA,AMS,Pedernera,288,,Flores,Comuna 7,1406,C1406EEF
-58.43186999609,-34.6161566861248,895,Sucursal Itau,2019,1U,2,VIA PÃšBLICA,AMS,Av. Rivadavia,4715,,Caballito,Comuna 6,1424,C1424CEC
-58.4649139451054,-34.6296307906518,896,Sucursal Itau,2019,1U,1,VIA PÃšBLICA,AMS,Av. Rivadavia,7060,,Flores,Comuna 7,1406,C1406GMN
-58.4088676953732,-34.6404583072131,897,Patio de los Lecheros,2019,1U,5,INTERIOR,Espacio PÃºblico,Uspallata,0,PepirÃ­,Parque Patricios,Comuna 4,,
-58.3678663702074,-34.6123527275202,898,Paseo de Bajo,2019,Lazo,4,VIA PÃšBLICA,Espacio PÃºblico,Azopardo,0,Av. Belgrano,Monserrat,Comuna 1,,
-58.4117491862577,-34.5720016544109,899,Rosedal de Palermo,2019,1U,4,VIA PÃšBLICA,AMS,Av. Sarmiento,0,Figueroa Alcorta,Palermo,Comuna 14,,
-58.4684109338963,-34.5489220199008,900,Sucursal Itau,2019,1,2,VIA PÃšBLICA,AMS,Av. Cabildo,3702,,Saavedra,Comuna 12,1429,C1429AAV
-58.4583280658065,-34.5713999764534,901,Sucursal Itau,2019,1,1,VIA PÃšBLICA,Comunas de BA Elige,Elcano,3034,,Colegiales,Comuna 13,1426,C1426EJO
-58.4456478698405,-34.5588236263967,902,Sucursal Itau,2019,1,1,VIA PÃšBLICA,Comunas de BA Elige,Av. Libertador,5767,,Belgrano,Comuna 13,1428,C1428ARA
-58.4156521038755,-34.5848850746539,903,Sucursal Itau,2019,1,1,VIA PÃšBLICA,Comunas de BA Elige,Av. Scalabrini Ortiz,2524,,Palermo,Comuna 14,1425,C1425DBT
-58.411753745722,-34.5877944964027,904,Sucursal Itau,2019,1,1,VIA PÃšBLICA,Comunas de BA Elige,Av. Santa FÃ©,3315,,Palermo,Comuna 14,,
-58.4106090288013,-34.5796727311498,905,Sucursal Itau,2019,1,1,VIA PÃšBLICA,Comunas de BA Elige,Av. CerviÃ±o,3654,,Palermo,Comuna 14,,
-58.4076015284936,-34.6004583432154,906,La Carpinteria,2019,1U,1,VIA PÃšBLICA,Centro Cultural Abasto,Jean Jaures,858,,Balvanera,Comuna 3,1215,C1215ACP
-58.387813694145,-34.600693743425,907,Errepar,2019,1,2,VIA PÃšBLICA,Expediente,Viamonte,1484,,San Nicolas,Comuna 1,1055,C1055ABB
-58.4360358413807,-34.6188326904688,908,Bazar. Comercio,2019,1,2,VIA PÃšBLICA,Expediente,JosÃ© M. Moreno,46,,Caballito,Comuna 6,,
-58.4436625685966,-34.5869367723203,909,Etaba. Escuela de Tecnica Alexander,2019,1,3,VIA PÃšBLICA,Expediente,Angel Justiniano Carranza,1190,,Chacarita,Comuna 15,1414,C1414COF
-58.44631940335,-34.6224636819204,910,Uflo,2019,1,2,INTERIOR,AMS,Av. Rivadavia,5741,,Caballito,Comuna 6,1406,C1406GLA
-58.4482779764988,-34.6150241949702,911,Museo de las Esculturas,2019,1,3,VIA PÃšBLICA,AMS,Pujol,644,,Caballito,Comuna 6,1405,C1405ALD
-58.4521012395629,-34.5988151587166,912,Warnes Dodge SRL,2019,1,2,VIA PÃšBLICA,Comercio Amigo,Warnes,1143,,Villa Crespo,Comuna 15,1414,C1414AAL
-58.4088591838813,-34.601782784024,913,El Cubo,2019,1,5,VIA PÃšBLICA,Centro Cultural Abasto,Zelaya,3053,,Balvanera,Comuna 3,1171,C1171ADA
-58.4150102076133,-34.6019271436141,914,Jungla Centro Cultural,2019,1,2,VIA PÃšBLICA,Centro Cultural Abasto,Guardia Vieja,3580,,Almagro,Comuna 5,1192,C1192AAF
-58.4167373570602,-34.6157778194921,915,El Baruyo (Multiespacio Cultural),2019,1,3,VIA PÃšBLICA,Centro Cultural,Av. Belgrano,3584,,Almagro,Comuna 5,1210,C1210AAQ
-58.414788753139,-34.6249657616763,916,La Minga Club Cultural,2019,1,4,VIA PÃšBLICA,Centro Cultural,Maza,1165,,Boedo,Comuna 5,1220,C1220ABM
-58.4263996383344,-34.5861753422734,917,Teatro Ciego,2019,1,2,VIA PÃšBLICA,Centro Cultural,Jorge Luis Borges,1976,,Palermo,Comuna 14,1414,C1414DGH
-58.4324045093584,-34.5968553328493,918,La Gran Jaime,2019,1,2,VIA PÃšBLICA,Centro Cultural,Araoz,832,,Villa Crespo,Comuna 15,1414,C1414DPR
-58.4955923743118,-34.5522761712526,919,Fuego Bike,2019,1,2,VIA PÃšBLICA,AMS,Miller,4607,,Saavedra,Comuna 12,1430,C1430EAI
-58.3771546517309,-34.5989702095873,920,Anses Central,2019,1U,11,INTERIOR,Edificio PÃºblico,Av. Cordoba,720,,San Nicolas,Comuna 1,1054,C1054AAT
-58.3830072905752,-34.5992076193687,921,UDAI Centro,2019,1,1,VIA PÃšBLICA,Edificio PÃºblico,Av. Cordoba,1118,,San Nicolas,Comuna 1,1055,C1055AAO
-58.4028021556171,-34.6207054843179,922,UDAI San Cristobal,2019,1U,1,VIA PÃšBLICA,,Jujuy,966,,San Cristobal,Comuna 3,1229,C1229ABR
-58.3696201032397,-34.6384821918624,923,UDAI Barracas,2019,1,2,VIA PÃšBLICA,Edificio PÃºblico,Regimiento de Patricios,937,,Barracas,Comuna 4,1265,C1265AEC
-58.4058586149019,-34.6356799472416,924,UDAI Parque Patricios,2019,1U,2,VIA PÃšBLICA,Edificio PÃºblico,La Rioja,2079,,Parque Patricios,Comuna 4,1244,C1244ABQ
-58.4741615346379,-34.6774563777212,925,UDAI Villa Lugano,2019,1U,2,VIA PÃšBLICA,Edificio PÃºblico,Sayos,5654,,Villa Lugano,Comuna 8,1439,C1439CAT
-58.4679385845438,-34.6470372874434,926,UDAI Flores,2019,1U,2,VIA PÃšBLICA,Espacio PÃºblico,Peron Eva,3799,,Parque Avellaneda,Comuna 9,1407,C1407HUB
-58.4930778153765,-34.6253408350925,927,UDAI Floresta,2019,1U,2,VIA PÃšBLICA,Edificio PÃºblico,Av. Segurola,1129,,Floresta,Comuna 10,1407,C1407ANW
-58.4746089924341,-34.577516005835,928,UDAI Villa Urquiza,2019,1U,2,VIA PÃšBLICA,Espacio PÃºblico,Alvarez Thomas,2356,,Villa Ortuzar,Comuna 15,1431,C1431FON
-58.3704028587587,-34.61482806116,929,UDAI Monserrat,2019,1U,3,INTERIOR,Espacio PÃºblico,Mexico,270,,Monserrat,Comuna 1,1097,C1097AAF
-58.4050168558794,-34.5831296929283,930,Agentes de Transito. Base Ocampo,2019,1U,5,INTERIOR,Espacio PÃºblico,Ortiz de Ocampo,2517,,Palermo,Comuna 14,1425,C1425DSA
-58.3932268917765,-34.5940119859008,931,Banco ItaÃº - Recoleta,2019,1U,2,VIA PÃšBLICA,AMS,Av. Callao,1270,,Recoleta,Comuna 2,1023,C1023AAS
-58.4000295539526,-34.5897975484741,932,Banco ItaÃº - Recoleta,2019,1U,1,VIA PÃšBLICA,AMS,Av. Pueyrredon,1855,,Recoleta,Comuna 2,1119,C1119ACB
-58.4041650776257,-34.5832990693324,934,Banco ItaÃº - Palermo,2019,1U,2,VIA PÃšBLICA,AMS,Av. Gral Las Heras,3015,,Palermo,Comuna 14,1425,C1425ASH
-58.4426548817092,-34.5634829894549,935,Banco ItaÃº - Belgrano,2019,1U,1,VIA PÃšBLICA,AMS,Luis Maria Campos,1407,,Belgrano,Comuna 13,1426,C1426BOM
-58.5149141665027,-34.5903871896475,936,Banco ItaÃº -Villa Devoto,2019,1U,1,VIA PÃšBLICA,AMS,Av. San Martin,7187,,Villa Devoto,Comuna 11,1419,C1419ICI
-58.4411746485158,-34.6324700267968,937,Agentes de Transito. Base Chacabuco,2019,1,5,INTERIOR,Edificio PÃºblico,Emilio Mitre,981,,Parque Chacabuco,Comuna 7,1424,C1424AYS
-58.4691553927686,-34.6594619441857,938,UTN. Sede Campus,2019,1,34,INTERIOR,Universidades - Colegios,Mozart,2300,,Villa Lugano,Comuna 8,1407,C1407IVT
-58.3920765194273,-34.5997011750235,939,Mercado de San Nicolas,2019,1U,4,VIA PÃšBLICA,AMS,Av. Cordoba,1750,,San Nicolas,Comuna 1,1055,C1055AAU
-58.4152279112193,-34.5898439942667,940,Escuela Divino Corazon. Sube y Baja,2019,1U,3,VIA PÃšBLICA,Universidades - Colegios,Republica Dominicana,3586,,Palermo,Comuna 14,1425,C1425GKF
-58.3673044386511,-34.6014574538043,941,Camuzzi Gas,2019,1U,9,INTERIOR,AMS,Alicia Moreau de Justo,240,,Puerto Madero,Comuna 1,1107,C1107AAD
-58.5032840393275,-34.5782614265223,942,Escuela NÂ°22 Republica de Nicaragua,2019,1U,5,VIA PÃšBLICA,Universidades - Colegios,Bazurco,2551,,Villa Pueyrredon,Comuna 12,1419,C1419FKG
-58.4881170558326,-34.6482626448379,943,Rodados Universo,2019,1U,3,VIA PÃšBLICA,Local Amigo,Av. Directorio,4699,,Parque Avellaneda,Comuna 9,1407,C1407HGG
-58.3786269767597,-34.6105596425141,944,Anses - Edificio Central,2019,1U,2,VIA PÃšBLICA,Edificio PÃºblico,Adolfo Alsina,863,,Monserrat,Comuna 1,1087,C1087AAM
-58.4478393258044,-34.570530199331,945,La Fruteria CerÃ¡mica,2019,1U,1,VIA PÃšBLICA,AMS,Ciudad de la Paz,924,,Colegiales,Comuna 13,1426,C1426AGR
-58.4167041860391,-34.576748297251,946,Ecoparque,2019,1U,7,VIA PÃšBLICA,Espacio PÃºblico,SARMIENTO AV.,2600,,,,,
-58.4049995581693,-34.5796876508874,947,Museo Jose Hernandez,2019,1U,2,INTERIOR,Centro Cultural,Av. Libertador,2373,,Palermo,Comuna 14,1425,C1425AAJ
